{"type":"FeatureCollection","features":[{"type":"Feature","properties":{"title":"อาคารชุดอยู่อาศัย (1,628 ห้อง) และจอดรถยนต์","info":["ถนน: สามเสน","เขต: ดุสิต","จำนวนชั้น: 52 ชั้น (3ทาวเวอร์) , 1 , 1","สถานะ: อยู่ระหว่างก่อสร้าง"],"district":"ดุสิต"},"geometry":{"type":"Point","coordinates":[100.51233,13.78942]}},{"type":"Feature","properties":{"title":"อาคารสถานพยาบาล ,พาณิชย์","info":["ถนน: ลาดพร้าว 84","เขต: วังทองหลาง","จำนวนชั้น: 7 ชั้น , 7 ชั้น","สถานะ: อยู่ระหว่างก่อสร้าง"],"district":"บางเขน"},"geometry":{"type":"Point","coordinates":[100.60767,13.87622]}},{"type":"Feature","properties":{"title":"สำนักงาน,พักอาศัย","info":["ถนน: ลาดพร้าว 48/1","เขต: วังทองหลาง","จำนวนชั้น: 12","สถานะ: อยู่ระหว่างก่อสร้าง"],"district":"วังทองหลาง"},"geometry":{"type":"Point","coordinates":[100.58959,13.79672]}},{"type":"Feature","properties":{"title":"พาณิชย์ (ร้้านค้า)","info":["ถนน: ลาดพร้าว 98/1","เขต: วังทองหลาง","จำนวนชั้น: 3","สถานะ: อยู่ระหว่างก่อสร้าง"],"district":"วังทองหลาง"},"geometry":{"type":"Point","coordinates":[100.61285,13.78365]}},{"type":"Feature","properties":{"title":"สรรพสินค้า สำนักงาน โรงมหรสพ โบว์ลิ่ง สระว่ายน้ำ","info":["ถนน: ลาดพร้าว","เขต: วังทองหลาง","จำนวนชั้น: 17","สถานะ: อยู่ระหว่างก่อสร้าง"],"district":"วังทองหลาง"},"geometry":{"type":"Point","coordinates":[100.61202,13.78506]}},{"type":"Feature","properties":{"title":"อาคารเรียนปริยะธรรม","info":["ถนน: เจริญกรุง","เขต: ป้อมปราบศัตรูพ่าย","จำนวนชั้น: 5","สถานะ: อยู่ระหว่างก่อสร้าง"],"district":"ป้อมปราบศัตรูพ่าย"},"geometry":{"type":"Point","coordinates":[100.51019,13.74229]}},{"type":"Feature","properties":{"title":"สถานพยาบาล","info":["ถนน: บำรุงราษฏร์","เขต: ป้อมปราบศัตรูพ่าย","จำนวนชั้น: 11","สถานะ: อยู่ระหว่างก่อสร้าง"],"district":"ป้อมปราบศัตรูพ่าย"},"geometry":{"type":"Point","coordinates":[100.51454,13.75077]}},{"type":"Feature","properties":{"title":"โรงแรม (158 ห้อง) จอดรถยนต์ (ระบบเคลื่อนย้ายรถด้วยเครื่องจักรกล)","info":["ถนน: มิตรพันธ์","เขต: ป้อมปราบศัตรูพ่าย","จำนวนชั้น: 11","สถานะ: อยู่ระหว่างก่อสร้าง"],"district":"ป้อมปราบศัตรูพ่าย"},"geometry":{"type":"Point","coordinates":[100.51271,13.74056]}},{"type":"Feature","properties":{"title":"พักอาศัย - จอดรถยนต์","info":["ถนน: มิตรไมตรี","เขต: ดินแดง","จำนวนชั้น: 35","สถานะ: อยู่ระหว่างก่อสร้าง"],"district":"ดินแดง"},"geometry":{"type":"Point","coordinates":[100.54943,13.76438]}},{"type":"Feature","properties":{"title":"สำนักงาน - อาศัยรวม","info":["ถนน: ประชาสงเคราะห์","เขต: ดินแดง","จำนวนชั้น: 8","สถานะ: หยุดก่อสร้าง"],"district":"ดินแดง"},"geometry":{"type":"Point","coordinates":[100.55716,13.77468]}},{"type":"Feature","properties":{"title":"อยู่อาศัยรวม","info":["ถนน: จตุรทิศ","เขต: ดินแดง","จำนวนชั้น: 32","สถานะ: อยู่ระหว่างก่อสร้าง"],"district":"ดินแดง"},"geometry":{"type":"Point","coordinates":[100.55313,13.75673]}},{"type":"Feature","properties":{"title":"อยู่อาศัยรวม - จอดรถยนต์","info":["ถนน: ประชาสงเคราะห์","เขต: ดินแดง","จำนวนชั้น: 34","สถานะ: ยังไม่ได้ก่อสร้าง"],"district":"ดินแดง"},"geometry":{"type":"Point","coordinates":[100.55762,13.76838]}},{"type":"Feature","properties":{"title":"โรงแรม-พาณิชย์-ภัตตาคาร","info":["ถนน: อโศก","เขต: ดินแดง","จำนวนชั้น: 26","สถานะ: อยู่ระหว่างก่อสร้าง"],"district":"ดินแดง"},"geometry":{"type":"Point","coordinates":[100.56351,13.75591]}},{"type":"Feature","properties":{"title":"อาคารชุดอยู่อาศัย (๓๘๓ ห้อง) สระว่ายน้ำ จอดรถยนต์","info":["ถนน: สุทธิสารวินิจฉัย","เขต: พญาไท","จำนวนชั้น: 38","สถานะ: หยุดก่อสร้าง"],"district":"พญาไท"},"geometry":{"type":"Point","coordinates":[100.55316,13.78887]}},{"type":"Feature","properties":{"title":"สำนักงาน พาณิชยกรรม สถานศึกษา จอดรถยนต์ พาณิชย์","info":["ถนน: วิภาวดีรังสิต","เขต: พญาไท","จำนวนชั้น: 31","สถานะ: ยังไม่ได้ก่อสร้าง"],"district":"พญาไท"},"geometry":{"type":"Point","coordinates":[100.54367,13.77778]}},{"type":"Feature","properties":{"title":"อาคารชุด (514 ห้อง) ชุดพาณิชย์-ร้านค้า","info":["ถนน: ประดิพัทธ์","เขต: พญาไท","จำนวนชั้น: 48","สถานะ: ยังไม่ได้ก่อสร้าง"],"district":"ดุสิต"},"geometry":{"type":"Point","coordinates":[100.51885,13.78692]}},{"type":"Feature","properties":{"title":"อาคารชุด (194 ห้อง)จอดรถยนต์","info":["ถนน: วิภาวดีรังสิต","เขต: พญาไท","จำนวนชั้น: 28","สถานะ: ยังไม่ได้ก่อสร้าง"],"district":"พญาไท"},"geometry":{"type":"Point","coordinates":[100.55205,13.77266]}},{"type":"Feature","properties":{"title":"อาคารชุด","info":["ถนน: พหลโยธิน","เขต: พญาไท","จำนวนชั้น: 42","สถานะ: อยู่ระหว่างก่อสร้าง"],"district":"ดุสิต"},"geometry":{"type":"Point","coordinates":[100.51885,13.78692]}},{"type":"Feature","properties":{"title":"อาคารชุด (514 ห้อง)ชุดพาณิชย์-ร้านค้า","info":["ถนน: พหลโยธิน","เขต: พญาไท","จำนวนชั้น: 26","สถานะ: อยู่ระหว่างก่อสร้าง"],"district":"ดุสิต"},"geometry":{"type":"Point","coordinates":[100.51885,13.78692]}},{"type":"Feature","properties":{"title":"โรงแรม(412ห้อง)","info":["ถนน: พญาไท","เขต: ราชเทวี","จำนวนชั้น: 30","สถานะ: อยู่ระหว่างก่อสร้าง"],"district":"ราชเทวี"},"geometry":{"type":"Point","coordinates":[100.53543,13.75941]}},{"type":"Feature","properties":{"title":"โรงพยาบาล ( 214 ห้อง )","info":["ถนน: พญาไท","เขต: ราชเทวี","จำนวนชั้น: 22","สถานะ: อยู่ระหว่างก่อสร้าง"],"district":"ราชเทวี"},"geometry":{"type":"Point","coordinates":[100.53652,13.76102]}},{"type":"Feature","properties":{"title":"โรงแรม","info":["ถนน: เพชรบุรี","เขต: ราชเทวี","จำนวนชั้น: 32","สถานะ: ยังไม่ได้ก่อสร้าง"],"district":"ราชเทวี"},"geometry":{"type":"Point","coordinates":[100.54055,13.75142]}},{"type":"Feature","properties":{"title":"โรงแรม(44ห้อง)","info":["ถนน: เพชรบุรี","เขต: ราชเทวี","จำนวนชั้น: 5","สถานะ: อยู่ระหว่างก่อสร้าง"],"district":"ราชเทวี"},"geometry":{"type":"Point","coordinates":[100.52314,13.75653]}},{"type":"Feature","properties":{"title":"อาคารชุดอยู่อาศัย(383ห้อง)","info":["ถนน: พญาไท","เขต: ราชเทวี","จำนวนชั้น: 32","สถานะ: อยู่ระหว่างก่อสร้าง"],"district":"ราชเทวี"},"geometry":{"type":"Point","coordinates":[100.53193,13.75396]}},{"type":"Feature","properties":{"title":"(อาคารB) สำนักงาน จอดรถยนต์","info":["ถนน: พญาไท","เขต: ราชเทวี","จำนวนชั้น: 7","สถานะ: ยังไม่ได้ก่อสร้าง"],"district":"ราชเทวี"},"geometry":{"type":"Point","coordinates":[100.53245,13.74981]}},{"type":"Feature","properties":{"title":"(อาคาร A) อยู่อาศัยรวม พักอาศัย จอดรถยนต์","info":["ถนน: เพชรบุรี","เขต: ราชเทวี","จำนวนชั้น: 7","สถานะ: อยู่ระหว่างก่อสร้าง"],"district":"ราชเทวี"},"geometry":{"type":"Point","coordinates":[100.53549,13.75107]}},{"type":"Feature","properties":{"title":"สถานพยาบาล พาณิชย์ จอดรถยนต์","info":["ถนน: ศรีอยุธยา","เขต: ราชเทวี","จำนวนชั้น: 29","สถานะ: อยู่ระหว่างก่อสร้าง"],"district":"ราชเทวี"},"geometry":{"type":"Point","coordinates":[100.53595,13.75718]}},{"type":"Feature","properties":{"title":"อาคารโรงแรม(56ห้อง)","info":["ถนน: ราชปรารภ","เขต: ราชเทวี","จำนวนชั้น: 5","สถานะ: ยังไม่ได้ก่อสร้าง"],"district":"ราชเทวี"},"geometry":{"type":"Point","coordinates":[100.54475,13.7531]}},{"type":"Feature","properties":{"title":"อาคารโรงแรม(20ห้อง)","info":["ถนน: เพชรบุรี","เขต: ราชเทวี","จำนวนชั้น: 5","สถานะ: อยู่ระหว่างก่อสร้าง"],"district":"ราชเทวี"},"geometry":{"type":"Point","coordinates":[100.53011,13.75476]}},{"type":"Feature","properties":{"title":"โรงแรม(59ห้อง)","info":["ถนน: เพชรบุุรี","เขต: ราชเทวี","จำนวนชั้น: 8","สถานะ: อยู่ระหว่างก่อสร้าง"],"district":"ราชเทวี"},"geometry":{"type":"Point","coordinates":[100.53323,13.74954]}},{"type":"Feature","properties":{"title":"อาคารชุดอยู่อาศัย(380ห้อง)ชุดสำนักงาน(1ห้อง)สระว่ายน้ำ จอดรถยนต์","info":["ถนน: พญาไท","เขต: ราชเทวี","จำนวนชั้น: 38","สถานะ: อยู่ระหว่างก่อสร้าง"],"district":"ราชเทวี"},"geometry":{"type":"Point","coordinates":[100.53599,13.76052]}},{"type":"Feature","properties":{"title":"อยู่อาศัยรวม (1,803 ห้อง) พาณิชย์ สำนักงาน และจอดรถยนต์","info":["ถนน: พระรามที่ 4","เขต: ปทุมวัน","จำนวนชั้น: 50 , 43 , 7","สถานะ: อยู่ระหว่างก่อสร้าง"],"district":"ปทุมวัน"},"geometry":{"type":"Point","coordinates":[100.52429,13.73813]}},{"type":"Feature","properties":{"title":"อาคารชุดอยู่อาศัย","info":["ถนน: สุขุมวิท 63","เขต: วัฒนา","จำนวนชั้น: 39","สถานะ: อยู่ระหว่างก่อสร้าง"],"district":"วัฒนา"},"geometry":{"type":"Point","coordinates":[100.58873,13.73736]}},{"type":"Feature","properties":{"title":"โรงแรม","info":["ถนน: สุขุมวิท 51","เขต: วัฒนา","จำนวนชั้น: 8","สถานะ: ยังไม่ได้ก่อสร้าง"],"district":"วัฒนา"},"geometry":{"type":"Point","coordinates":[100.5764,13.72778]}},{"type":"Feature","properties":{"title":"สถานพยาบาล","info":["ถนน: สุขุมวิท 55","เขต: วัฒนา","จำนวนชั้น: 7","สถานะ: อยู่ระหว่างก่อสร้าง"],"district":"วัฒนา"},"geometry":{"type":"Point","coordinates":[100.58456,13.73421]}},{"type":"Feature","properties":{"title":"โรงแรม","info":["ถนน: สุขุมวิท 55","เขต: วัฒนา","จำนวนชั้น: 29","สถานะ: ยังไม่ได้ก่อสร้าง"],"district":"วัฒนา"},"geometry":{"type":"Point","coordinates":[100.57977,13.72462]}},{"type":"Feature","properties":{"title":"อาคารชุดอยู่อาศัย","info":["ถนน: สุขุมวิท 55","เขต: วัฒนา","จำนวนชั้น: 52","สถานะ: ยังไม่ได้ก่อสร้าง"],"district":"วัฒนา"},"geometry":{"type":"Point","coordinates":[100.58189,13.72913]}},{"type":"Feature","properties":{"title":"โรงแรม","info":["ถนน: สุขุมวิท 55","เขต: วัฒนา","จำนวนชั้น: 37","สถานะ: อยู่ระหว่างก่อสร้าง"],"district":"วัฒนา"},"geometry":{"type":"Point","coordinates":[100.57845,13.72476]}},{"type":"Feature","properties":{"title":"อาคารชุดอยู่อาศัยรวม","info":["ถนน: สุขุมวิท 59","เขต: วัฒนา","จำนวนชั้น: 36","สถานะ: อยู่ระหว่างก่อสร้าง"],"district":"วัฒนา"},"geometry":{"type":"Point","coordinates":[100.58711,13.72361]}},{"type":"Feature","properties":{"title":"โรงแรม (64 ห้อง)","info":["ถนน: สุขุมวิท 49","เขต: วัฒนา","จำนวนชั้น: 8","สถานะ: อยู่ระหว่างก่อสร้าง"],"district":"คลองเตย"},"geometry":{"type":"Point","coordinates":[100.57674,13.72391]}},{"type":"Feature","properties":{"title":"พาณิชย์","info":["ถนน: ประชาอุทิศ","เขต: ห้วยขวาง","จำนวนชั้น: 1","สถานะ: อยู่ระหว่างก่อสร้าง"],"district":"ห้วยขวาง"},"geometry":{"type":"Point","coordinates":[100.58563,13.77051]}},{"type":"Feature","properties":{"title":"โรงแรม","info":["ถนน: สุขุมวิท 55","เขต: วัฒนา","จำนวนชั้น: 34","สถานะ: อยู่ระหว่างก่อสร้าง"],"district":"วัฒนา"},"geometry":{"type":"Point","coordinates":[100.58381,13.73646]}},{"type":"Feature","properties":{"title":"อาคารชุดอยู่อาศัย","info":["ถนน: สุขุมวิท 55","เขต: วัฒนา","จำนวนชั้น: 29,30,16","สถานะ: อยู่ระหว่างก่อสร้าง"],"district":"วัฒนา"},"geometry":{"type":"Point","coordinates":[100.58475,13.73127]}},{"type":"Feature","properties":{"title":"อาคารชุดอยู่อาศัย 17 ห้อง","info":["ถนน: สุขุมวิท 63","เขต: วัฒนา","จำนวนชั้น: 7","สถานะ: อยู่ระหว่างก่อสร้าง"],"district":"วัฒนา"},"geometry":{"type":"Point","coordinates":[100.59035,13.7316]}},{"type":"Feature","properties":{"title":"อาคารชุดอยู่อาศัย (106ห้อง),สระว่ายน้ำ,จอดรถยนต์","info":["ถนน: สุขุมวิท 39","เขต: วัฒนา","จำนวนชั้น: 34","สถานะ: อยู่ระหว่างก่อสร้าง"],"district":"วัฒนา"},"geometry":{"type":"Point","coordinates":[100.57088,13.73003]}},{"type":"Feature","properties":{"title":"สถานพยาบาล , สำนักงาน","info":["ถนน: เอกมัย 21","เขต: วัฒนา","จำนวนชั้น: 2","สถานะ: ยังไม่ได้ก่อสร้าง"],"district":"วัฒนา"},"geometry":{"type":"Point","coordinates":[100.58743,13.73867]}},{"type":"Feature","properties":{"title":"โรงแรม 80 ห้อง อยู่อาศัยรวม 18 ห้อง พาณิชย์ และจอดรถยนต์","info":["ถนน: สุขุมวิท 49","เขต: วัฒนา","จำนวนชั้น: 7","สถานะ: ยังไม่ได้ก่อสร้าง"],"district":"วัฒนา"},"geometry":{"type":"Point","coordinates":[100.56747,13.73328]}},{"type":"Feature","properties":{"title":"อาคารพาณิชย์ สำนักงาน จอดรถยนต์","info":["ถนน: สุขุมวิท 55","เขต: วัฒนา","จำนวนชั้น: 6","สถานะ: อยู่ระหว่างก่อสร้าง"],"district":"วัฒนา"},"geometry":{"type":"Point","coordinates":[100.58058,13.72773]}},{"type":"Feature","properties":{"title":"สถานพยาบาล,พาณิชยกรรม","info":["ถนน: สุขุมวิท 49","เขต: วัฒนา","จำนวนชั้น: 4,1,1,1","สถานะ: อยู่ระหว่างก่อสร้าง"],"district":"วัฒนา"},"geometry":{"type":"Point","coordinates":[100.57698,13.73277]}},{"type":"Feature","properties":{"title":"อยู่อาศัยและสถานพยาบาล","info":["ถนน: เจริญใจ","เขต: วัฒนา","จำนวนชั้น: 8","สถานะ: อยู่ระหว่างก่อสร้าง"],"district":"วัฒนา"},"geometry":{"type":"Point","coordinates":[100.59151,13.73016]}},{"type":"Feature","properties":{"title":"อาคารชุดอยู่อาศัย (23ห้อง) ที่จอดรถยนต์","info":["ถนน: สุขุมวิท 33","เขต: วัฒนา","จำนวนชั้น: 14,2","สถานะ: อยู่ระหว่างก่อสร้าง"],"district":"วัฒนา"},"geometry":{"type":"Point","coordinates":[100.57085,13.73673]}},{"type":"Feature","properties":{"title":"อาคารอยูู่่อาศัย","info":["ถนน: พร้อมจิตร","เขต: วัฒนา","จำนวนชั้น: 7","สถานะ: ยังไม่ได้ก่อสร้าง"],"district":"วัฒนา"},"geometry":{"type":"Point","coordinates":[100.57144,13.74085]}},{"type":"Feature","properties":{"title":"อาคารชุดอยู่อาศัย 287 ห้องชั้นให้ดิน 2 ชั้น ใช้เป็นที่จอดรถ ตึกชั้นเดียว1หลังใช้เป็นป้อมยาม","info":["ถนน: สุขุมวิท 65","เขต: วัฒนา","จำนวนชั้น: 37","สถานะ: อยู่ระหว่างก่อสร้าง"],"district":"วัฒนา"},"geometry":{"type":"Point","coordinates":[100.5881,13.71806]}},{"type":"Feature","properties":{"title":"อยู่อาศัยรวม 75 ห้อง , จอดรถยนต์","info":["ถนน: ปรีดีพนมยงค์ 14","เขต: วัฒนา","จำนวนชั้น: 8","สถานะ: อยู่ระหว่างก่อสร้าง"],"district":"วัฒนา"},"geometry":{"type":"Point","coordinates":[100.59808,13.72602]}},{"type":"Feature","properties":{"title":"อยู่อาศัยรวม (308 ห้อง) ภัตตาคาร พาณิชย์ สำนักงาน สระว่ายน้ำ และจอดรถยนต์","info":["ถนน: ราชดำริ","เขต: ปทุมวัน","จำนวนชั้น: 57","สถานะ: หยุดก่อสร้าง"],"district":"ปทุมวัน"},"geometry":{"type":"Point","coordinates":[100.54102,13.73644]}},{"type":"Feature","properties":{"title":"โรงแรม (509 ห้อง) พาณิชย์ ภัตตาคาร สำนักงาน และจอดรถยนต์","info":["ถนน: ราชดำริ","เขต: ปทุมวัน","จำนวนชั้น: 40","สถานะ: อยู่ระหว่างก่อสร้าง"],"district":"ปทุมวัน"},"geometry":{"type":"Point","coordinates":[100.54034,13.74193]}},{"type":"Feature","properties":{"title":"สรรพสิินค้า ภัตตาคาร สถานกีฬาในร่ม พาณิชยกรรม สถานศึกษา โรงมหรสพ สำนักงาน พิพิธภัณฑสถาน และจอดรถยนต์","info":["ถนน: พระรามที่ 1","เขต: ปทุมวัน","จำนวนชั้น: 9","สถานะ: อยู่ระหว่างก่อสร้าง"],"district":"ปทุมวัน"},"geometry":{"type":"Point","coordinates":[100.53493,13.74663]}},{"type":"Feature","properties":{"title":"สรรพสินค้า พาณิชย์ โรงแรม(509 ห้อง) ภัตตาคาร สำนักงาน โรงมหรสพ สถานศึกษา และจอดรถยนต์","info":["ถนน: พระรามที่ 1","เขต: ปทุมวัน","จำนวนชั้น: 46","สถานะ: อยู่ระหว่างก่อสร้าง"],"district":"ปทุมวัน"},"geometry":{"type":"Point","coordinates":[100.54245,13.74829]}},{"type":"Feature","properties":{"title":"สรรพสิค้า โรงแรม (1,207 ห้อง) อยู่อาศัยรวม (1,359 ห้อง) พาณิชยกรรม สำนักงาน หอประชุม โรงมหรสพ ศูนย์แสดงสินค้า ภัตตาคาร สระว่ายน้ำ และจอดรถยนต์","info":["ถนน: พระรามที่ 4","เขต: ปทุมวัน","จำนวนชั้น: 92","สถานะ: อยู่ระหว่างก่อสร้าง"],"district":"ปทุมวัน"},"geometry":{"type":"Point","coordinates":[100.54679,13.72734]}},{"type":"Feature","properties":{"title":"อาคารชุดอยู่อาศัย (757 ห้อง) สระว่ายน้ำ และจอดรถยนต์อัตโนมัติ","info":["ถนน: วิทยุ","เขต: ปทุมวัน","จำนวนชั้น: 41","สถานะ: อยู่ระหว่างก่อสร้าง"],"district":"ปทุมวัน"},"geometry":{"type":"Point","coordinates":[100.54852,13.74632]}},{"type":"Feature","properties":{"title":"สรรพสินค้า โรงแรม (222 ห้อง) พาณิชยกรรม โรงหรสพ ภัตตาคาร สถานศึกษา หอประชุม สถานบริการ และจอดรถยนต์","info":["ถนน: เพลินจิต","เขต: ปทุมวัน","จำนวนชั้น: 44","สถานะ: หยุดก่อสร้าง"],"district":"ปทุมวัน"},"geometry":{"type":"Point","coordinates":[100.54682,13.74501]}},{"type":"Feature","properties":{"title":"อาคารชุด พักอาศัย 774 ห้อง พาณิชย์ 3 ห้อง สระว่ายน้ำ จอดรถยนต์ รั้ว ค.ส.ล.","info":["ถนน: เทพรัตน","เขต: บางนา","จำนวนชั้น: 26","สถานะ: อยู่ระหว่างก่อสร้าง"],"district":"บางนา"},"geometry":{"type":"Point","coordinates":[100.64223,13.66407]}},{"type":"Feature","properties":{"title":"ตึก 24 ชั้น ชั้นลอย ชั้นใต้ดิน 2 ชั้น จำนน 1 หลัง ใช้เป็นสรรพสินค้า - พาณิชย์ - สวนสนุก - สถานศึกษา - ภัตตาคาร - โรงมหรสพ - แสดงสินค้า - จอดรถยนต์","info":["ถนน: เทพรัตน์","เขต: บางนา","จำนวนชั้น: 24","สถานะ: อยู่ระหว่างก่อสร้าง"],"district":"บางนา"},"geometry":{"type":"Point","coordinates":[100.61,13.6739]}},{"type":"Feature","properties":{"title":"ค.ส.ล. 31 ชั้น ใต้ดิน 1 ชั้น 2 ทาวเวอร์ อยู่อาศัยรวม จอดรถยนต์","info":["ถนน: เทพรัตน์","เขต: บางนา","จำนวนชั้น: 31","สถานะ: อยู่ระหว่างก่อสร้าง"],"district":"บางนา"},"geometry":{"type":"Point","coordinates":[100.6402,13.6677]}},{"type":"Feature","properties":{"title":"ดัดแปลง อาคารพาณิชย์","info":["ถนน: เทพรัตน์","เขต: บางนา","จำนวนชั้น: 5","สถานะ: อยู่ระหว่างก่อสร้าง"],"district":"บางนา"},"geometry":{"type":"Point","coordinates":[100.6418,13.6669]}},{"type":"Feature","properties":{"title":"อาคารโรงแรม (35 ห้อง)","info":["ถนน: พัฒนาการ","เขต: สวนหลวง","จำนวนชั้น: 5","สถานะ: อยู่ระหว่างก่อสร้าง"],"district":"สวนหลวง"},"geometry":{"type":"Point","coordinates":[100.65113,13.73618]}},{"type":"Feature","properties":{"title":"อาคารชุดอยู่อาศัย(887ห้อง) และอาคารชุดอยู่อาศัย(748ห้อง)","info":["ถนน: พัฒนาการ","เขต: สวนหลวง","จำนวนชั้น: 30,27","สถานะ: อยู่ระหว่างก่อสร้าง"],"district":"สวนหลวง"},"geometry":{"type":"Point","coordinates":[100.60698,13.73909]}},{"type":"Feature","properties":{"title":"อาคารชุดอยู่อาศัย(319ห้อง) และอาคารชุดอยู่อาศัย(486 ห้อง)","info":["ถนน: ศรีนครินทร์","เขต: สวนหลวง","จำนวนชั้น: 33 ,37","สถานะ: ยังไม่ได้ก่อสร้าง"],"district":"สวนหลวง"},"geometry":{"type":"Point","coordinates":[100.63706,13.74562]}},{"type":"Feature","properties":{"title":"สำนักงาน สนามกีฬาในร่ม","info":["ถนน: พระราม 9","เขต: สวนหลวง","จำนวนชั้น: 3","สถานะ: อยู่ระหว่างก่อสร้าง"],"district":"สวนหลวง"},"geometry":{"type":"Point","coordinates":[100.64664,13.73952]}},{"type":"Feature","properties":{"title":"สถานศึกษา (สอนว่ายน้ำ)","info":["ถนน: พระราม 9","เขต: สวนหลวง","จำนวนชั้น: 2","สถานะ: อยู่ระหว่างก่อสร้าง"],"district":"สวนหลวง"},"geometry":{"type":"Point","coordinates":[100.62837,13.74446]}},{"type":"Feature","properties":{"title":"อาคารโรงแรม1(250ห้อง),โรงแรม2(258ห้อง) ภัตตาคาร พาณิชย์(ร้านค้า) สำนักงาน สถานศึกษา(โรงเรียนนอกระบบ)และจอดรถยนต์","info":["ถนน: สุขุมวิท","เขต: พระโขนง","จำนวนชั้น: 23","สถานะ: อยู่ระหว่างก่อสร้าง"],"district":"พระโขนง"},"geometry":{"type":"Point","coordinates":[100.60911,13.68363]}},{"type":"Feature","properties":{"title":"อาคารโรงแรม (79 ห้้อง)","info":["ถนน: สุขุมวิท","เขต: พระโขนง","จำนวนชั้น: 8","สถานะ: ยังไม่ได้ก่อสร้าง"],"district":"พระโขนง"},"geometry":{"type":"Point","coordinates":[100.60519,13.69638]}},{"type":"Feature","properties":{"title":"อาคารสำนักงาน พาณิชย์ (ร้านค้า ) จอดรถยนต์","info":["ถนน: สุขุมวิท","เขต: พระโขนง","จำนวนชั้น: 22","สถานะ: ยังไม่ได้ก่อสร้าง"],"district":"พระโขนง"},"geometry":{"type":"Point","coordinates":[100.60657,13.69309]}},{"type":"Feature","properties":{"title":"อาคารสถานศึกษา (มัธยมและโรงยิม)","info":["ถนน: สุขุมวิท","เขต: พระโขนง","จำนวนชั้น: 6","สถานะ: อยู่ระหว่างก่อสร้าง"],"district":"พระโขนง"},"geometry":{"type":"Point","coordinates":[100.60818,13.68829]}},{"type":"Feature","properties":{"title":"อาคารพาณิชย์(ร้านค้า) และสถานกีฬาในร่ม(สนามบาสเกตบอล)","info":["ถนน: วชิรธรรมสาธิต 37","เขต: พระโขนง","จำนวนชั้น: 1","สถานะ: อยู่ระหว่างก่อสร้าง"],"district":"พระโขนง"},"geometry":{"type":"Point","coordinates":[100.62665,13.6862]}},{"type":"Feature","properties":{"title":"โรงแรม","info":["ถนน: เจริญกรุง 33","เขต: สัมพันธวงศ์","จำนวนชั้น: 7","สถานะ: อยู่ระหว่างก่อสร้าง"],"district":"สัมพันธวงศ์"},"geometry":{"type":"Point","coordinates":[100.51509,13.73307]}},{"type":"Feature","properties":{"title":"โรงแรม (39 ห้อง)","info":["ถนน: ภานุรังษี","เขต: สัมพันธวงศ์","จำนวนชั้น: 6","สถานะ: ยังไม่ได้ก่อสร้าง"],"district":"สัมพันธวงศ์"},"geometry":{"type":"Point","coordinates":[100.5115,13.73533]}},{"type":"Feature","properties":{"title":"โรงแรม (528ห้อง) ภัตตาคาร สำนักงาน ห้องประชุม พรณิชยกรรม","info":["ถนน: เจริญกรุง","เขต: สัมพันธวงศ์","จำนวนชั้น: 10","สถานะ: อยู่ระหว่างก่อสร้าง"],"district":"สัมพันธวงศ์"},"geometry":{"type":"Point","coordinates":[100.50466,13.7452]}},{"type":"Feature","properties":{"title":"อาคารชุดอยู่อาศัย (190 ห้อง)","info":["ถนน: เจริญกรุง","เขต: บางคอแหลม","จำนวนชั้น: 8","สถานะ: อยู่ระหว่างก่อสร้าง"],"district":"บางคอแหลม"},"geometry":{"type":"Point","coordinates":[100.50347,13.69468]}},{"type":"Feature","properties":{"title":"โรงแรม - สำนักงาน","info":["ถนน: รัชดาภิเษก","เขต: ห้วยขวาง","จำนวนชั้น: 31","สถานะ: อยู่ระหว่างก่อสร้าง"],"district":"ห้วยขวาง"},"geometry":{"type":"Point","coordinates":[100.57425,13.78466]}},{"type":"Feature","properties":{"title":"อาคารชุดอยู่อาศัย - จอดรถยนต์","info":["ถนน: ประชาราษฎร์บำเพ็ญ","เขต: ห้วยขวาง","จำนวนชั้น: 31","สถานะ: อยู่ระหว่างก่อสร้าง"],"district":"ห้วยขวาง"},"geometry":{"type":"Point","coordinates":[100.57702,13.77832]}},{"type":"Feature","properties":{"title":"อาคารชุดอยู่อาศัย - จอดรถยนต์","info":["ถนน: พระราม9","เขต: ห้วยขวาง","จำนวนชั้น: 29","สถานะ: อยู่ระหว่างก่อสร้าง"],"district":"ห้วยขวาง"},"geometry":{"type":"Point","coordinates":[100.57277,13.75577]}},{"type":"Feature","properties":{"title":"โรงแรม - พาณิชย์","info":["ถนน: พระราม9","เขต: ห้วยขวาง","จำนวนชั้น: 24","สถานะ: หยุดก่อสร้าง"],"district":"ห้วยขวาง"},"geometry":{"type":"Point","coordinates":[100.56648,13.75625]}},{"type":"Feature","properties":{"title":"สำนักงาน","info":["ถนน: พระราม9","เขต: ห้วยขวาง","จำนวนชั้น: 44","สถานะ: อยู่ระหว่างก่อสร้าง"],"district":"ห้วยขวาง"},"geometry":{"type":"Point","coordinates":[100.57226,13.75586]}},{"type":"Feature","properties":{"title":"โรงแรม - พาณิชย์","info":["ถนน: เทียมร่วมมิตร","เขต: ห้วยขวาง","จำนวนชั้น: 103","สถานะ: หยุดก่อสร้าง"],"district":"ห้วยขวาง"},"geometry":{"type":"Point","coordinates":[100.57859,13.76734]}},{"type":"Feature","properties":{"title":"อาคารพาณิชย์ ( ร้านค้า ) จอดรถยนต์","info":["ถนน: กำแพงเพชร 7","เขต: ห้วยขวาง","จำนวนชั้น: 4 , 5 , 2 , 1","สถานะ: หยุดก่อสร้าง"],"district":"ห้วยขวาง"},"geometry":{"type":"Point","coordinates":[100.57639,13.74762]}},{"type":"Feature","properties":{"title":"อาคารชุดอยุ่อาศัย,ชุดพาณิชย์,จอดรถยนต์","info":["ถนน: เทียนร่วมมิตร","เขต: ห้วยขวาง","จำนวนชั้น: 27,29,7,2","สถานะ: อยู่ระหว่างก่อสร้าง"],"district":"ห้วยขวาง"},"geometry":{"type":"Point","coordinates":[100.58375,13.755]}},{"type":"Feature","properties":{"title":"สำนักงาน พาณิชยกรรม และจอดรถยนต์","info":["ถนน: รัชดาภิเษก","เขต: ห้วยขวาง","จำนวนชั้น: 37","สถานะ: อยู่ระหว่างก่อสร้าง"],"district":"ห้วยขวาง"},"geometry":{"type":"Point","coordinates":[100.57013,13.76464]}},{"type":"Feature","properties":{"title":"อาศัยรวม(18ห้อง)","info":["ถนน: เพชรบุรี","เขต: ห้วยขวาง","จำนวนชั้น: 5","สถานะ: อยู่ระหว่างก่อสร้าง"],"district":"ห้วยขวาง"},"geometry":{"type":"Point","coordinates":[100.58267,13.74674]}},{"type":"Feature","properties":{"title":"โรงแรม(20ห้อง)","info":["ถนน: ประชาราษฎร์บำเพ็ญ","เขต: ห้วยขวาง","จำนวนชั้น: 5","สถานะ: ยังไม่ได้ก่อสร้าง"],"district":"ห้วยขวาง"},"geometry":{"type":"Point","coordinates":[100.59166,13.78125]}},{"type":"Feature","properties":{"title":"สถานพยาบาล - จอดรถยนต์","info":["ถนน: ริมคลองสามเสน","เขต: ห้วยขวาง","จำนวนชั้น: 6","สถานะ: อยู่ระหว่างก่อสร้าง"],"district":"ห้วยขวาง"},"geometry":{"type":"Point","coordinates":[100.58108,13.7535]}},{"type":"Feature","properties":{"title":"พาณิชย์ - สำนักงาน","info":["ถนน: รัชดาภิเษก","เขต: ห้วยขวาง","จำนวนชั้น: 4","สถานะ: อยู่ระหว่างก่อสร้าง"],"district":"ดินแดง"},"geometry":{"type":"Point","coordinates":[100.56853,13.76577]}},{"type":"Feature","properties":{"title":"อยู่อาศัย - สำนักงาน - ภัตตาคาร","info":["ถนน: สุทธิสาร","เขต: ห้วยขวาง","จำนวนชั้น: 3","สถานะ: อยู่ระหว่างก่อสร้าง"],"district":"ห้วยขวาง"},"geometry":{"type":"Point","coordinates":[100.57554,13.78966]}},{"type":"Feature","properties":{"title":"โรงแรม(29ห้อง)","info":["ถนน: รัชดาภิเษก","เขต: ห้วยขวาง","จำนวนชั้น: 5","สถานะ: อยู่ระหว่างก่อสร้าง"],"district":"ห้วยขวาง"},"geometry":{"type":"Point","coordinates":[100.57556,13.78166]}},{"type":"Feature","properties":{"title":"โรงพยาบาล,อาศัยรวม","info":["ถนน: เพชรบุรีฯ","เขต: ห้วยขวาง","จำนวนชั้น: 21,17","สถานะ: อยู่ระหว่างก่อสร้าง"],"district":"ห้วยขวาง"},"geometry":{"type":"Point","coordinates":[100.5695,13.74788]}},{"type":"Feature","properties":{"title":"โรงแรม (309 ห้อง) ภัตตาคาร สระว่ายน้ำ จอดรถยนต์ , พาณิชย์ (ร้านค้า) สโมสร สระว่ายน้ำ ออกกำลังกาย จอดรถยนต์","info":["ถนน: พระรามที่ 4","เขต: คลองเตย","จำนวนชั้น: 31,5","สถานะ: หยุดก่อสร้าง"],"district":"คลองเตย"},"geometry":{"type":"Point","coordinates":[100.57837,13.71494]}},{"type":"Feature","properties":{"title":"อาคารชุดพักอาศัย (67 ห้อง) และจอดรถยนต์","info":["ถนน: สุขุมวิท","เขต: คลองเตย","จำนวนชั้น: 18","สถานะ: หยุดก่อสร้าง"],"district":"คลองเตย"},"geometry":{"type":"Point","coordinates":[100.57898,13.7219]}},{"type":"Feature","properties":{"title":"อาคารชุดอยู่อาศัย (216 ห้อง) สระว่ายน้ำ และจอดรถยนต์","info":["ถนน: สุขุมวิท","เขต: คลองเตย","จำนวนชั้น: 36","สถานะ: อยู่ระหว่างก่อสร้าง"],"district":"คลองเตย"},"geometry":{"type":"Point","coordinates":[100.57909,13.72308]}},{"type":"Feature","properties":{"title":"อาคารชุดอยู่อาศัย (1,323 ห้อง) ชุดพาณิชย์ 2 ห้อง) และที่จอดรถยนต์","info":["ถนน: พระรามที่ 4","เขต: คลองเตย","จำนวนชั้น: 38","สถานะ: อยู่ระหว่างก่อสร้าง"],"district":"คลองเตย"},"geometry":{"type":"Point","coordinates":[100.58926,13.71088]}},{"type":"Feature","properties":{"title":"อาคารสำนักงาน ที่จอดรถยนต์","info":["ถนน: สุขุมวิท","เขต: คลองเตย","จำนวนชั้น: 27","สถานะ: หยุดก่อสร้าง"],"district":"คลองเตย"},"geometry":{"type":"Point","coordinates":[100.58991,13.71552]}},{"type":"Feature","properties":{"title":"อาคารจอดรถยนต์ (อาคาร B) , อาคารชุดอยู่อาศัย (696 ห้อง) ชุดพาณิชย์ 1 ห้อง","info":["ถนน: สุขุมวิท","เขต: คลองเตย","จำนวนชั้น: 8 , 37","สถานะ: อยู่ระหว่างก่อสร้าง"],"district":"คลองเตย"},"geometry":{"type":"Point","coordinates":[100.59965,13.70776]}},{"type":"Feature","properties":{"title":"อาคารโรงแรม(347ห้อง)","info":["ถนน: สุขุมวิท","เขต: คลองเตย","จำนวนชั้น: 38","สถานะ: อยู่ระหว่างก่อสร้าง"],"district":"คลองเตย"},"geometry":{"type":"Point","coordinates":[100.55467,13.73899]}},{"type":"Feature","properties":{"title":"โรงเเรม(311ห้อง) ภัตตาคาร และจอดรถยนต์","info":["ถนน: สุขุมวิท","เขต: คลองเตย","จำนวนชั้น: 37","สถานะ: อยู่ระหว่างก่อสร้าง"],"district":"คลองเตย"},"geometry":{"type":"Point","coordinates":[100.56702,13.73203]}},{"type":"Feature","properties":{"title":"สถานพยาบาล (แบบไม่มีเตียง) จอดรถยนต์","info":["ถนน: สุขุมวิท 1","เขต: วัฒนา","จำนวนชั้น: 6","สถานะ: อยู่ระหว่างก่อสร้าง"],"district":"วัฒนา"},"geometry":{"type":"Point","coordinates":[100.55176,13.74714]}},{"type":"Feature","properties":{"title":"สถานพยาบาล (แบบไม่มีเตียง) , สถานพยาบาล (แบบไม่มีเตียง) ,ทางเดินเชื่อมระหว่างอาคาร","info":["ถนน: สุขุมวิท 1","เขต: วัฒนา","จำนวนชั้น: 6,6","สถานะ: อยู่ระหว่างก่อสร้าง"],"district":"วัฒนา"},"geometry":{"type":"Point","coordinates":[100.55094,13.74489]}},{"type":"Feature","properties":{"title":"อาคารโรงแรม 40 ห้อง","info":["ถนน: สุขุมวิท 3","เขต: วัฒนา","จำนวนชั้น: 6","สถานะ: อยู่ระหว่างก่อสร้าง"],"district":"วัฒนา"},"geometry":{"type":"Point","coordinates":[100.55309,13.74666]}},{"type":"Feature","properties":{"title":"อาคารโรงแรม 194 ห้อง","info":["ถนน: สุขุมวิท 5","เขต: วัฒนา","จำนวนชั้น: 8","สถานะ: หยุดก่อสร้าง"],"district":"วัฒนา"},"geometry":{"type":"Point","coordinates":[100.55421,13.7432]}},{"type":"Feature","properties":{"title":"อาคารโรงแรม (45 ห้อง) พาณิชย์ (ร้านค้า 1 ห้อง) และที่จอดรถยนต์","info":["ถนน: สุขุมวิท 11","เขต: วัฒนา","จำนวนชั้น: 8","สถานะ: อยู่ระหว่างก่อสร้าง"],"district":"วัฒนา"},"geometry":{"type":"Point","coordinates":[100.55679,13.74297]}},{"type":"Feature","properties":{"title":"อาคารโรงแรม (79 ห้อง) และที่จอดรถยนต์","info":["ถนน: สุขุมวิท 11","เขต: วัฒนา","จำนวนชั้น: 8","สถานะ: อยู่ระหว่างก่อสร้าง"],"district":"วัฒนา"},"geometry":{"type":"Point","coordinates":[100.55621,13.7479]}},{"type":"Feature","properties":{"title":"อาคารชุดอยู่อาศัย (53 ห้อง) และที่จอดรถยนต์","info":["ถนน: สุขุมวิท 13","เขต: วัฒนา","จำนวนชั้น: 8","สถานะ: หยุดก่อสร้าง"],"district":"วัฒนา"},"geometry":{"type":"Point","coordinates":[100.55816,13.74808]}},{"type":"Feature","properties":{"title":"อาคารสถานศึกษา (ระดับประถมศึกษา) และจอดรถยนต์","info":["ถนน: สุขุมวิท 15","เขต: วัฒนา","จำนวนชั้น: 6,6","สถานะ: อยู่ระหว่างก่อสร้าง"],"district":"วัฒนา"},"geometry":{"type":"Point","coordinates":[100.55929,13.7469]}},{"type":"Feature","properties":{"title":"อาคารสถานศึกษา (ระดับประถมศึกษา) และจอดรถยนต์","info":["ถนน: สุขุมวิท 15","เขต: วัฒนา","จำนวนชั้น: 5","สถานะ: อยู่ระหว่างก่อสร้าง"],"district":"วัฒนา"},"geometry":{"type":"Point","coordinates":[100.55929,13.7469]}},{"type":"Feature","properties":{"title":"อาคารโรงแรม (224 ห้อง) พาณิชย์ (สปา) ภัตตาคาร และจอดรถยนต์อัตโนมัติ (ใต้ดิน 5 ระดับ)","info":["ถนน: สุขุมวิท 19","เขต: วัฒนา","จำนวนชั้น: 26","สถานะ: อยู่ระหว่างก่อสร้าง"],"district":"วัฒนา"},"geometry":{"type":"Point","coordinates":[100.55997,13.74006]}},{"type":"Feature","properties":{"title":"สำนักงานและจอดรถยนต์","info":["ถนน: สุขุมวิท 21","เขต: วัฒนา","จำนวนชั้น: 7","สถานะ: อยู่ระหว่างก่อสร้าง"],"district":"วัฒนา"},"geometry":{"type":"Point","coordinates":[100.56326,13.74597]}},{"type":"Feature","properties":{"title":"อาคารโรงแรม (264 ห้อง) ภัตตาคาร ห้องประชุม และที่จอดรถยนต์","info":["ถนน: สุขุมวิท 23","เขต: วัฒนา","จำนวนชั้น: 24","สถานะ: อยู่ระหว่างก่อสร้าง"],"district":"วัฒนา"},"geometry":{"type":"Point","coordinates":[100.56474,13.74111]}},{"type":"Feature","properties":{"title":"อาคารชุดอยู่อาศัย (372 ห้อง) และจอดรถยนต์","info":["ถนน: สุขุมวิท 23","เขต: วัฒนา","จำนวนชั้น: 43","สถานะ: อยู่ระหว่างก่อสร้าง"],"district":"วัฒนา"},"geometry":{"type":"Point","coordinates":[100.56481,13.73882]}},{"type":"Feature","properties":{"title":"อาคารชุดอยู่อาศัย (94 ห้อง) ชุดพาณิชย์ (1 ห้อง) และที่จอดรถยนต์","info":["ถนน: สุขุมวิท 23","เขต: วัฒนา","จำนวนชั้น: 31","สถานะ: อยู่ระหว่างก่อสร้าง"],"district":"วัฒนา"},"geometry":{"type":"Point","coordinates":[100.56399,13.74281]}},{"type":"Feature","properties":{"title":"อาคารโรงแรม (36 ห้อง)","info":["ถนน: สุขุมวิท 29","เขต: วัฒนา","จำนวนชั้น: 7","สถานะ: ยังไม่ได้ก่อสร้าง"],"district":"วัฒนา"},"geometry":{"type":"Point","coordinates":[100.56343,13.73715]}},{"type":"Feature","properties":{"title":"อาคารโรงแรม (25 ห้อง) และอาคารพาณิชยกรรม","info":["ถนน: สุขุมวิท 29","เขต: วัฒนา","จำนวนชั้น: 3","สถานะ: หยุดก่อสร้าง"],"district":"วัฒนา"},"geometry":{"type":"Point","coordinates":[100.56492,13.73435]}},{"type":"Feature","properties":{"title":"สำนักงาน สถานศึกษา พาณิชยกรรม (ร้านค้า)","info":["ถนน: สุขุมวิท 29","เขต: วัฒนา","จำนวนชั้น: 6","สถานะ: อยู่ระหว่างก่อสร้าง"],"district":"วัฒนา"},"geometry":{"type":"Point","coordinates":[100.56507,13.73536]}},{"type":"Feature","properties":{"title":"อาคารชุดอยู่อาศัย ชุดพาณิชย์ และที่จอดรถยนต์ , อาคารชุดพาณิชย์ , อาคารชุดอยู่อาศัย ชุดพาณิชย์ สระว่ายน้ำ และที่จอดรถยนต์ , อาคารชุดพาณิชย์ , อาคารชุดอยู่อาศัย ชุดพาณิชย์","info":["ถนน: พระรามที่ 3","เขต: ยานนาวา","จำนวนชั้น: 55 , 4 , 70 , 11","สถานะ: หยุดก่อสร้าง"],"district":"ยานนาวา"},"geometry":{"type":"Point","coordinates":[100.52123,13.68459]}},{"type":"Feature","properties":{"title":"อาคารเพื่อการศาสนา","info":["ถนน: สาธุประดิษฐ์ 19 แยก 16","เขต: ยานนาวา","จำนวนชั้น: 6","สถานะ: อยู่ระหว่างก่อสร้าง"],"district":"ยานนาวา"},"geometry":{"type":"Point","coordinates":[100.53662,13.69809]}},{"type":"Feature","properties":{"title":"อาคารสถานศึกษา และจอดรถยนต์ , อาคารสถานศึกษา","info":["ถนน: วงแหวนอุตสาหกรรม","เขต: ยานนาวา","จำนวนชั้น: 7,3","สถานะ: อยู่ระหว่างก่อสร้าง"],"district":"ยานนาวา"},"geometry":{"type":"Point","coordinates":[100.54288,13.68538]}},{"type":"Feature","properties":{"title":"อาคารชุดอยู่อาศัย 322 ห้อง พาณิชย์ (ร้านค้า 3 ห้อง) และที่จอดรถยนต์","info":["ถนน: วงแหวนอุตสาหกรรม","เขต: ยานนาวา","จำนวนชั้น: 49","สถานะ: อยู่ระหว่างก่อสร้าง"],"district":"ยานนาวา"},"geometry":{"type":"Point","coordinates":[100.54288,13.68538]}},{"type":"Feature","properties":{"title":"อาคารพาณิชยกรรม (ร้านค้าและสถานออกกำลังกาย)","info":["ถนน: รัชดาภิเษก","เขต: ยานนาวา","จำนวนชั้น: 6","สถานะ: อยู่ระหว่างก่อสร้าง"],"district":"ยานนาวา"},"geometry":{"type":"Point","coordinates":[100.52678,13.69058]}},{"type":"Feature","properties":{"title":"อาคารชุดอยู่อาศัย (222 ห้อง) และจอดรถยนต์","info":["ถนน: รัชดาภิเษก","เขต: ยานนาวา","จำนวนชั้น: 52","สถานะ: อยู่ระหว่างก่อสร้าง"],"district":"ยานนาวา"},"geometry":{"type":"Point","coordinates":[100.52678,13.69058]}},{"type":"Feature","properties":{"title":"อาคารชุดอยู่อาศัยรวม โรงแรม และจอดรถยนต์","info":["ถนน: รัชดาภิเษก","เขต: ยานนาวา","จำนวนชั้น: 28","สถานะ: อยู่ระหว่างก่อสร้าง"],"district":"ยานนาวา"},"geometry":{"type":"Point","coordinates":[100.52678,13.69058]}},{"type":"Feature","properties":{"title":"สถานศึกษา (โรงเรียนเตรียมอนุบาลและอนุบาล)","info":["ถนน: ยานนาวา","เขต: ยานนาวา","จำนวนชั้น: 2","สถานะ: อยู่ระหว่างก่อสร้าง"],"district":"ยานนาวา"},"geometry":{"type":"Point","coordinates":[100.54549,13.67946]}},{"type":"Feature","properties":{"title":"อาคารพาณิชยกรรม (สปา)","info":["ถนน: เย็นอากาศ","เขต: ยานนาวา","จำนวนชั้น: 1","สถานะ: อยู่ระหว่างก่อสร้าง"],"district":"สาทร"},"geometry":{"type":"Point","coordinates":[100.54508,13.7134]}},{"type":"Feature","properties":{"title":"อาคารชุดอยู่อาศัย 180 ห้องพาณิชย์ จอดรถยนต์","info":["ถนน: คอนแวนต์","เขต: บางรัก","จำนวนชั้น: 32","สถานะ: อยู่ระหว่างก่อสร้าง"],"district":"บางรัก"},"geometry":{"type":"Point","coordinates":[100.53469,13.72449]}},{"type":"Feature","properties":{"title":"อาคารชุดอยู่อาศัย 612 ห้องพาณิชย์ จอดรถยนต์","info":["ถนน: พระรามที่ 4","เขต: บางรัก","จำนวนชั้น: 32","สถานะ: อยู่ระหว่างก่อสร้าง"],"district":"บางรัก"},"geometry":{"type":"Point","coordinates":[100.53226,13.73109]}},{"type":"Feature","properties":{"title":"อาคารชุดอยู่อาศัย 418 ห้องพาณิชย์ จอดรถยนต์","info":["ถนน: พระรามที่ 4","เขต: บางรัก","จำนวนชั้น: 55","สถานะ: หยุดก่อสร้าง"],"district":"บางรัก"},"geometry":{"type":"Point","coordinates":[100.52479,13.73425]}},{"type":"Feature","properties":{"title":"โรงแรม อยู่อาศัยรวม สำนักงาน สรรพสินค้า พาณิชย์(ร้านค้า) โรงมหรสพ ห้องประชุม ภัตตาคาร และจอดรถยนต์","info":["ถนน: พระรามที่ 4","เขต: บางรัก","จำนวนชั้น: 69","สถานะ: อยู่ระหว่างก่อสร้าง"],"district":"บางรัก"},"geometry":{"type":"Point","coordinates":[100.53781,13.72865]}},{"type":"Feature","properties":{"title":"อาคารโรงแรม (22 ห้อง) สระว่ายน้ำ","info":["ถนน: ซอยสีลม 3","เขต: บางรัก","จำนวนชั้น: 5","สถานะ: ยังไม่ได้ก่อสร้าง"],"district":"บางรัก"},"geometry":{"type":"Point","coordinates":[100.53104,13.72512]}},{"type":"Feature","properties":{"title":"พาณิชยกรรม สำนักงาน จอดรถยนต์","info":["ถนน: พระรามที่ 4","เขต: บางรัก","จำนวนชั้น: 7","สถานะ: อยู่ระหว่างก่อสร้าง"],"district":"บางรัก"},"geometry":{"type":"Point","coordinates":[100.52431,13.73393]}},{"type":"Feature","properties":{"title":"อาคารอยู่อาศัยรวม","info":["ถนน: พระรามที่ 4","เขต: บางรัก","จำนวนชั้น: 5","สถานะ: อยู่ระหว่างก่อสร้าง"],"district":"บางรัก"},"geometry":{"type":"Point","coordinates":[100.52392,13.73365]}},{"type":"Feature","properties":{"title":"อาคารชุดอยู่อาศัย สระว่ายน้ำ และจอดรถยนต์","info":["ถนน: สาทรใต้","เขต: สาทร","จำนวนชั้น: 37","สถานะ: หยุดก่อสร้าง"],"district":"บางรัก"},"geometry":{"type":"Point","coordinates":[100.53367,13.72338]}},{"type":"Feature","properties":{"title":"โรงแรม","info":["ถนน: สาทรใต้","เขต: สาทร","จำนวนชั้น: 35","สถานะ: อยู่ระหว่างก่อสร้าง"],"district":"สาทร"},"geometry":{"type":"Point","coordinates":[100.53525,13.72256]}},{"type":"Feature","properties":{"title":"อาคารศาสนสถาน","info":["ถนน: เจริญราษฎร์","เขต: สาทร","จำนวนชั้น: 3","สถานะ: อยู่ระหว่างก่อสร้าง"],"district":"สาทร"},"geometry":{"type":"Point","coordinates":[100.51894,13.71507]}},{"type":"Feature","properties":{"title":"โรงแรม - อยู่อาศัยรวม - ภัตตาคาร - สำนักงาน - จอดรถยนต์","info":["ถนน: รัชดาภิเษก","เขต: จตุจักร","จำนวนชั้น: 7","สถานะ: อยู่ระหว่างก่อสร้าง"],"district":"จตุจักร"},"geometry":{"type":"Point","coordinates":[100.567,13.81786]}},{"type":"Feature","properties":{"title":"โรงแรม (50 ห้อง)","info":["ถนน: ซอยพหลโยธิน 35","เขต: จตุจักร","จำนวนชั้น: 7","สถานะ: อยู่ระหว่างก่อสร้าง"],"district":"จตุจักร"},"geometry":{"type":"Point","coordinates":[100.5686,13.83214]}},{"type":"Feature","properties":{"title":"อาคารเรีียน , อาคารจอดรถยนต์","info":["ถนน: วิภาวดีรังสิต","เขต: จตุจักร","จำนวนชั้น: 6 , 1","สถานะ: อยู่ระหว่างก่อสร้าง"],"district":"จตุจักร"},"geometry":{"type":"Point","coordinates":[100.5587,13.83526]}},{"type":"Feature","properties":{"title":"อาคารสำนักงาน - จอดรถยนต์","info":["ถนน: พหลโยธิน","เขต: จตุจักร","จำนวนชั้น: 36","สถานะ: อยู่ระหว่างก่อสร้าง"],"district":"จตุจักร"},"geometry":{"type":"Point","coordinates":[100.5573,13.80669]}},{"type":"Feature","properties":{"title":"อาคารชุดอยูู่่อาศัย (741 ห้อง) - จอดรถยนต์","info":["ถนน: ซอยลาดพร้้าว 6","เขต: จตุจักร","จำนวนชั้น: 45","สถานะ: อยู่ระหว่างก่อสร้าง"],"district":"จตุจักร"},"geometry":{"type":"Point","coordinates":[100.5637,13.81123]}},{"type":"Feature","properties":{"title":"อาคารชุดอยูู่่อาศัย - จอดรถยนต์","info":["ถนน: ซอยลาดพร้าว 20","เขต: จตุจักร","จำนวนชั้น: 8","สถานะ: หยุดก่อสร้าง"],"district":"จตุจักร"},"geometry":{"type":"Point","coordinates":[100.5706,13.80617]}},{"type":"Feature","properties":{"title":"สถานพยาบาล","info":["ถนน: ถนนวิภาวดีรังสิต","เขต: จตุจักร","จำนวนชั้น: 15","สถานะ: อยู่ระหว่างก่อสร้าง"],"district":"จตุจักร"},"geometry":{"type":"Point","coordinates":[100.5603,13.79898]}},{"type":"Feature","properties":{"title":"อาคารพาณิชย์ - ห้างสรรพสินค้า ภัตาคาร ห้องประชุม","info":["ถนน: พหลโยธิน","เขต: จตุจักร","จำนวนชั้น: 7","สถานะ: อยู่ระหว่างก่อสร้าง"],"district":"จตุจักร"},"geometry":{"type":"Point","coordinates":[100.5624,13.82136]}},{"type":"Feature","properties":{"title":"สถานพยาบาล","info":["ถนน: รัชดาภิเษก","เขต: จตุจักร","จำนวนชั้น: 4","สถานะ: อยู่ระหว่างก่อสร้าง"],"district":"จตุจักร"},"geometry":{"type":"Point","coordinates":[100.5813,13.81825]}},{"type":"Feature","properties":{"title":"อาคารชุดอยูู่่อาศัย (396 ห้อง) - พาณิชยกรรม (5 ห้อง) - จอดรถยนต์","info":["ถนน: พหลโยธิน","เขต: จตุจักร","จำนวนชั้น: 23,2","สถานะ: อยู่ระหว่างก่อสร้าง"],"district":"จตุจักร"},"geometry":{"type":"Point","coordinates":[100.58446,13.85577]}},{"type":"Feature","properties":{"title":"อาคารชุดอยูู่่อาศัย (787 ห้อง) - พาณิชยกรรม (11 ห้อง) - จอดรถยนต์","info":["ถนน: เลียบคลองบางเขน","เขต: จตุจักร","จำนวนชั้น: 21,7","สถานะ: อยู่ระหว่างก่อสร้าง"],"district":"จตุจักร"},"geometry":{"type":"Point","coordinates":[100.58036,13.85712]}},{"type":"Feature","properties":{"title":"อาคารสำนักงาน - จอดรถยนต์","info":["ถนน: ถนนวิภาวดีรังสิต","เขต: จตุจักร","จำนวนชั้น: 36","สถานะ: อยู่ระหว่างก่อสร้าง"],"district":"จตุจักร"},"geometry":{"type":"Point","coordinates":[100.55726,13.81897]}},{"type":"Feature","properties":{"title":"อาคารสำนักงาน - จอดรถยนต์","info":["ถนน: ถนนวิภาวดีรังสิต","เขต: จตุจักร","จำนวนชั้น: 6","สถานะ: อยู่ระหว่างก่อสร้าง"],"district":"จตุจักร"},"geometry":{"type":"Point","coordinates":[100.55983,13.80206]}},{"type":"Feature","properties":{"title":"อาคารพาณิชยกรรม และห้องน้ำ","info":["ถนน: เพชรเกษม","เขต: ภาษีเจริญ","จำนวนชั้น: 1","สถานะ: อยู่ระหว่างก่อสร้าง"],"district":"จอมทอง"},"geometry":{"type":"Point","coordinates":[100.46025,13.712]}},{"type":"Feature","properties":{"title":"สถานศึกษา(ระดับประถมศึกษา และมัธยมศึกษา)","info":["ถนน: ราชมนตรี","เขต: ภาษีเจริญ","จำนวนชั้น: 1","สถานะ: อยู่ระหว่างก่อสร้าง"],"district":"ภาษีเจริญ"},"geometry":{"type":"Point","coordinates":[100.42147,13.73366]}},{"type":"Feature","properties":{"title":"อาคารชุดพักอาศัย จอดรถยนต์ และสระว่ายน้ำ","info":["ถนน: เพชรเกษม","เขต: ภาษีเจริญ","จำนวนชั้น: 8","สถานะ: หยุดก่อสร้าง"],"district":"ภาษีเจริญ"},"geometry":{"type":"Point","coordinates":[100.45173,13.72558]}},{"type":"Feature","properties":{"title":"อาคารชุดอยู่อาศัยรวม , อาคารจอดรถยนต์ , อาคารสโมสร","info":["ถนน: ประดิษฐ์มนูธรรม","เขต: ลาดพร้าว","จำนวนชั้น: 26 , 29 , 35 , 29, 29, 29, 9","สถานะ: อยู่ระหว่างก่อสร้าง"],"district":"ลาดพร้าว"},"geometry":{"type":"Point","coordinates":[100.6196,13.81529]}},{"type":"Feature","properties":{"title":"พาณิชยกรรม, สำนักงาน, หลังคาคลุมที่จอดรถยนต์","info":["ถนน: ลาดพร้าววังหิน","เขต: ลาดพร้าว","จำนวนชั้น: 1, 1, 1, 2, 1","สถานะ: ยังไม่ได้ก่อสร้าง"],"district":"ลาดพร้าว"},"geometry":{"type":"Point","coordinates":[100.59041,13.8208]}},{"type":"Feature","properties":{"title":"อาคารสถานพยาบาล (100 เตียง)","info":["ถนน: ประชาราษฎร์","เขต: บางซื่อ","จำนวนชั้น: 6","สถานะ: อยู่ระหว่างก่อสร้าง"],"district":"บางซื่อ"},"geometry":{"type":"Point","coordinates":[100.5231,13.8069]}},{"type":"Feature","properties":{"title":"อาคารชุด(อยู่อาศัย 450 ห้อง)","info":["ถนน: ประชาราษฎร์ สาย 1","เขต: บางซื่อ","จำนวนชั้น: 37","สถานะ: อยู่ระหว่างก่อสร้าง"],"district":"บางซื่อ"},"geometry":{"type":"Point","coordinates":[100.522,13.80567]}},{"type":"Feature","properties":{"title":"อาคารชุด(อยู่อาศัย 347 ห้อง)","info":["ถนน: กรุงเทพ-นนทบุรี","เขต: บางซื่อ","จำนวนชั้น: 25","สถานะ: อยู่ระหว่างก่อสร้าง"],"district":"บางซื่อ"},"geometry":{"type":"Point","coordinates":[100.5322,13.8118]}},{"type":"Feature","properties":{"title":"ภัตตคาร","info":["ถนน: พหลโยธิน","เขต: ดอนเมือง","จำนวนชั้น: 1","สถานะ: หยุดก่อสร้าง"],"district":"ดอนเมือง"},"geometry":{"type":"Point","coordinates":[100.625,13.92814]}},{"type":"Feature","properties":{"title":"พาณิชยกรรม","info":["ถนน: พหลโยธิน","เขต: บางเขน","จำนวนชั้น: 4","สถานะ: หยุดก่อสร้าง"],"district":"บางเขน"},"geometry":{"type":"Point","coordinates":[100.6082,13.8966]}},{"type":"Feature","properties":{"title":"อาคารเพื่อกิจการทางศาสนา","info":["ถนน: คู้บอน","เขต: บางเขน","จำนวนชั้น: 3","สถานะ: หยุดก่อสร้าง"],"district":"บางเขน"},"geometry":{"type":"Point","coordinates":[100.6626,13.8674]}},{"type":"Feature","properties":{"title":"ตลาด","info":["ถนน: เทพรักษ์","เขต: บางเขน","จำนวนชั้น: 1","สถานะ: หยุดก่อสร้าง"],"district":"บางเขน"},"geometry":{"type":"Point","coordinates":[100.6324,13.87783]}},{"type":"Feature","properties":{"title":"โรงแรม,ร้านอาหาร","info":["ถนน: จตุโชติ","เขต: สายไหม","จำนวนชั้น: 1 , 2","สถานะ: อยู่ระหว่างก่อสร้าง"],"district":"สายไหม"},"geometry":{"type":"Point","coordinates":[100.6859,13.87715]}},{"type":"Feature","properties":{"title":"สนามกีฬ่าในร่ม,พาณิชย์,สนามฝึกซ้อมกอล์ฟ","info":["ถนน: สายไหม","เขต: สายไหม","จำนวนชั้น: 2","สถานะ: อยู่ระหว่างก่อสร้าง"],"district":"สายไหม"},"geometry":{"type":"Point","coordinates":[100.6429,13.92969]}},{"type":"Feature","properties":{"title":"ศาสนสถาน","info":["ถนน: พุทธมนฑลสาย 2","เขต: บางแค","จำนวนชั้น: 2","สถานะ: หยุดก่อสร้าง"],"district":"บางแค"},"geometry":{"type":"Point","coordinates":[100.3966,13.72509]}},{"type":"Feature","properties":{"title":"ทางสัญจร","info":["ถนน: เลียบคลองทวีวัฒนา","เขต: บางแค","จำนวนชั้น: 1","สถานะ: หยุดก่อสร้าง"],"district":"บางแค"},"geometry":{"type":"Point","coordinates":[100.357,13.74321]}},{"type":"Feature","properties":{"title":"ตลาด","info":["ถนน: กาญจนาภิเษก","เขต: บางแค","จำนวนชั้น: 1","สถานะ: หยุดก่อสร้าง"],"district":"บางแค"},"geometry":{"type":"Point","coordinates":[100.4012,13.69585]}},{"type":"Feature","properties":{"title":"โรงแรม","info":["ถนน: เพชรเกษม","เขต: หนองแขม","จำนวนชั้น: 7","สถานะ: หยุดก่อสร้าง"],"district":"หนองแขม"},"geometry":{"type":"Point","coordinates":[100.3377,13.71108]}},{"type":"Feature","properties":{"title":"โรงพยาบาล","info":["ถนน: เอกชััย","เขต: บางบอน","จำนวนชั้น: 3","สถานะ: อยู่ระหว่างก่อสร้าง"],"district":"บางบอน"},"geometry":{"type":"Point","coordinates":[100.39288,13.65485]}},{"type":"Feature","properties":{"title":"ศาลนสถาน","info":["ถนน: เอกชัย","เขต: บางบอน","จำนวนชั้น: 4","สถานะ: อยู่ระหว่างก่อสร้าง"],"district":"บางบอน"},"geometry":{"type":"Point","coordinates":[100.395,13.6552]}},{"type":"Feature","properties":{"title":"ชุดอยู่อาศัย (1,482 ห้อง) พาณิชย์ (ร้านค้า 4ห้อง) และจอดรถยนต์","info":["ถนน: จรัญสนิทวงศ์","เขต: บางกอกน้อย","จำนวนชั้น: 23 (A,B,C)","สถานะ: อยู่ระหว่างก่อสร้าง"],"district":"บางกอกน้อย"},"geometry":{"type":"Point","coordinates":[100.47103,13.74675]}},{"type":"Feature","properties":{"title":"โรงแรม (65 ห้อง)","info":["ถนน: พรานนก","เขต: บางกอกน้อย","จำนวนชั้น: 6","สถานะ: อยู่ระหว่างก่อสร้าง"],"district":"บางกอกน้อย"},"geometry":{"type":"Point","coordinates":[100.47313,13.76218]}},{"type":"Feature","properties":{"title":"ศาสนสถาน","info":["ถนน: เลียบทางรถรถไฟสายใต้","เขต: บางกอกน้อย","จำนวนชั้น: 2 (A)","สถานะ: อยู่ระหว่างก่อสร้าง"],"district":"บางกอกน้อย"},"geometry":{"type":"Point","coordinates":[100.45699,13.77265]}},{"type":"Feature","properties":{"title":"อาคารชุดอยู่อาศัย (อยู่อาศัย 1,533 ห้อง) พาณิชย์ (2 ห้อง) และจอดรถยนต์","info":["ถนน: จรัญสนิทวงศ์","เขต: บางพลัด","จำนวนชั้น: 26","สถานะ: อยู่ระหว่างก่อสร้าง"],"district":"บางพลัด"},"geometry":{"type":"Point","coordinates":[100.50616,13.79478]}},{"type":"Feature","properties":{"title":"อาคารเรียน","info":["ถนน: สวนผัก","เขต: ทวีวัฒนา","จำนวนชั้น: 2","สถานะ: อยู่ระหว่างก่อสร้าง"],"district":"ทวีวัฒนา"},"geometry":{"type":"Point","coordinates":[100.39622,13.78758]}},{"type":"Feature","properties":{"title":"อาคารสถานพยาบาล","info":["ถนน: บรมราชชนนี","เขต: ทวีวัฒนา","จำนวนชั้น: 3","สถานะ: อยู่ระหว่างก่อสร้าง"],"district":"ทวีวัฒนา"},"geometry":{"type":"Point","coordinates":[100.40069,13.78254]}},{"type":"Feature","properties":{"title":"สโมสรและสระว่ายน้ำ","info":["ถนน: บรมราชชนนี","เขต: ทวีวัฒนา","จำนวนชั้น: 2","สถานะ: อยู่ระหว่างก่อสร้าง"],"district":"ทวีวัฒนา"},"geometry":{"type":"Point","coordinates":[100.34653,13.7879]}},{"type":"Feature","properties":{"title":"อาคารสถานพยาบาล","info":["ถนน: ราชพฤกษ์","เขต: ตลิ่งชัน","จำนวนชั้น: 1","สถานะ: อยู่ระหว่างก่อสร้าง"],"district":"ตลิ่งชัน"},"geometry":{"type":"Point","coordinates":[100.44559,13.76077]}},{"type":"Feature","properties":{"title":"สถานศึกษา","info":["ถนน: บางพรม","เขต: ตลิ่งชัน","จำนวนชั้น: 3","สถานะ: อยู่ระหว่างก่อสร้าง"],"district":"ตลิ่งชัน"},"geometry":{"type":"Point","coordinates":[100.44957,13.7557]}},{"type":"Feature","properties":{"title":"อาคารชุดอยู่อาศัย 1369ห้อง ห้องชุดพาณิชย์ 2ห้อง จอดรถยนต์,อาคารงานระบบ","info":["ถนน: รามคำแหง","เขต: มีนบุรี","จำนวนชั้น: 29,1","สถานะ: ยังไม่ได้ก่อสร้าง"],"district":"มีนบุรี"},"geometry":{"type":"Point","coordinates":[100.72419,13.80306]}},{"type":"Feature","properties":{"title":"สถานศึกษา(อาคารเรียน),สถานศึกษา(สถานกีฬาในร่ม)","info":["ถนน: รามคำแหง","เขต: มีนบุรี","จำนวนชั้น: 3,1","สถานะ: อยู่ระหว่างก่อสร้าง"],"district":"มีนบุรี"},"geometry":{"type":"Point","coordinates":[100.72698,13.78414]}},{"type":"Feature","properties":{"title":"สถานพยาบาล(ไม่มีเตียงผู้ป่ายค้างคืน) และพาณิชยกรรม,อาคารจอดรถ และพาณิชยกรรม","info":["ถนน: เสรีไทย","เขต: มีนบุรี","จำนวนชั้น: 6,7","สถานะ: อยู่ระหว่างก่อสร้าง"],"district":"มีนบุรี"},"geometry":{"type":"Point","coordinates":[100.71712,13.81086]}},{"type":"Feature","properties":{"title":"ตลาด,พาณิชย์ ห้องน้ำ-ห้องส้วม ห้องพักขยะ,ป้ายชื่อโครงการ","info":["ถนน: สุวินทวงศ์","เขต: มีนบุรี","จำนวนชั้น: 1,1,1","สถานะ: อยู่ระหว่างก่อสร้าง"],"district":"มีนบุรี"},"geometry":{"type":"Point","coordinates":[100.75974,13.81492]}},{"type":"Feature","properties":{"title":"อาคารพาณิชย์(ค้าปลีก ค้าส่ง ,ร้านค้า) สรรพสินค้า สำนักงาน ,อาคารพาณิชย์(ร้านค้า) สรรพสินค้า สำนักงาน สถานศึกษา(นอกระบบ) , หลังคาคลุมที่จอดรถยนต์ , หลังคาคลุมที่จอดรถจักรยานยนต์","info":["ถนน: รามคำแหง","เขต: มีนบุรี","จำนวนชั้น: 1,2,1,1,","สถานะ: หยุดก่อสร้าง"],"district":"มีนบุรี"},"geometry":{"type":"Point","coordinates":[100.72509,13.80679]}},{"type":"Feature","properties":{"title":"สถานพยาบาล(28 เตียง)(อาคาร B)","info":["ถนน: นิมิตใหม่","เขต: มีนบุรี","จำนวนชั้น: 3","สถานะ: อยู่ระหว่างก่อสร้าง"],"district":"มีนบุรี"},"geometry":{"type":"Point","coordinates":[100.74084,13.82562]}},{"type":"Feature","properties":{"title":"สถานพยาบาล(28 เตียง)(อาคาร A)","info":["ถนน: นิมิตใหม่","เขต: มีนบุรี","จำนวนชั้น: 3","สถานะ: อยู่ระหว่างก่อสร้าง"],"district":"มีนบุรี"},"geometry":{"type":"Point","coordinates":[100.74072,13.82556]}},{"type":"Feature","properties":{"title":"สถานศึกษา (โรงเรียนอนุบาล)","info":["ถนน: ไมตรีจิตร","เขต: คลองสามวา","จำนวนชั้น: 1","สถานะ: อยู่ระหว่างก่อสร้าง"],"district":"คลองสามวา"},"geometry":{"type":"Point","coordinates":[100.74916,13.90932]}},{"type":"Feature","properties":{"title":"สถานพยาบาล (10 เตียง), สำนักงาน, ป้ายชื่ออาคาร","info":["ถนน: นิมิตรใหม่","เขต: คลองสามวา","จำนวนชั้น: 6, 1, ป้าย","สถานะ: อยู่ระหว่างก่อสร้าง"],"district":"คลองสามวา"},"geometry":{"type":"Point","coordinates":[100.73017,13.85742]}},{"type":"Feature","properties":{"title":"หอพักนักศึกษาชาย (47ห้อง), หอพักนักศึกษาชาย(47ห้อง), พิพิธภัณฑ์","info":["ถนน: คู้บอน","เขต: คลองสามวา","จำนวนชั้น: 4-เม.ย.-01","สถานะ: ยังไม่ได้ก่อสร้าง"],"district":"คลองสามวา"},"geometry":{"type":"Point","coordinates":[100.67855,13.85663]}},{"type":"Feature","properties":{"title":"โรงแรม(168 ห้อง) สำนักงาน พาณิชยกรรม และจอดรถยนต์","info":["ถนน: รามอินทรา","เขต: คันนายาว","จำนวนชั้น: 9","สถานะ: ยังไม่ได้ก่อสร้าง"],"district":"คันนายาว"},"geometry":{"type":"Point","coordinates":[100.65566,13.84196]}},{"type":"Feature","properties":{"title":"สำนักงาน,โรงมหรสพ,พาณิชย์,ภัตตาคาร,สรรพสินค้า,สถานศึกษา,สวนสนุก และจอดรถยนต์","info":["ถนน: รามอินทรา","เขต: คันนายาว","จำนวนชั้น: 3-ม.ค.-00","สถานะ: อยู่ระหว่างก่อสร้าง"],"district":"คันนายาว"},"geometry":{"type":"Point","coordinates":[100.67758,13.82511]}},{"type":"Feature","properties":{"title":"โรงแรม ( 372 ห้อง ) พาณิชยกรรม และจอดรถยนต์,อาคารอยู่อาศัยรวม ( บริการดูและผู้สูงอายุ 54 ห้อง )","info":["ถนน: รามอินทรา","เขต: คันนายาว","จำนวนชั้น: 25,8","สถานะ: หยุดก่อสร้าง"],"district":"คันนายาว"},"geometry":{"type":"Point","coordinates":[100.66655,13.83512]}},{"type":"Feature","properties":{"title":"พาณิชย์(ร้านค้า) พาณิชย์(ค้าปลีกค้าส่ง) ภัตตาคาร สถานศึกษา(นอกระบบ) สถานพยาบาล(ไม่มีผู้ป่วยค้างคืน) , ป้ายชื่อสถานประกอบการ","info":["ถนน: รามอินทรา","เขต: คันนายาว","จำนวนชั้น: 2, ป้าย","สถานะ: หยุดก่อสร้าง"],"district":"คันนายาว"},"geometry":{"type":"Point","coordinates":[100.6672,13.83365]}},{"type":"Feature","properties":{"title":"อาคารชุด (อยู่อาศัย 988ห้อง พาณิชย์ 12ห้อง สำนักงาน 3ห้อง) จอดรถยนต์","info":["ถนน: รามอินทรา","เขต: คันนายาว","จำนวนชั้น: 23","สถานะ: อยู่ระหว่างก่อสร้าง"],"district":"คันนายาว"},"geometry":{"type":"Point","coordinates":[100.6697,13.81929]}},{"type":"Feature","properties":{"title":"อาคารชุด (อยู่อาศัย 224ห้อง พาณิชย์ 5ห้อง) จอดรถยนต์","info":["ถนน: รามอินทรา","เขต: คันนายาว","จำนวนชั้น: 21","สถานะ: อยู่ระหว่างก่อสร้าง"],"district":"คันนายาว"},"geometry":{"type":"Point","coordinates":[100.67904,13.82064]}},{"type":"Feature","properties":{"title":"สถานพยาบาล (มีผู้ป่วยค้างคืน 28 เตียง)","info":["ถนน: ราษฎร์พัฒนา","เขต: สะพานสูง","จำนวนชั้น: 7","สถานะ: หยุดก่อสร้าง"],"district":"สะพานสูง"},"geometry":{"type":"Point","coordinates":[100.7048,13.78559]}},{"type":"Feature","properties":{"title":"อาคารเรียน","info":["ถนน: กรุงเทพกรีฑา","เขต: สะพานสูง","จำนวนชั้น: 6","สถานะ: อยู่ระหว่างก่อสร้าง"],"district":"สะพานสูง"},"geometry":{"type":"Point","coordinates":[100.671,13.74163]}},{"type":"Feature","properties":{"title":"สนามกีฬาในร่ม(สนามบาสเกตบอล) 1372 ตร.ม.","info":["ถนน: กรุงเทพกรีฑา","เขต: สะพานสูง","จำนวนชั้น: ค.ส.ล.","สถานะ: หยุดก่อสร้าง"],"district":"สะพานสูง"},"geometry":{"type":"Point","coordinates":[100.6869,13.75348]}},{"type":"Feature","properties":{"title":"สถานศึกษา (โรงอาหาร, อนุบาล, อำนวยการ) 1738, 1092, 18 ตร.ม. 363 คัน 3184 ตร.ม.","info":["ถนน: กรุงเทพกรีฑา","เขต: สะพานสูง","จำนวนชั้น: ค.ส.ล.","สถานะ: ยังไม่ได้ก่อสร้าง"],"district":"สะพานสูง"},"geometry":{"type":"Point","coordinates":[100.6852,13.73614]}},{"type":"Feature","properties":{"title":"พาณิชย์ สำนักงาน และพักอาศัย 1495 ตร.ม.","info":["ถนน: เคหะร่มเกล้า","เขต: สะพานสูง","จำนวนชั้น: โครงเหล็ก และ ค.ส.ล.","สถานะ: อยู่ระหว่างก่อสร้าง"],"district":"สะพานสูง"},"geometry":{"type":"Point","coordinates":[100.7077,13.77371]}},{"type":"Feature","properties":{"title":"อาคารชุดอยู่อาศัย 664 ห้อง พาณิชย์ 1 ห้อง สระว่ายน้ำ จอดรถยนต์","info":["ถนน: นวมินทร์","เขต: บึงกุ่ม","จำนวนชั้น: 35","สถานะ: หยุดก่อสร้าง"],"district":"บึงกุ่ม"},"geometry":{"type":"Point","coordinates":[100.6489,13.78577]}},{"type":"Feature","properties":{"title":"สนามกีฬาในร่มเพื่อฝึกขี่ม้า 2182 ตร.ม. , จอดรถยนต์ 20 คัน 2400 ตร.ม.","info":["ถนน: นวมินทร์","เขต: บึงกุ่ม","จำนวนชั้น: 1","สถานะ: อยู่ระหว่างก่อสร้าง"],"district":"บึงกุ่ม"},"geometry":{"type":"Point","coordinates":[100.6324,13.81466]}},{"type":"Feature","properties":{"title":"สถานพยาบาล (291 เตียง) 43184 (12321) ตร.ม. จอดรถยนต์ 356 คัน 6528 ตร.ม.","info":["ถนน: นวมินทร์","เขต: บึงกุ่ม","จำนวนชั้น: ค.ส.ล.","สถานะ: หยุดก่อสร้าง"],"district":"บึงกุ่ม"},"geometry":{"type":"Point","coordinates":[100.6575,13.82526]}},{"type":"Feature","properties":{"title":"สถานศึกษา และพักอาศัย","info":["ถนน: เสรีไทย","เขต: บึงกุ่ม","จำนวนชั้น: ค.ส.ล.","สถานะ: อยู่ระหว่างก่อสร้าง"],"district":"บึงกุ่ม"},"geometry":{"type":"Point","coordinates":[100.6581,13.77828]}},{"type":"Feature","properties":{"title":"โรงพยาบาล (560 เตียง) พาณิชย์ สำนักงาน และจอดรถยนต์","info":["ถนน: รามคำแหง","เขต: สะพานสูง","จำนวนชั้น: 22","สถานะ: อยู่ระหว่างก่อสร้าง"],"district":"สะพานสูง"},"geometry":{"type":"Point","coordinates":[100.7044,13.79225]}},{"type":"Feature","properties":{"title":"สำนักงาน","info":["ถนน: ศรีนครินทร์","เขต: ประเวศ","จำนวนชั้น: 10","สถานะ: หยุดก่อสร้าง"],"district":"ประเวศ"},"geometry":{"type":"Point","coordinates":[100.6469,13.69525]}},{"type":"Feature","properties":{"title":"สถานศึกษา (สอนศาสนา)","info":["ถนน: อ่อนนุช","เขต: ประเวศ","จำนวนชั้น: 4","สถานะ: อยู่ระหว่างก่อสร้าง"],"district":"ประเวศ"},"geometry":{"type":"Point","coordinates":[100.6729,13.72193]}},{"type":"Feature","properties":{"title":"อยู่อาศัยรวม พาณิชย์ สำนักงาน","info":["ถนน: อ่อนนุช","เขต: ประเวศ","จำนวนชั้น: 5","สถานะ: ยังไม่ได้ก่อสร้าง"],"district":"ประเวศ"},"geometry":{"type":"Point","coordinates":[100.65621,13.71812]}},{"type":"Feature","properties":{"title":"อาคารพาณิชย์(อุปกรณ์ก่อสร้างและของตกแต่งบ้าน), สำนักงาน, สถานศึกษา(นอกระบบ)","info":["ถนน: ศรีนครินทร์-ร่มเกล้า","เขต: บางกะปิ","จำนวนชั้น: 1","สถานะ: ยังไม่ได้ก่อสร้าง"],"district":"บางกะปิ"},"geometry":{"type":"Point","coordinates":[100.6712,13.75121]}},{"type":"Feature","properties":{"title":"คลังสินค้า (ศูนย์เก็บข้อมูลอิเล็คทรอนิคส์) (อาคาร C)","info":["ถนน: รามคำแหง","เขต: บางกะปิ","จำนวนชั้น: 8","สถานะ: อยู่ระหว่างก่อสร้าง"],"district":"บางกะปิ"},"geometry":{"type":"Point","coordinates":[100.6328,13.75782]}},{"type":"Feature","properties":{"title":"อาคารชุดพักอาศัย (737 ห้อง) และจอดรถยนต์","info":["ถนน: รามคำแหง","เขต: บางกะปิ","จำนวนชั้น: 35","สถานะ: อยู่ระหว่างก่อสร้าง"],"district":"บางกะปิ"},"geometry":{"type":"Point","coordinates":[100.6443,13.76321]}},{"type":"Feature","properties":{"title":"อาคารชุด (อยู่อาศัย 1,204 ห้อง) สระว่ายน้ำ และจอดรถยนต์","info":["ถนน: รามคำแหง","เขต: บางกะปิ","จำนวนชั้น: 44","สถานะ: หยุดก่อสร้าง"],"district":"บางกะปิ"},"geometry":{"type":"Point","coordinates":[100.6167,13.76068]}},{"type":"Feature","properties":{"title":"อาคารพาณิชย์ อยู่อาศัยรวม อาคารจอดรถ","info":["ถนน: ลาดพร้าว","เขต: บางกะปิ","จำนวนชั้น: 20,6","สถานะ: ยังไม่ได้ก่อสร้าง"],"district":"บางกะปิ"},"geometry":{"type":"Point","coordinates":[100.63461,13.77246]}},{"type":"Feature","properties":{"title":"สถานกีฬาในร่ม (สนามฟุตบอล แบตมินตัน) อาคารพาณิชย์ อาคารพักคอย","info":["ถนน: โพธิ์แก้ว","เขต: บางกะปิ","จำนวนชั้น: 1,2","สถานะ: อยู่ระหว่างก่อสร้าง"],"district":"บางกะปิ"},"geometry":{"type":"Point","coordinates":[100.63145,13.8055]}},{"type":"Feature","properties":{"title":"อาคารชุด 813 ห้อง (อยู่อาศัย 638 ห้อง และพาณิชย์ 175 ห้อง ) และจอดรถยนต์","info":["ถนน: ศรีนครินทร์","เขต: บางกะปิ","จำนวนชั้น: 37","สถานะ: อยู่ระหว่างก่อสร้าง"],"district":"บางกะปิ"},"geometry":{"type":"Point","coordinates":[100.64481,13.75407]}},{"type":"Feature","properties":{"title":"อาคารพาณิชยกรรม สำนักงาน ภัตตาคาร ห้องประชุม และจอดรถยนต์","info":["ถนน: รามคำแหง","เขต: บางกะปิ","จำนวนชั้น: 7","สถานะ: อยู่ระหว่างก่อสร้าง"],"district":"บางกะปิ"},"geometry":{"type":"Point","coordinates":[100.6126,13.75588]}},{"type":"Feature","properties":{"title":"อาคารจอดรถยนต์","info":["ถนน: รามคำแหง","เขต: บางกะปิ","จำนวนชั้น: 5","สถานะ: อยู่ระหว่างก่อสร้าง"],"district":"บางกะปิ"},"geometry":{"type":"Point","coordinates":[100.6153,13.75907]}},{"type":"Feature","properties":{"title":"อาคารชุดอยู่อาศัย (577 ห้อง),พาณิชย์ สระวายน้ำ","info":["ถนน: เจริญนคร","เขต: คลองสาน","จำนวนชั้น: 29","สถานะ: อยู่ระหว่างก่อสร้าง"],"district":"คลองสาน"},"geometry":{"type":"Point","coordinates":[100.50826,13.72808]}},{"type":"Feature","properties":{"title":"อาคารชุดพักอาศัย 223ห้อง สระว่ายน้ำ และจอดรถยนต์","info":["ถนน: สมเด็จเจ้าพระยา","เขต: คลองสาน","จำนวนชั้น: 24","สถานะ: หยุดก่อสร้าง"],"district":"คลองสาน"},"geometry":{"type":"Point","coordinates":[100.5009,13.73304]}},{"type":"Feature","properties":{"title":"อาคารชุดอยูอาศัย (508 ห้อง) สระว่ายน้ำ และจอดรถยนต์","info":["ถนน: สมเด็จเจ้าพระยา","เขต: คลองสาน","จำนวนชั้น: 22","สถานะ: อยู่ระหว่างก่อสร้าง"],"district":"คลองสาน"},"geometry":{"type":"Point","coordinates":[100.50423,13.73195]}},{"type":"Feature","properties":{"title":"สถานพยาบาล (ไม่มีผู้ป่วยค้างคืน) พาณิชย์ และจอดรถยนต์","info":["ถนน: พระรามที่ 2","เขต: จอมทอง","จำนวนชั้น: 7","สถานะ: อยู่ระหว่างก่อสร้าง"],"district":"จอมทอง"},"geometry":{"type":"Point","coordinates":[100.47436,13.68246]}},{"type":"Feature","properties":{"title":"สถานพยาบาล (ไม่มีผู้ป่วยค้างคืน) ภัตตาคาร และจอดรถยนต์","info":["ถนน: พระรามที่ 2","เขต: จอมทอง","จำนวนชั้น: 5","สถานะ: หยุดก่อสร้าง"],"district":"จอมทอง"},"geometry":{"type":"Point","coordinates":[100.47439,13.68297]}},{"type":"Feature","properties":{"title":"สถานพยาบาล และจอดรถยนต์","info":["ถนน: พระรามที่ 2","เขต: จอมทอง","จำนวนชั้น: 1","สถานะ: หยุดก่อสร้าง"],"district":"จอมทอง"},"geometry":{"type":"Point","coordinates":[100.46875,13.68015]}},{"type":"Feature","properties":{"title":"พาณิชย์","info":["ถนน: พุทบูชา","เขต: จอมทอง","จำนวนชั้น: 1,1,1,1,1,1","สถานะ: หยุดก่อสร้าง"],"district":"จอมทอง"},"geometry":{"type":"Point","coordinates":[100.46944,13.66757]}},{"type":"Feature","properties":{"title":"สำนักงาน","info":["ถนน: เจริญนคร","เขต: ธนบุรี","จำนวนชั้น: 4","สถานะ: อยู่ระหว่างก่อสร้าง"],"district":"ธนบุรี"},"geometry":{"type":"Point","coordinates":[100.4892,13.70335]}},{"type":"Feature","properties":{"title":"อาคารโรงพยาบาล (4 เตียง) สำนักงาน พาณิชย์ และจอดรถยนต์","info":["ถนน: สมเด็จเจ้าพระตากสิน","เขต: ธนบุรี","จำนวนชั้น: 5","สถานะ: อยู่ระหว่างก่อสร้าง"],"district":"ธนบุรี"},"geometry":{"type":"Point","coordinates":[100.48963,13.71459]}},{"type":"Feature","properties":{"title":"อาคารชุดอยู่อาศัย พาณิชย์ จอดรถยนต์ และห้องพักขยะ","info":["ถนน: ราชพฤกษ์์","เขต: ธนบุรี","จำนวนชั้น: 37 , 38 , 1","สถานะ: อยู่ระหว่างก่อสร้าง"],"district":"ธนบุรี"},"geometry":{"type":"Point","coordinates":[100.47287,13.71315]}},{"type":"Feature","properties":{"title":"พาณิชย์ (ร้านค้า) , พาณิชย์ (ร้านค้า)","info":["ถนน: แจ้งวัฒนะ","เขต: หลักสี่","จำนวนชั้น: 1 , 1","สถานะ: อยู่ระหว่างก่อสร้าง"],"district":"หลักสี่"},"geometry":{"type":"Point","coordinates":[100.5723,13.88926]}},{"type":"Feature","properties":{"title":"พาณิชย์ (ร้านค้า) , ภัตตาคาร","info":["ถนน: แจ้งวัฒนะ","เขต: หลักสี่","จำนวนชั้น: 1 , 2","สถานะ: อยู่ระหว่างก่อสร้าง"],"district":"หลักสี่"},"geometry":{"type":"Point","coordinates":[100.5723,13.88926]}},{"type":"Feature","properties":{"title":"ตลาด , พาณิชยกรรม , อาคารเก็บขยะ , ห้องปั๊มน้ำ","info":["ถนน: วิภาวดีรังสิต 64","เขต: หลักสี่","จำนวนชั้น: 1 , 3 , 1","สถานะ: อยู่ระหว่างก่อสร้าง"],"district":"หลักสี่"},"geometry":{"type":"Point","coordinates":[100.5782,13.87519]}},{"type":"Feature","properties":{"title":"อาคารชุด (อยู่อาศัย พาณิชย์) และจอดรถยนต์","info":["ถนน: วิภาวดีรังสิต","เขต: หลักสี่","จำนวนชั้น: 19 , 4 , 19","สถานะ: อยู่ระหว่างก่อสร้าง"],"district":"หลักสี่"},"geometry":{"type":"Point","coordinates":[100.5691,13.86085]}},{"type":"Feature","properties":{"title":"สถานพยาบาล (58 เตียง)","info":["ถนน: ราษฎร์บูรณะ","เขต: ราษฎร์บูรณะ","จำนวนชั้น: 10","สถานะ: ยังไม่ได้ก่อสร้าง"],"district":"ราษฎร์บูรณะ"},"geometry":{"type":"Point","coordinates":[100.5086,13.6803]}},{"type":"Feature","properties":{"title":"อาคารชุดอยู่อาศัยรวม (821 ห้อง) พาณิชยกรรม และจอดรถยนต์","info":["ถนน: สุขสวัสดิ์","เขต: ราษฎร์บูรณะ","จำนวนชั้น: 39 , 8","สถานะ: หยุดก่อสร้าง"],"district":"ราษฎร์บูรณะ"},"geometry":{"type":"Point","coordinates":[100.516,13.66677]}},{"type":"Feature","properties":{"title":"อาคารชุดอยู่อาศัย และจอดรถยนต์","info":["ถนน: ราษฎร์บูรณะ","เขต: ราษฎร์บูรณะ","จำนวนชั้น: 31 , 35 , 35 , 28","สถานะ: อยู่ระหว่างก่อสร้าง"],"district":"ราษฎร์บูรณะ"},"geometry":{"type":"Point","coordinates":[100.5168,13.67608]}},{"type":"Feature","properties":{"title":"อาคารชุดอยู่อาศัย (187 ห้อง) พาณิชย์ (3 ห้อง) และจอดรถยนต์","info":["ถนน: ประชาอุทิศ","เขต: ราษฎร์บูรณะ","จำนวนชั้น: 20","สถานะ: อยู่ระหว่างก่อสร้าง"],"district":"ราษฎร์บูรณะ"},"geometry":{"type":"Point","coordinates":[100.5046,13.66825]}},{"type":"Feature","properties":{"title":"สถานพยาบาล (426 เตียง) และ จอดรถยนต์","info":["ถนน: สุขสวัสดิ์","เขต: ราษฎร์บูรณะ","จำนวนชั้น: 21","สถานะ: หยุดก่อสร้าง"],"district":"ราษฎร์บูรณะ"},"geometry":{"type":"Point","coordinates":[100.4997,13.6787]}},{"type":"Feature","properties":{"title":"โรงแรม (78 ห้อง)","info":["ถนน: กิ่งแก้ว","เขต: ลาดกระบัง","จำนวนชั้น: 4","สถานะ: หยุดก่อสร้าง"],"district":"ลาดกระบัง"},"geometry":{"type":"Point","coordinates":[100.7398,13.71963]}},{"type":"Feature","properties":{"title":"โรงแรม (๑๖ ห้อง)","info":["ถนน: เคหะร่มเกล้า","เขต: ลาดกระบัง","จำนวนชั้น: 3","สถานะ: หยุดก่อสร้าง"],"district":"ลาดกระบัง"},"geometry":{"type":"Point","coordinates":[100.72015,13.76708]}},{"type":"Feature","properties":{"title":"สถานกีฬาในร่ม (สนามเทนนิส) , ห้องน้ำห้องส้วม","info":["ถนน: ร่มเกล้า 21/9","เขต: ลาดกระบัง","จำนวนชั้น: 1 , 1","สถานะ: ยังไม่ได้ก่อสร้าง"],"district":"ลาดกระบัง"},"geometry":{"type":"Point","coordinates":[100.7503,13.74679]}},{"type":"Feature","properties":{"title":"อาคารเรียน , อาคารเครื่องสูบน้ำ , อาคารพักขยะมูลฝอย","info":["ถนน: กรุงเทพ-ชลบุรี สายใหม่ (ถนนหน้าบ้าน)","เขต: ลาดกระบัง","จำนวนชั้น: 3 , 2 , 1","สถานะ: อยู่ระหว่างก่อสร้าง"],"district":"ลาดกระบัง"},"geometry":{"type":"Point","coordinates":[100.7972,13.73414]}},{"type":"Feature","properties":{"title":"ศาสนสถาน , ซุ้มประตูทางเข้า-ทางออก","info":["ถนน: สุวินทวงศ์","เขต: หนองจอก","จำนวนชั้น: 2 , 1","สถานะ: อยู่ระหว่างก่อสร้าง"],"district":"หนองจอก"},"geometry":{"type":"Point","coordinates":[100.8785,13.81073]}},{"type":"Feature","properties":{"title":"อาคารพาณิชยกรรม และอยู่อาศัย","info":["ถนน: ทางคู่ขนานทางหลวงพิเศษ หมายเลข ๗","เขต: ลาดกระบัง","จำนวนชั้น: 5","สถานะ: ยังไม่ได้ก่อสร้าง"],"district":"ลาดกระบัง"},"geometry":{"type":"Point","coordinates":[100.7203,13.73032]}},{"type":"Feature","properties":{"title":"โรงแรม (50 ห้อง)","info":["ถนน: ซอยลาดกระบัง ๓๐","เขต: ลาดกระบัง","จำนวนชั้น: 4","สถานะ: อยู่ระหว่างก่อสร้าง"],"district":"ลาดกระบัง"},"geometry":{"type":"Point","coordinates":[100.7376,13.71809]}},{"type":"Feature","properties":{"title":"สถานกีฬาในร่ม (ซ้อมยิงปืน)","info":["ถนน: ประชาสำราญ","เขต: หนองจอก","จำนวนชั้น: 1","สถานะ: หยุดก่อสร้าง"],"district":"หนองจอก"},"geometry":{"type":"Point","coordinates":[100.8557,13.91024]}},{"type":"Feature","properties":{"title":"ศาสนสถาน (ศาลเจ้า) , ห้องน้ำ ห้องส้วม","info":["ถนน: วัดสีชมพู","เขต: หนองจอก","จำนวนชั้น: 1 , 1","สถานะ: อยู่ระหว่างก่อสร้าง"],"district":"หนองจอก"},"geometry":{"type":"Point","coordinates":[100.8379,13.93179]}},{"type":"Feature","properties":{"title":"ทางสัญจร","info":["ถนน: ฉลองกรุง","เขต: หนองจอก","สถานะ: ยังไม่ได้ก่อสร้าง"],"district":"หนองจอก"},"geometry":{"type":"Point","coordinates":[100.8069,13.79161]}},{"type":"Feature","properties":{"title":"ศาสนสถาน (อาคารปฏิบัติธรรม) และอยู่อาศัย","info":["ถนน: เลียบวารี","เขต: หนองจอก","จำนวนชั้น: 1","สถานะ: หยุดก่อสร้าง"],"district":"หนองจอก"},"geometry":{"type":"Point","coordinates":[100.8173,13.83903]}}]}