{"type":"FeatureCollection","features":[{"type":"Feature","properties":{"title":"AIT Medical Clinic","tel":["025245286"],"emergency":true},"geometry":{"type":"Point","coordinates":[100.61447,14.07858]}},{"type":"Feature","properties":{"title":"Anonymous MedConsult Clinic","tel":["+662 018 7855"]},"geometry":{"type":"Point","coordinates":[100.57593,13.73663]}},{"type":"Feature","properties":{"title":"Bangna Hospital"},"geometry":{"type":"Point","coordinates":[100.63548,13.66694]}},{"type":"Feature","properties":{"title":"Bangprakok 9 International Hospital"},"geometry":{"type":"Point","coordinates":[100.47463,13.68195]}},{"type":"Feature","properties":{"title":"Chaophya Hospital","emergency":true},"geometry":{"type":"Point","coordinates":[100.47059,13.78028]}},{"type":"Feature","properties":{"title":"Chularat 3 Hospital","emergency":true},"geometry":{"type":"Point","coordinates":[100.7213,13.59953]}},{"type":"Feature","properties":{"title":"HE Clinic for men"},"geometry":{"type":"Point","coordinates":[100.5802,13.72613]}},{"type":"Feature","properties":{"title":"Huachiew TCM","tel":["02-223-1111"]},"geometry":{"type":"Point","coordinates":[100.51659,13.75016]}},{"type":"Feature","properties":{"title":"KMB Hospital"},"geometry":{"type":"Point","coordinates":[100.60402,13.87083]}},{"type":"Feature","properties":{"title":"Kasetmahachai animal hospital","emergency":false},"geometry":{"type":"Point","coordinates":[100.29576,13.52373]}},{"type":"Feature","properties":{"title":"Kudos By Tarakorn"},"geometry":{"type":"Point","coordinates":[100.61109,13.83431]}},{"type":"Feature","properties":{"title":"Mandarin Clinic Rama 4"},"geometry":{"type":"Point","coordinates":[100.57463,13.71598]}},{"type":"Feature","properties":{"title":"Muang Samut Hospital Bangpoo Mai"},"geometry":{"type":"Point","coordinates":[100.63949,13.52554]}},{"type":"Feature","properties":{"title":"Phyathai 3 Hospital","emergency":true},"geometry":{"type":"Point","coordinates":[100.46402,13.72309]}},{"type":"Feature","properties":{"title":"Prachachuen MRI"},"geometry":{"type":"Point","coordinates":[100.47429,13.68151]}},{"type":"Feature","properties":{"title":"Prodenta Dental Clinic","emergency":false},"geometry":{"type":"Point","coordinates":[100.6111,13.83436]}},{"type":"Feature","properties":{"title":"Pruksa Clinic","emergency":false},"geometry":{"type":"Point","coordinates":[100.61106,13.83441]}},{"type":"Feature","properties":{"title":"Ratchakru Medical Center"},"geometry":{"type":"Point","coordinates":[100.54224,13.77755]}},{"type":"Feature","properties":{"title":"S-Smart Clinic","emergency":false},"geometry":{"type":"Point","coordinates":[100.6111,13.83452]}},{"type":"Feature","properties":{"title":"Saint Carlos Hospital"},"geometry":{"type":"Point","coordinates":[100.57659,13.78386]}},{"type":"Feature","properties":{"title":"Serene Hospital"},"geometry":{"type":"Point","coordinates":[100.65362,13.74042]}},{"type":"Feature","properties":{"title":"Synphaet Hospital Lamlukka"},"geometry":{"type":"Point","coordinates":[100.66065,13.93124]}},{"type":"Feature","properties":{"title":"Vichaivej hospital"},"geometry":{"type":"Point","coordinates":[100.29125,13.71018]}},{"type":"Feature","properties":{"title":"charisma"},"geometry":{"type":"Point","coordinates":[100.57421,13.72802]}},{"type":"Feature","properties":{"title":"mandarin clinic rama 2"},"geometry":{"type":"Point","coordinates":[100.48362,13.6881]}},{"type":"Feature","properties":{"title":"คลินิกตจแพทย์"},"geometry":{"type":"Point","coordinates":[100.60741,13.78966]}},{"type":"Feature","properties":{"title":"จิรเวชชาญไชย คลินิกการแพทย์แผนไทย"},"geometry":{"type":"Point","coordinates":[100.52275,13.86591]}},{"type":"Feature","properties":{"title":"ทัณฑสถานโรงพยาบาลราชทัณฑ์"},"geometry":{"type":"Point","coordinates":[100.55349,13.8497]}},{"type":"Feature","properties":{"title":"ทำฟัน จัดฟัน รากเทียม รามอินทรา นวมินทร์","emergency":true},"geometry":{"type":"Point","coordinates":[100.65482,13.81806]}},{"type":"Feature","properties":{"title":"นครธน ลองไลฟ์ เซ็นเตอร์"},"geometry":{"type":"Point","coordinates":[100.43272,13.66345]}},{"type":"Feature","properties":{"title":"บุญรักษา"},"geometry":{"type":"Point","coordinates":[100.65636,14.073]}},{"type":"Feature","properties":{"title":"รพ เกษมราษฎร์ บางแค"},"geometry":{"type":"Point","coordinates":[100.39883,13.71082]}},{"type":"Feature","properties":{"title":"รพ.ตา หู คอ จมูก"},"geometry":{"type":"Point","coordinates":[100.47041,13.78781]}},{"type":"Feature","properties":{"title":"รพ.บ้านแพ้ว พร้อมมิตร"},"geometry":{"type":"Point","coordinates":[100.57368,13.73316]}},{"type":"Feature","properties":{"title":"รพ.เฉพาะทางด้านกระดูกสันหลังและข้อ S-Spine and Joint Hospital"},"geometry":{"type":"Point","coordinates":[100.60763,13.7861]}},{"type":"Feature","properties":{"title":"รพ.เมืองสมุทรปากน้ำ"},"geometry":{"type":"Point","coordinates":[100.60134,13.59498]}},{"type":"Feature","properties":{"title":"ศศิรักษ์คลินิกเวชกรรม","tel":["02-100-4980"]},"geometry":{"type":"Point","coordinates":[100.38805,13.70931]}},{"type":"Feature","properties":{"title":"ศุนย์แพทย์ครอบครัวและชุมชน อบต.บางแก้ว"},"geometry":{"type":"Point","coordinates":[100.65924,13.66668]}},{"type":"Feature","properties":{"title":"ศูนย์การแพทย์กาญจนาภิเษก"},"geometry":{"type":"Point","coordinates":[100.32011,13.78654]}},{"type":"Feature","properties":{"title":"ศูนย์การแพทย์ปัญญานันทภิกขุ ชลประทาน มหาวิทยาลัยศรีนครินทรวิโรฒ","tel":["025022345"],"emergency":true},"geometry":{"type":"Point","coordinates":[100.50202,13.89991]}},{"type":"Feature","properties":{"title":"ศูนย์บริการสาธารณสุข 23 สี่พระยา","tel":["02236 4055","02233 6329"]},"geometry":{"type":"Point","coordinates":[100.52033,13.73075]}},{"type":"Feature","properties":{"title":"ศูนย์บริการสาธารณสุข 24 บางเขน","tel":["025791342"]},"geometry":{"type":"Point","coordinates":[100.58116,13.84979]}},{"type":"Feature","properties":{"title":"ศูนย์บริการสาธารณสุข 4 ดินแดง"},"geometry":{"type":"Point","coordinates":[100.55802,13.76982]}},{"type":"Feature","properties":{"title":"ศูนย์บริการสาธารณสุข 42 พิทยาลงกรณ์"},"geometry":{"type":"Point","coordinates":[100.42089,13.52825]}},{"type":"Feature","properties":{"title":"ศูนย์บริการสาธารณสุข 46 สาขาขุมทอง"},"geometry":{"type":"Point","coordinates":[100.85336,13.70061]}},{"type":"Feature","properties":{"title":"ศูนย์บริการสาธารณสุข 52 สามเสนนอก"},"geometry":{"type":"Point","coordinates":[100.5702,13.77747]}},{"type":"Feature","properties":{"title":"ศูนย์บริการสาธารณสุข 56 ทับเจริญ"},"geometry":{"type":"Point","coordinates":[100.63692,13.83731]}},{"type":"Feature","properties":{"title":"ศูนย์บริการสาธารณสุข 59 ทุ่งครุ"},"geometry":{"type":"Point","coordinates":[100.50652,13.60723]}},{"type":"Feature","properties":{"title":"ศูนย์บริการสาธารณะสุข 3 บางซื่อ"},"geometry":{"type":"Point","coordinates":[100.53395,13.80236]}},{"type":"Feature","properties":{"title":"ศูนย์บริการสาธารณะสุข 67 ทวีวัฒนา"},"geometry":{"type":"Point","coordinates":[100.3543,13.77316]}},{"type":"Feature","properties":{"title":"ศูนย์บริการเครื่องช่วยฟังอินทิเม็กซ์","tel":["+66 022793030"],"emergency":true},"geometry":{"type":"Point","coordinates":[100.5385,13.79462]}},{"type":"Feature","properties":{"title":"ศูนย์สุขภาพช่องปากขั้นสูง"},"geometry":{"type":"Point","coordinates":[100.53401,13.78311]}},{"type":"Feature","properties":{"title":"สถานพยาบาล","tel":["+6625790030"],"emergency":false},"geometry":{"type":"Point","coordinates":[100.56833,13.84673]}},{"type":"Feature","properties":{"title":"สถานพยาบาลสัตว์เสรีไทย"},"geometry":{"type":"Point","coordinates":[100.68879,13.7939]}},{"type":"Feature","properties":{"title":"สถานพยาบาลเวชกรรม เมืองปทุม"},"geometry":{"type":"Point","coordinates":[100.5339,14.01833]}},{"type":"Feature","properties":{"title":"สถานพยาบาลแพทย์แผนจีน มหาวิทยาลัยราชภัฏจันทรเกษม"},"geometry":{"type":"Point","coordinates":[100.57564,13.81898]}},{"type":"Feature","properties":{"title":"สถานีกาชาดที่ 11 วิเศษนิยม"},"geometry":{"type":"Point","coordinates":[100.43568,13.71252]}},{"type":"Feature","properties":{"title":"สถาบันกัลยาณ์ราชนครินทร์","tel":["+6624416100"]},"geometry":{"type":"Point","coordinates":[100.33183,13.76197]}},{"type":"Feature","properties":{"title":"สถาบันบำบัดรักษาและฟื้นฟูผู้ติดยาเสพติดแห่งชาติบรมราชชนนี"},"geometry":{"type":"Point","coordinates":[100.61969,13.97942]}},{"type":"Feature","properties":{"title":"สถาบันบำราศนราดูร","tel":["02-951-1170-76","02-591-1178-79"]},"geometry":{"type":"Point","coordinates":[100.52195,13.8532]}},{"type":"Feature","properties":{"title":"สถาบันประสาทวิทยา","emergency":false},"geometry":{"type":"Point","coordinates":[100.52716,13.76872]}},{"type":"Feature","properties":{"title":"สถาบันผู้ป่วยโรคมะเร็งธัญบุรี"},"geometry":{"type":"Point","coordinates":[100.83665,14.06645]}},{"type":"Feature","properties":{"title":"สถาบันมะเร็งแห่งชาติ","emergency":false},"geometry":{"type":"Point","coordinates":[100.52726,13.76752]}},{"type":"Feature","properties":{"title":"สถาบันราชานุกูล"},"geometry":{"type":"Point","coordinates":[100.55418,13.76209]}},{"type":"Feature","properties":{"title":"สถาบันสิรินธรฯ"},"geometry":{"type":"Point","coordinates":[100.52477,13.85292]}},{"type":"Feature","properties":{"title":"สถาบันสุขภาพเด็กแห่งชาติมหาราชินี"},"geometry":{"type":"Point","coordinates":[100.53505,13.76554]}},{"type":"Feature","properties":{"title":"สถาบันโรคทรวงอก","tel":["02 547 0999"],"emergency":true},"geometry":{"type":"Point","coordinates":[100.52179,13.8621]}},{"type":"Feature","properties":{"title":"สถาบันโรคผิวหนัง","emergency":false},"geometry":{"type":"Point","coordinates":[100.53576,13.76563]}},{"type":"Feature","properties":{"title":"สำนักแพทย์และอนามัย การท่าเรือฯ"},"geometry":{"type":"Point","coordinates":[100.56613,13.71515]}},{"type":"Feature","properties":{"title":"สุขุมาลอนามัย สถานีกาชาดที่ 2"},"geometry":{"type":"Point","coordinates":[100.49725,13.75193]}},{"type":"Feature","properties":{"title":"โณงพยาบาลเกษมราษฎร์ อินเตอร์เนชั่นแนล รัตนาธิเบศร์"},"geometry":{"type":"Point","coordinates":[100.41011,13.88123]}},{"type":"Feature","properties":{"title":"โรงพยาบาล การุญเวช","emergency":true},"geometry":{"type":"Point","coordinates":[100.61775,14.1172]}},{"type":"Feature","properties":{"title":"โรงพยาบาล จุฬารัตน์ 9"},"geometry":{"type":"Point","coordinates":[100.72245,13.67754]}},{"type":"Feature","properties":{"title":"โรงพยาบาล นวมินทร์ 9","emergency":true},"geometry":{"type":"Point","coordinates":[100.7239,13.81129]}},{"type":"Feature","properties":{"title":"โรงพยาบาล รามคำแหง","tel":["0 2374 0200"],"emergency":true},"geometry":{"type":"Point","coordinates":[100.63682,13.75802]}},{"type":"Feature","properties":{"title":"โรงพยาบาล วิภาราม","tel":["0 2722 2500"],"emergency":true},"geometry":{"type":"Point","coordinates":[100.64549,13.73474]}},{"type":"Feature","properties":{"title":"โรงพยาบาล เปาโล เมโมเรี่ยล"},"geometry":{"type":"Point","coordinates":[100.61465,13.59839]}},{"type":"Feature","properties":{"title":"โรงพยาบาล เปาโลพระประแดง"},"geometry":{"type":"Point","coordinates":[100.55137,13.60839]}},{"type":"Feature","properties":{"title":"โรงพยาบาล เพชรเวช"},"geometry":{"type":"Point","coordinates":[100.59362,13.74333]}},{"type":"Feature","properties":{"title":"โรงพยาบาล เสรีรักษ์"},"geometry":{"type":"Point","coordinates":[100.7174,13.81113]}},{"type":"Feature","properties":{"title":"โรงพยาบาลกระทุ่มแบน"},"geometry":{"type":"Point","coordinates":[100.2544,13.65469]}},{"type":"Feature","properties":{"title":"โรงพยาบาลกระทุ่มแบน 2"},"geometry":{"type":"Point","coordinates":[100.33077,13.72203]}},{"type":"Feature","properties":{"title":"โรงพยาบาลกรุงธน 2"},"geometry":{"type":"Point","coordinates":[100.50105,13.67605]}},{"type":"Feature","properties":{"title":"โรงพยาบาลกรุงสยามเซนต์คาร์ลอส"},"geometry":{"type":"Point","coordinates":[100.55405,14.00498]}},{"type":"Feature","properties":{"title":"โรงพยาบาลกรุงเทพ","tel":["+662 310 3000","+662 310 1719"],"emergency":true},"geometry":{"type":"Point","coordinates":[100.58327,13.7492]}},{"type":"Feature","properties":{"title":"โรงพยาบาลกรุงเทพคริสเตียน","tel":["(+66) 2625 9000","(+66) 2760 9000"],"emergency":true},"geometry":{"type":"Point","coordinates":[100.53118,13.72843]}},{"type":"Feature","properties":{"title":"โรงพยาบาลกรุงไทย"},"geometry":{"type":"Point","coordinates":[100.50923,13.91309]}},{"type":"Feature","properties":{"title":"โรงพยาบาลกรุณาพิทักษ์"},"geometry":{"type":"Point","coordinates":[100.54512,13.70875]}},{"type":"Feature","properties":{"title":"โรงพยาบาลกลาง","emergency":true},"geometry":{"type":"Point","coordinates":[100.50918,13.74644]}},{"type":"Feature","properties":{"title":"โรงพยาบาลกล้วยน้ำไท"},"geometry":{"type":"Point","coordinates":[100.58648,13.71507]}},{"type":"Feature","properties":{"title":"โรงพยาบาลการไฟฟ้านครหลวง"},"geometry":{"type":"Point","coordinates":[100.50962,13.787]}},{"type":"Feature","properties":{"title":"โรงพยาบาลคณะทันตแพทยศาสตร์","emergency":false},"geometry":{"type":"Point","coordinates":[100.53495,13.74329]}},{"type":"Feature","properties":{"title":"โรงพยาบาลคลองสามวา"},"geometry":{"type":"Point","coordinates":[100.75312,13.91042]}},{"type":"Feature","properties":{"title":"โรงพยาบาลคลองหลวง"},"geometry":{"type":"Point","coordinates":[100.72734,14.09546]}},{"type":"Feature","properties":{"title":"โรงพยาบาลคามิลเลียน"},"geometry":{"type":"Point","coordinates":[100.58352,13.73916]}},{"type":"Feature","properties":{"title":"โรงพยาบาลจักษุ รัตนิน"},"geometry":{"type":"Point","coordinates":[100.56312,13.7465]}},{"type":"Feature","properties":{"title":"โรงพยาบาลจุฬาภรณ์"},"geometry":{"type":"Point","coordinates":[100.57818,13.88091]}},{"type":"Feature","properties":{"title":"โรงพยาบาลจุฬารัตน์ 1 สุวรรณภูมิ."},"geometry":{"type":"Point","coordinates":[100.70955,13.63376]}},{"type":"Feature","properties":{"title":"โรงพยาบาลจุฬาลงกรณ์","emergency":true},"geometry":{"type":"Point","coordinates":[100.53608,13.73275]}},{"type":"Feature","properties":{"title":"โรงพยาบาลชุมชน นาควัชระอุทิศ"},"geometry":{"type":"Point","coordinates":[100.37022,13.69064]}},{"type":"Feature","properties":{"title":"โรงพยาบาลดับเบิลยูไอเอชอินเตอร์เนชั่นแนล"},"geometry":{"type":"Point","coordinates":[100.65057,13.66386]}},{"type":"Feature","properties":{"title":"โรงพยาบาลตากสิน","tel":["+66 2-437-0123"]},"geometry":{"type":"Point","coordinates":[100.50792,13.73085]}},{"type":"Feature","properties":{"title":"โรงพยาบาลตำรวจ","emergency":true},"geometry":{"type":"Point","coordinates":[100.53776,13.74339]}},{"type":"Feature","properties":{"title":"โรงพยาบาลตุลาการเฉลิมพระเกียรติ"},"geometry":{"type":"Point","coordinates":[100.27386,13.85296]}},{"type":"Feature","properties":{"title":"โรงพยาบาลทศมินทราธิราช","emergency":true},"geometry":{"type":"Point","coordinates":[100.58146,13.94114]}},{"type":"Feature","properties":{"title":"โรงพยาบาลท่าฉลอม"},"geometry":{"type":"Point","coordinates":[100.26837,13.53584]}},{"type":"Feature","properties":{"title":"โรงพยาบาลธนบุรี"},"geometry":{"type":"Point","coordinates":[100.48012,13.75294]}},{"type":"Feature","properties":{"title":"โรงพยาบาลธนบุรีทวีวัฒนา"},"geometry":{"type":"Point","coordinates":[100.40042,13.78281]}},{"type":"Feature","properties":{"title":"โรงพยาบาลธนบุรีบำรุงเมือง"},"geometry":{"type":"Point","coordinates":[100.51446,13.75054]}},{"type":"Feature","properties":{"title":"โรงพยาบาลธรรมศาสตร์เฉลิมพระเกียรติ","emergency":true},"geometry":{"type":"Point","coordinates":[100.61384,14.07415]}},{"type":"Feature","properties":{"title":"โรงพยาบาลธัญบุรี"},"geometry":{"type":"Point","coordinates":[100.7299,14.01956]}},{"type":"Feature","properties":{"title":"โรงพยาบาลนครธน","tel":["02-450-9999"],"emergency":true},"geometry":{"type":"Point","coordinates":[100.43432,13.66061]}},{"type":"Feature","properties":{"title":"โรงพยาบาลนครธน 2","emergency":true},"geometry":{"type":"Point","coordinates":[100.39822,13.65678]}},{"type":"Feature","properties":{"title":"โรงพยาบาลนนทเวช","tel":["025967888"]},"geometry":{"type":"Point","coordinates":[100.54304,13.85553]}},{"type":"Feature","properties":{"title":"โรงพยาบาลนพรัตนราชธานี","tel":["+66 2 517 42709"],"emergency":true},"geometry":{"type":"Point","coordinates":[100.68835,13.81736]}},{"type":"Feature","properties":{"title":"โรงพยาบาลนวเวช"},"geometry":{"type":"Point","coordinates":[100.6437,13.81781]}},{"type":"Feature","properties":{"title":"โรงพยาบาลบางกรวย","tel":["02-4475582-3"]},"geometry":{"type":"Point","coordinates":[100.47222,13.80501]}},{"type":"Feature","properties":{"title":"โรงพยาบาลบางกรวย 2","tel":["024475582-3"],"emergency":false},"geometry":{"type":"Point","coordinates":[100.45247,13.82556]}},{"type":"Feature","properties":{"title":"โรงพยาบาลบางจาก"},"geometry":{"type":"Point","coordinates":[100.54004,13.60953]}},{"type":"Feature","properties":{"title":"โรงพยาบาลบางนา 2"},"geometry":{"type":"Point","coordinates":[100.80504,13.59407]}},{"type":"Feature","properties":{"title":"โรงพยาบาลบางนากรุงเทพมหานคร","emergency":false},"geometry":{"type":"Point","coordinates":[100.59267,13.67972]}},{"type":"Feature","properties":{"title":"โรงพยาบาลบางบัวทอง","tel":["0-2571-7899","0-2571-7900"]},"geometry":{"type":"Point","coordinates":[100.42309,13.91822]}},{"type":"Feature","properties":{"title":"โรงพยาบาลบางบ่อ"},"geometry":{"type":"Point","coordinates":[100.83581,13.56959]}},{"type":"Feature","properties":{"title":"โรงพยาบาลบางปะกอก 1"},"geometry":{"type":"Point","coordinates":[100.49891,13.6788]}},{"type":"Feature","properties":{"title":"โรงพยาบาลบางปะกอก 8"},"geometry":{"type":"Point","coordinates":[100.40719,13.66263]}},{"type":"Feature","properties":{"title":"โรงพยาบาลบางพลี"},"geometry":{"type":"Point","coordinates":[100.70628,13.60405]}},{"type":"Feature","properties":{"title":"โรงพยาบาลบางมด"},"geometry":{"type":"Point","coordinates":[100.45665,13.67161]}},{"type":"Feature","properties":{"title":"โรงพยาบาลบางโพ"},"geometry":{"type":"Point","coordinates":[100.52299,13.80686]}},{"type":"Feature","properties":{"title":"โรงพยาบาลบางใหญ่"},"geometry":{"type":"Point","coordinates":[100.41066,13.84569]}},{"type":"Feature","properties":{"title":"โรงพยาบาลบางไผ่"},"geometry":{"type":"Point","coordinates":[100.46506,13.72507]}},{"type":"Feature","properties":{"title":"โรงพยาบาลบำรุงราษฎร์","emergency":true},"geometry":{"type":"Point","coordinates":[100.55252,13.74654]}},{"type":"Feature","properties":{"title":"โรงพยาบาลบีเอ็นเอช","emergency":true},"geometry":{"type":"Point","coordinates":[100.53498,13.72491]}},{"type":"Feature","properties":{"title":"โรงพยาบาลบีแคร์เมดิคอลเซ็นเตอร์"},"geometry":{"type":"Point","coordinates":[100.62471,13.9437]}},{"type":"Feature","properties":{"title":"โรงพยาบาลบุรฉัตรไชยากร"},"geometry":{"type":"Point","coordinates":[100.55165,13.75208]}},{"type":"Feature","properties":{"title":"โรงพยาบาลบุษราคัมจิตการุณย์"},"geometry":{"type":"Point","coordinates":[100.65733,13.8896]}},{"type":"Feature","properties":{"title":"โรงพยาบาลปทุมธานี"},"geometry":{"type":"Point","coordinates":[100.52327,14.02096]}},{"type":"Feature","properties":{"title":"โรงพยาบาลปทุมเวช"},"geometry":{"type":"Point","coordinates":[100.61043,13.98859]}},{"type":"Feature","properties":{"title":"โรงพยาบาลประชาธิปัตย์"},"geometry":{"type":"Point","coordinates":[100.61286,13.98538]}},{"type":"Feature","properties":{"title":"โรงพยาบาลปากเกร็ด","emergency":true},"geometry":{"type":"Point","coordinates":[100.49823,13.91215]}},{"type":"Feature","properties":{"title":"โรงพยาบาลปิยะเวท"},"geometry":{"type":"Point","coordinates":[100.58012,13.75342]}},{"type":"Feature","properties":{"title":"โรงพยาบาลป้อมพระจุลจอมเกล้า"},"geometry":{"type":"Point","coordinates":[100.57324,13.54134]}},{"type":"Feature","properties":{"title":"โรงพยาบาลผิวหนังอโศก"},"geometry":{"type":"Point","coordinates":[100.56435,13.75085]}},{"type":"Feature","properties":{"title":"โรงพยาบาลผู้สูงอายุบางขุนเทียน","tel":["+66 24527999"]},"geometry":{"type":"Point","coordinates":[100.42369,13.57251]}},{"type":"Feature","properties":{"title":"โรงพยาบาลพญาไท 1","emergency":true},"geometry":{"type":"Point","coordinates":[100.53969,13.7561]}},{"type":"Feature","properties":{"title":"โรงพยาบาลพญาไท 2","emergency":true},"geometry":{"type":"Point","coordinates":[100.54044,13.77027]}},{"type":"Feature","properties":{"title":"โรงพยาบาลพญาไท นวมินทร์","tel":["66 85-974-2455"],"emergency":true},"geometry":{"type":"Point","coordinates":[100.6575,13.82547]}},{"type":"Feature","properties":{"title":"โรงพยาบาลพญาไท พหลโยธิน"},"geometry":{"type":"Point","coordinates":[100.54988,13.7922]}},{"type":"Feature","properties":{"title":"โรงพยาบาลพระจอมเกล้าเจ้าคุณทหาร","tel":["+66 (0)2 329 1201"]},"geometry":{"type":"Point","coordinates":[100.789,13.73198]}},{"type":"Feature","properties":{"title":"โรงพยาบาลพระนั่งเกล้า","tel":["0 2528 4567"],"emergency":true},"geometry":{"type":"Point","coordinates":[100.48088,13.86482]}},{"type":"Feature","properties":{"title":"โรงพยาบาลพระมงกุฎเกล้า","emergency":true},"geometry":{"type":"Point","coordinates":[100.53432,13.76807]}},{"type":"Feature","properties":{"title":"โรงพยาบาลพระราม 9","emergency":true},"geometry":{"type":"Point","coordinates":[100.57079,13.7529]}},{"type":"Feature","properties":{"title":"โรงพยาบาลพระสมุทรเจดีย์วาทยานนท์"},"geometry":{"type":"Point","coordinates":[100.57814,13.59277]}},{"type":"Feature","properties":{"title":"โรงพยาบาลพริ้นซ์ สุวรรณภูมิ"},"geometry":{"type":"Point","coordinates":[100.66607,13.65697]}},{"type":"Feature","properties":{"title":"โรงพยาบาลพานาซีพระราม 2"},"geometry":{"type":"Point","coordinates":[100.37739,13.60058]}},{"type":"Feature","properties":{"title":"โรงพยาบาลพีเอ็มจี"},"geometry":{"type":"Point","coordinates":[100.42208,13.65174]}},{"type":"Feature","properties":{"title":"โรงพยาบาลพุทธมณฑล"},"geometry":{"type":"Point","coordinates":[100.28873,13.79833]}},{"type":"Feature","properties":{"title":"โรงพยาบาลภัทร-ธนบุรี"},"geometry":{"type":"Point","coordinates":[100.61822,14.04886]}},{"type":"Feature","properties":{"title":"โรงพยาบาลภูมิพลอดุลยเดช","emergency":true},"geometry":{"type":"Point","coordinates":[100.61889,13.90871]}},{"type":"Feature","properties":{"title":"โรงพยาบาลมงกุฎวัฒนะ","emergency":true},"geometry":{"type":"Point","coordinates":[100.56167,13.8939]}},{"type":"Feature","properties":{"title":"โรงพยาบาลมงกุฎวัฒนะ"},"geometry":{"type":"Point","coordinates":[100.56183,13.89404]}},{"type":"Feature","properties":{"title":"โรงพยาบาลมหาชัย"},"geometry":{"type":"Point","coordinates":[100.27198,13.5568]}},{"type":"Feature","properties":{"title":"โรงพยาบาลมหาชัย 2"},"geometry":{"type":"Point","coordinates":[100.301,13.70726]}},{"type":"Feature","properties":{"title":"โรงพยาบาลมิชชั่น","emergency":true},"geometry":{"type":"Point","coordinates":[100.51913,13.75773]}},{"type":"Feature","properties":{"title":"โรงพยาบาลมิตรประชา","emergency":true},"geometry":{"type":"Point","coordinates":[100.43183,13.71164]}},{"type":"Feature","properties":{"title":"โรงพยาบาลมิตรภาพ"},"geometry":{"type":"Point","coordinates":[100.49455,13.7285]}},{"type":"Feature","properties":{"title":"โรงพยาบาลมิราเคิล อ๊อฟไลท์"},"geometry":{"type":"Point","coordinates":[100.55277,13.81569]}},{"type":"Feature","properties":{"title":"โรงพยาบาลมเหสักข์"},"geometry":{"type":"Point","coordinates":[100.51943,13.7254]}},{"type":"Feature","properties":{"title":"โรงพยาบาลยันฮี","tel":["+66 2 879 0300","1723"],"emergency":true},"geometry":{"type":"Point","coordinates":[100.51154,13.79963]}},{"type":"Feature","properties":{"title":"โรงพยาบาลยุวประสาทไวทโยปถัมถ์"},"geometry":{"type":"Point","coordinates":[100.59384,13.61448]}},{"type":"Feature","properties":{"title":"โรงพยาบาลรวมชัยประชาราษ"},"geometry":{"type":"Point","coordinates":[100.85365,13.58373]}},{"type":"Feature","properties":{"title":"โรงพยาบาลรัชดา-ท่าพระ"},"geometry":{"type":"Point","coordinates":[100.47747,13.71712]}},{"type":"Feature","properties":{"title":"โรงพยาบาลราช ประชาสมาสัย"},"geometry":{"type":"Point","coordinates":[100.53759,13.65268]}},{"type":"Feature","properties":{"title":"โรงพยาบาลราช ประชาสมาสัย"},"geometry":{"type":"Point","coordinates":[100.53745,13.65194]}},{"type":"Feature","properties":{"title":"โรงพยาบาลราชพิพัฒน์","tel":["+66 2 421 2222"]},"geometry":{"type":"Point","coordinates":[100.36673,13.73058]}},{"type":"Feature","properties":{"title":"โรงพยาบาลราชวิถี","emergency":true},"geometry":{"type":"Point","coordinates":[100.53596,13.76407]}},{"type":"Feature","properties":{"title":"โรงพยาบาลราชวิถี 2 (รังสิต)"},"geometry":{"type":"Point","coordinates":[100.62028,13.9754]}},{"type":"Feature","properties":{"title":"โรงพยาบาลรามคำแหง 2​​","emergency":false},"geometry":{"type":"Point","coordinates":[100.7043,13.79279]}},{"type":"Feature","properties":{"title":"โรงพยาบาลรามาธิบดี","emergency":true},"geometry":{"type":"Point","coordinates":[100.52665,13.76744]}},{"type":"Feature","properties":{"title":"โรงพยาบาลรามาธิบดีจักรีนฤบดินทร์"},"geometry":{"type":"Point","coordinates":[100.76095,13.52604]}},{"type":"Feature","properties":{"title":"โรงพยาบาลรามาสุขสวัสดิ์"},"geometry":{"type":"Point","coordinates":[100.4986,13.67749]}},{"type":"Feature","properties":{"title":"โรงพยาบาลราษฎร์บูรณะ"},"geometry":{"type":"Point","coordinates":[100.50259,13.67806]}},{"type":"Feature","properties":{"title":"โรงพยาบาลลาดกระบัง"},"geometry":{"type":"Point","coordinates":[100.78488,13.72228]}},{"type":"Feature","properties":{"title":"โรงพยาบาลลาดพร้าว","tel":["025302556"],"emergency":true},"geometry":{"type":"Point","coordinates":[100.62429,13.77813]}},{"type":"Feature","properties":{"title":"โรงพยาบาลลาดหลุมแก้ว"},"geometry":{"type":"Point","coordinates":[100.41624,14.03723]}},{"type":"Feature","properties":{"title":"โรงพยาบาลลำลูกกา"},"geometry":{"type":"Point","coordinates":[100.85768,13.95693]}},{"type":"Feature","properties":{"title":"โรงพยาบาลวิชัยยุทธ"},"geometry":{"type":"Point","coordinates":[100.53378,13.78341]}},{"type":"Feature","properties":{"title":"โรงพยาบาลวิชัยเวช อินเตอร์เนชั่นแนล สมุทรสาคร"},"geometry":{"type":"Point","coordinates":[100.27154,13.57609]}},{"type":"Feature","properties":{"title":"โรงพยาบาลวิชัยเวช อินเตอร์เนชั่นแนล หนองแขม","emergency":true},"geometry":{"type":"Point","coordinates":[100.36077,13.70785]}},{"type":"Feature","properties":{"title":"โรงพยาบาลวิภารามปากเกร็ด","emergency":true},"geometry":{"type":"Point","coordinates":[100.49834,13.90818]}},{"type":"Feature","properties":{"title":"โรงพยาบาลวิภาวดี","emergency":true},"geometry":{"type":"Point","coordinates":[100.56197,13.84614]}},{"type":"Feature","properties":{"title":"โรงพยาบาลวิมุต","tel":["+66 20790000"],"emergency":true},"geometry":{"type":"Point","coordinates":[100.54865,13.78877]}},{"type":"Feature","properties":{"title":"โรงพยาบาลศรีธัญญา"},"geometry":{"type":"Point","coordinates":[100.51969,13.84631]}},{"type":"Feature","properties":{"title":"โรงพยาบาลศาลายา"},"geometry":{"type":"Point","coordinates":[100.30343,13.80467]}},{"type":"Feature","properties":{"title":"โรงพยาบาลศิครินทร์","tel":["023232995"],"emergency":true},"geometry":{"type":"Point","coordinates":[100.63101,13.53165]}},{"type":"Feature","properties":{"title":"โรงพยาบาลศิครินทร์","emergency":true},"geometry":{"type":"Point","coordinates":[100.64615,13.65421]}},{"type":"Feature","properties":{"title":"โรงพยาบาลศิริราช","emergency":true},"geometry":{"type":"Point","coordinates":[100.48541,13.75785]}},{"type":"Feature","properties":{"title":"โรงพยาบาลศิริราช ปิยมหาราชการุณย์","emergency":true},"geometry":{"type":"Point","coordinates":[100.48618,13.76003]}},{"type":"Feature","properties":{"title":"โรงพยาบาลศูนย์การแพทย์วิชัยยุทธ","tel":["(+66) 02 265 7777","02 618 6200"]},"geometry":{"type":"Point","coordinates":[100.53288,13.78066]}},{"type":"Feature","properties":{"title":"โรงพยาบาลสงฆ์"},"geometry":{"type":"Point","coordinates":[100.52716,13.76189]}},{"type":"Feature","properties":{"title":"โรงพยาบาลสถาบันโรคไตภูมิราชนครินทร์"},"geometry":{"type":"Point","coordinates":[100.53455,13.76]}},{"type":"Feature","properties":{"title":"โรงพยาบาลสมิติเวช","emergency":true},"geometry":{"type":"Point","coordinates":[100.51255,13.73778]}},{"type":"Feature","properties":{"title":"โรงพยาบาลสมิติเวช สุขุมวิท"},"geometry":{"type":"Point","coordinates":[100.57647,13.7349]}},{"type":"Feature","properties":{"title":"โรงพยาบาลสมิติเวชธนบุรี","emergency":true},"geometry":{"type":"Point","coordinates":[100.48983,13.71428]}},{"type":"Feature","properties":{"title":"โรงพยาบาลสมิติเวชศรีนครินทร์","tel":["+66 (0) 2022-2222"],"emergency":true},"geometry":{"type":"Point","coordinates":[100.63847,13.74869]}},{"type":"Feature","properties":{"title":"โรงพยาบาลสมุทรปราการ"},"geometry":{"type":"Point","coordinates":[100.59747,13.58464]}},{"type":"Feature","properties":{"title":"โรงพยาบาลสมุทรสาคร","emergency":true},"geometry":{"type":"Point","coordinates":[100.27926,13.55103]}},{"type":"Feature","properties":{"title":"โรงพยาบาลสมเด็จพระปิ่นเกล้า"},"geometry":{"type":"Point","coordinates":[100.48473,13.71017]}},{"type":"Feature","properties":{"title":"โรงพยาบาลสมเด็จพระมหารัชมังคลาจารย์ วรปุญญมหาเถระ","emergency":true},"geometry":{"type":"Point","coordinates":[100.56927,13.94198]}},{"type":"Feature","properties":{"title":"โรงพยาบาลสมเด็จเจ้าพระยา"},"geometry":{"type":"Point","coordinates":[100.50469,13.73044]}},{"type":"Feature","properties":{"title":"โรงพยาบาลสยาม"},"geometry":{"type":"Point","coordinates":[100.59612,13.80222]}},{"type":"Feature","properties":{"title":"โรงพยาบาลสวนเบญจกิติเฉลิมพระเกียรติ 84 พรรษา"},"geometry":{"type":"Point","coordinates":[100.554,13.72462]}},{"type":"Feature","properties":{"title":"โรงพยาบาลสามพราน"},"geometry":{"type":"Point","coordinates":[100.26077,13.74773]}},{"type":"Feature","properties":{"title":"โรงพยาบาลสายไหม","tel":["+66 2 991 8999"]},"geometry":{"type":"Point","coordinates":[100.68418,13.92342]}},{"type":"Feature","properties":{"title":"โรงพยาบาลสินแพทย์ รามอินทรา"},"geometry":{"type":"Point","coordinates":[100.66654,13.83369]}},{"type":"Feature","properties":{"title":"โรงพยาบาลสินแพทย์ ศรีนครินทร์"},"geometry":{"type":"Point","coordinates":[100.64832,13.67878]}},{"type":"Feature","properties":{"title":"โรงพยาบาลสิรินธร"},"geometry":{"type":"Point","coordinates":[100.70684,13.71741]}},{"type":"Feature","properties":{"title":"โรงพยาบาลสุขุมวิท"},"geometry":{"type":"Point","coordinates":[100.58739,13.71898]}},{"type":"Feature","properties":{"title":"โรงพยาบาลส่งเสริมสุขภาพตำบลวัดบางปิ้ง"},"geometry":{"type":"Point","coordinates":[100.62323,13.60907]}},{"type":"Feature","properties":{"title":"โรงพยาบาลส้ตว์ M. A. H."},"geometry":{"type":"Point","coordinates":[100.51767,13.66329]}},{"type":"Feature","properties":{"title":"โรงพยาบาลหนองเสือ"},"geometry":{"type":"Point","coordinates":[100.82519,14.14148]}},{"type":"Feature","properties":{"title":"โรงพยาบาลหลวงพ่อทวีศักดิ์"},"geometry":{"type":"Point","coordinates":[100.34521,13.65574]}},{"type":"Feature","properties":{"title":"โรงพยาบาลหัวเฉียว","emergency":true},"geometry":{"type":"Point","coordinates":[100.51551,13.75001]}},{"type":"Feature","properties":{"title":"โรงพยาบาลอนันต์พัฒนา 2"},"geometry":{"type":"Point","coordinates":[100.47665,13.79824]}},{"type":"Feature","properties":{"title":"โรงพยาบาลอินทรารัตน์"},"geometry":{"type":"Point","coordinates":[100.67252,13.83099]}},{"type":"Feature","properties":{"title":"โรงพยาบาลฮั้วยันฮัม"},"geometry":{"type":"Point","coordinates":[100.63602,13.81418]}},{"type":"Feature","properties":{"title":"โรงพยาบาลเกษมราษฎร์ ประชาชื่น"},"geometry":{"type":"Point","coordinates":[100.53869,13.83189]}},{"type":"Feature","properties":{"title":"โรงพยาบาลเกษมราษฎร์ รามคำแหง"},"geometry":{"type":"Point","coordinates":[100.67615,13.77997]}},{"type":"Feature","properties":{"title":"โรงพยาบาลเกษมราษฏร์ รัตนาธิเบศร์"},"geometry":{"type":"Point","coordinates":[100.42356,13.87552]}},{"type":"Feature","properties":{"title":"โรงพยาบาลเจตนิน","tel":["+6626555300"],"emergency":false},"geometry":{"type":"Point","coordinates":[100.54488,13.74719]}},{"type":"Feature","properties":{"title":"โรงพยาบาลเจริญกรุงประชารักษ์","tel":["0 2289 7000"],"emergency":true},"geometry":{"type":"Point","coordinates":[100.49472,13.69356]}},{"type":"Feature","properties":{"title":"โรงพยาบาลเซนต์หลุยส์","emergency":true},"geometry":{"type":"Point","coordinates":[100.52509,13.71914]}},{"type":"Feature","properties":{"title":"โรงพยาบาลเซ็นทรัล เยอเนอรัล"},"geometry":{"type":"Point","coordinates":[100.60642,13.88931]}},{"type":"Feature","properties":{"title":"โรงพยาบาลเซ็ลทรัลปาร์ค"},"geometry":{"type":"Point","coordinates":[100.74404,13.61556]}},{"type":"Feature","properties":{"title":"โรงพยาบาลเดชา"},"geometry":{"type":"Point","coordinates":[100.53556,13.75689]}},{"type":"Feature","properties":{"title":"โรงพยาบาลเทียนฟ้ามูลนิธิ"},"geometry":{"type":"Point","coordinates":[100.51231,13.73825]}},{"type":"Feature","properties":{"title":"โรงพยาบาลเปาโล รังสิต"},"geometry":{"type":"Point","coordinates":[100.61968,13.98585]}},{"type":"Feature","properties":{"title":"โรงพยาบาลเมดพาร์ค"},"geometry":{"type":"Point","coordinates":[100.55661,13.72172]}},{"type":"Feature","properties":{"title":"โรงพยาบาลเมตตาประชารักษ์"},"geometry":{"type":"Point","coordinates":[100.25601,13.739]}},{"type":"Feature","properties":{"title":"โรงพยาบาลเมืองสมุทร"},"geometry":{"type":"Point","coordinates":[100.60113,13.59505]}},{"type":"Feature","properties":{"title":"โรงพยาบาลเมืองสมุทรปู่เจ้าสมิงพราย"},"geometry":{"type":"Point","coordinates":[100.57835,13.64661]}},{"type":"Feature","properties":{"title":"โรงพยาบาลเมโย"},"geometry":{"type":"Point","coordinates":[100.5739,13.83544]}},{"type":"Feature","properties":{"title":"โรงพยาบาลเลิดสิน","tel":["023539800-1"],"emergency":true},"geometry":{"type":"Point","coordinates":[100.51775,13.72152]}},{"type":"Feature","properties":{"title":"โรงพยาบาลเวชการุณย์รัศมิ์","emergency":true},"geometry":{"type":"Point","coordinates":[100.859,13.85657]}},{"type":"Feature","properties":{"title":"โรงพยาบาลเวชธานี อินเตอร์เนชันแนล","tel":["02 734 0000"],"emergency":true},"geometry":{"type":"Point","coordinates":[100.63691,13.77218]}},{"type":"Feature","properties":{"title":"โรงพยาบาลเวิลด์เมดิคอล"},"geometry":{"type":"Point","coordinates":[100.52424,13.90481]}},{"type":"Feature","properties":{"title":"โรงพยาบาลเอกชัย"},"geometry":{"type":"Point","coordinates":[100.29139,13.5592]}},{"type":"Feature","properties":{"title":"โรงพยาบาลเอกปทุม"},"geometry":{"type":"Point","coordinates":[100.65293,13.99387]}},{"type":"Feature","properties":{"title":"โรงพยาบาลเอส วาย เอช"},"geometry":{"type":"Point","coordinates":[100.60761,13.88215]}},{"type":"Feature","properties":{"title":"โรงพยาบาลแพทย์ปัญญา"},"geometry":{"type":"Point","coordinates":[100.60741,13.74386]}},{"type":"Feature","properties":{"title":"โรงพยาบาลแพทย์รังสิต"},"geometry":{"type":"Point","coordinates":[100.62151,13.96342]}},{"type":"Feature","properties":{"title":"โรงพยาบาลโรคปอดกรุงเทพ"},"geometry":{"type":"Point","coordinates":[100.54602,13.78487]}},{"type":"Feature","properties":{"title":"โรงพยาบาลไทยนครินทร์","tel":["023612828"],"emergency":true},"geometry":{"type":"Point","coordinates":[100.63842,13.66804]}},{"type":"Feature","properties":{"title":"โรงพยาบาลไทรน้อย"},"geometry":{"type":"Point","coordinates":[100.32586,13.98192]}},{"type":"Feature","properties":{"title":"โรงพยาบาล​ทหารผ่านศึก​"},"geometry":{"type":"Point","coordinates":[100.5514,13.77258]}},{"type":"Feature","properties":{"title":"โรงพยาบาล​เทพธารินทร์"},"geometry":{"type":"Point","coordinates":[100.57695,13.71433]}}]}