{"type":"FeatureCollection","features":[{"type":"Feature","properties":{"title":"อุบัติเหตุ ถนนนิมิตใหม่ ขาเข้า","info":["รายละเอียด: 04/09/2567 08.36 น. ถนนนิมิตใหม่ ขาเข้า ก่อนถึงซอยนิมิตใหม่ 10 ประมาณ 200 เมตร มีอุบัติเหตุ 2 คัน กีดขวางการจราจรเลนขวา รถชะลอตัวช้า"],"district":"คลองสามวา"},"geometry":{"type":"Point","coordinates":[100.73658,13.83488]}},{"type":"Feature","properties":{"title":"อุบัติเหตุ ถนนรัชดาภิเษก ขาเข้า","info":["รายละเอียด: 04/09/2567 08.32 น. ถนนรัชดาภิเษก ขาเข้า หน้ากรมส่งเสริมการส่งออก มีอุบัติเหตุ 3 คัน กีดขวางการจราจร รถติดขัดในจุดดังกล่าว"],"district":"จตุจักร"},"geometry":{"type":"Point","coordinates":[100.57587,13.81482]}},{"type":"Feature","properties":{"title":"อุบัติเหตุ ถนนพุทธสาคร ขาออก","info":["รายละเอียด: 04/09/2567 21.18 น. ถนนพุทธสาคร ขาออก ก่อนถึงวัดหนองพะอง เล็กน้อย มีอุบัติเหตุ (จยย. ชนกับ รถกระบะ) กีดขวางการจราจร เลนขวา"],"district":""},"geometry":{"type":"Point","coordinates":[100.32051,13.67958]}},{"type":"Feature","properties":{"title":"อุบัติเหตุ ถนนราชดำริ","info":["รายละเอียด: 04/09/2567 19.46 น. ถนนราชดำริ หน้ารพ.จุฬาฯ เก๋งกับรถSUVชนกัน ขวางช่องทางซ้าย การจราจรเคลื่อนตัวช้า"],"district":"ปทุมวัน"},"geometry":{"type":"Point","coordinates":[100.53787,13.73277]}},{"type":"Feature","properties":{"title":"อุบัติเหตุ ถนนศรีนครินทร์-ร่มเกล้า","info":["รายละเอียด: 04/09/2567 18.42 น. ถนนศรีนครินทร์ร่มเกล้า ขาออก บนสะพานข้ามคลองทับช้างล่าง รถเก๋งกับรถบรรทุก 10 ล้อชนกัน ขวางทุกช่องทางของทางขนาน การจราจรเคลื่อนตัวช้า"],"district":"สะพานสูง"},"geometry":{"type":"Point","coordinates":[100.69246,13.75262]}},{"type":"Feature","properties":{"title":"อุบัติเหตุ ถนนรามอินทรา ขาออก","info":["รายละเอียด: 04/09/2567 17.49 น. ถนนรามอินทรา ขาออก ตรงข้ามรพ.สินแพทย์ มีอุบัติเหตุ รถนั่งส่วนบุคคล ชนกับ รถกระบะ กีดขวางการจราจร เลนขวา การจราจรชะลอตัว"],"district":"คันนายาว"},"geometry":{"type":"Point","coordinates":[100.66808,13.83339]}},{"type":"Feature","properties":{"title":"รถเสีย ถนนบรมราชชนนี ขาเข้า","info":["รายละเอียด: 04/09/2567 16.23 น. ถนนบรมราชชนนี ขาเข้า เชิงทางขึ้นคู่ขนานลอยฟ้าบรมราชชนนี (สาย 3) มีรถกระบะ จอดเสีย กีดขวางการจราจร เลนซ้าย"],"district":"ทวีวัฒนา"},"geometry":{"type":"Point","coordinates":[100.3707,13.78716]}},{"type":"Feature","properties":{"title":"รถเสีย ถนนศรีนครินทร์ ขาเข้า","info":["รายละเอียด: 04/09/2567 16.16 น. ถนนศรีนครินทร์ ขาเข้า เชิงทางลงอุโมงค์พัฒนาการ มีรถบรรทุก จอดเสีย กีดขวางการจราจร เลนซ้าย"],"district":"สวนหลวง"},"geometry":{"type":"Point","coordinates":[100.64101,13.73402]}},{"type":"Feature","properties":{"title":"อุบัติเหตุ ถนนพระราม 4","info":["รายละเอียด: 4/9/2567 17.17 ถนนพระราม 4 บริเวณแยกกล้วยน้ำไท มีอุบัติเหตุ จยย. ชนกับ รถบรรทุก กีดขวางการจราจร"],"district":"คลองเตย"},"geometry":{"type":"Point","coordinates":[100.58462,13.71424]}},{"type":"Feature","properties":{"title":"รถเสีย ปากซอยลาดพร้าว 92 (ซอยลมเย็น)","info":["รายละเอียด: 04/09/2567 13.13 น. ปากซอยลาดพร้าว 92 มี (รถประจำทาง จอดเสีย) กีดขวางการจราจร เลนซ้าย"],"district":"วังทองหลาง"},"geometry":{"type":"Point","coordinates":[100.61085,13.78515]}},{"type":"Feature","properties":{"title":"อุบัติเหตุ ถนนราชพฤกษ์ ขาเข้า","info":["รายละเอียด: 04/09/2567 11.34 น. ถนนราชพฤกษ์ ขาเข้า ใต้บีทีเอสวุฒากาศ อุบัติเหตุชนกัน 4 คัน ในช่องทางขวา รถติดมาก ท้ายแถวกระทบเข้าถนนกัลปพฤกษ์ ช่วงเยื้องแม็คโคร ฟู้ดเซอร์วิส กัลปพฤกษ์"],"district":"ธนบุรี"},"geometry":{"type":"Point","coordinates":[100.46903,13.71345]}},{"type":"Feature","properties":{"title":"อุบัติเหตุ ถนนกาญจนาภิเษก (ถนนวงแหวนรอบนอกด้านตะวันออก)","info":["รายละเอียด: 04/09/2567 11.18 น. ถนนกาญจนาภิเษก (ถนนวงแหวนรอบนอกด้านตะวันออก) จาก ต่างระดับรามอินทรา มุ่งหน้า ต่างระดับเสรีไทย ที่ กม.43+200 รถบรรทุกชนไม่ทราบคู่กรณี ขวางช่องทางขวา การจราจรเคลื่อนตัวช้า"],"district":"คันนายาว"},"geometry":{"type":"Point","coordinates":[100.67437,13.82878]}},{"type":"Feature","properties":{"title":"รถเสีย ถนนพระราม 4 ขาออก","info":["รายละเอียด: 4/9/2567 11.13 ถนนพระราม 4 ขาออก ช่วงก่อนถึงสะพานไทย-เบลเยี่ยม เล็กน้อย รถปิคอัพจอดเสีย ขวางช่องทางขวา การจราจรเคลื่อนตัวช้า"],"district":"ปทุมวัน"},"geometry":{"type":"Point","coordinates":[100.54095,13.72793]}},{"type":"Feature","properties":{"title":"รถเสีย ทางพิเศษเฉลิมมหานคร","info":["รายละเอียด: 04/09/2567 10.38 น. ทางพิเศษเฉลิมมหานคร (ด่วนขั้นที่1) ดาวคะนอง ขาเข้า บนสะพานพระราม9 รถเมล์จอดเสีย การจราจรเคลื่อนตัวช้า"],"district":"ราษฎร์บูรณะ"},"geometry":{"type":"Point","coordinates":[100.51737,13.68211]}},{"type":"Feature","properties":{"title":"คืบหน้าอุบัติเหตุ ถนนพระราม 2 (ทางหลวงแผ่นดินหมายเลข 35) ขาออก","info":["รายละเอียด: 04/09/2567 14.27 น. ถนนพระราม 2 ขาออก เลย ต่างระดับพระราม 2 ประมาณ 500 ม. ก่อนหน้านี้ มีอุบัติเหตุ (รถกระบะ ขนกัน) ล่าสุด จนท.เคลื่อนย้ายพ้นกีดขวางแล้ว"],"district":"บางขุนเทียน"},"geometry":{"type":"Point","coordinates":[100.40518,13.638]}},{"type":"Feature","properties":{"title":"อุบัติเหตุ ถนนพระราม 2 (ทางหลวงแผ่นดินหมายเลข 35)","info":["รายละเอียด: 04/09/2567 13.31 น. ถนนพระราม 2 ขาออก เลย ต่างระดับพระราม 2 ประมาณ 500 ม. มีอุบัติเหตุ (รถกระบะ ขนกัน) กีดขวางการจราจร เลนขวา ในช่องทางด่วน"],"district":"บางขุนเทียน"},"geometry":{"type":"Point","coordinates":[100.40517,13.63798]}},{"type":"Feature","properties":{"title":"อุบัติเหตุ ถนนกาญจนาภิเษก (ถนนวงแหวนรอบนอกด้านตะวันออก)","info":["รายละเอียด: 04/09/2567 09.00 น. ถนนกาญจนาภิเษก (ถนนวงแหวนรอบนอกด้านตะวันออก) (ทล.9) มุ่งหน้าบางพลี ช่วง กม.34+400 มีอุบัติเหตุ กีดขวางช่องทางขวา รถเริ่มชะลอตัว"],"district":"คลองสามวา"},"geometry":{"type":"Point","coordinates":[100.69219,13.895]}},{"type":"Feature","properties":{"title":"คืบหน้าอุบัติเหตุ สะพานยกระดับถนน","info":["รายละเอียด: 04/09/2567 08.43 น. ก่อนหน้านี้ บนยกระดับพระราม 9 ขาเข้า ขึ้นสะพานข้ามแยกรามคำแหง ประมาณ 200 เมตร มีชนกัน 3 คัน ล่าสุด พ้นกีดขวางแล้ว ท้ายแถวสะสม มอเตอร์เวย์ (ทล.7) กม.5"],"district":"บางกะปิ"},"geometry":{"type":"Point","coordinates":[100.60779,13.74621]}},{"type":"Feature","properties":{"title":"รถเสีย ถนนพระราม 4 ขาเข้า","info":["รายละเอียด: 04/09/2567 08.41 น. ถนนพระราม 4 ขาเข้า ช่วง หน้าศูนย์ฮอนด้า คลองเตย รถประจำทางจอดเสีย ช่องทางซ้าย การจราจรติดขัด"],"district":"คลองเตย"},"geometry":{"type":"Point","coordinates":[100.56332,13.71881]}}]}