{"type":"FeatureCollection","features":[{"type":"Feature","properties":{"title":"จุดตัดทางรถไฟ ถ.พระราม 1","info":["ประเภท: จุดตัดที่เป็นสะพานข้าม (Overpass)","เขต: ปทุมวัน"],"district":"ปทุมวัน"},"geometry":{"type":"Point","coordinates":[100.51785,13.7487]}},{"type":"Feature","properties":{"title":"จุดตัดทางรถไฟ ถ.ยมราช","info":["ประเภท: จุดตัดเสมอระดับ","เขต: ดุสิต"],"district":"ดุสิต"},"geometry":{"type":"Point","coordinates":[100.52077,13.75684]}},{"type":"Feature","properties":{"title":"จุดตัดทางรถไฟ ถ.ยมราช","info":["ประเภท: จุดตัดเสมอระดับ","เขต: ราชเทวี"],"district":"ดุสิต"},"geometry":{"type":"Point","coordinates":[100.5208,13.75691]}},{"type":"Feature","properties":{"title":"จุดตัดทางรถไฟ ถ.ศรีอยุธยา","info":["ประเภท: จุดตัดเสมอระดับ","เขต: ราชเทวี"],"district":"ดุสิต"},"geometry":{"type":"Point","coordinates":[100.52321,13.76292]}},{"type":"Feature","properties":{"title":"จุดตัดทางรถไฟ ถ.หลังโรงพยาบาลรามาธิบดี","info":["ประเภท: ทางลักผ่าน","เขต: ราชเทวี"],"district":"ดุสิต"},"geometry":{"type":"Point","coordinates":[100.52531,13.76811]}},{"type":"Feature","properties":{"title":"จุดตัดทางรถไฟ ถ.ราชวิถี","info":["ประเภท: จุดตัดเสมอระดับ","เขต: พญาไท"],"district":"ดุสิต"},"geometry":{"type":"Point","coordinates":[100.52624,13.77036]}},{"type":"Feature","properties":{"title":"จุดตัดทางรถไฟ ถ.นครไชยศรี","info":["ประเภท: จุดตัดเสมอระดับ","เขต: พญาไท"],"district":"ดุสิต"},"geometry":{"type":"Point","coordinates":[100.52853,13.77606]}},{"type":"Feature","properties":{"title":"จุดตัดทางรถไฟ ถ.เศรษฐศิริ","info":["ประเภท: จุดตัดเสมอระดับ","เขต: ดุสิต"],"district":"ดุสิต"},"geometry":{"type":"Point","coordinates":[100.53076,13.78153]}},{"type":"Feature","properties":{"title":"จุดตัดทางรถไฟ ถ.ระนอง","info":["ประเภท: จุดตัดเสมอระดับ","เขต: ดุสิต"],"district":"ดุสิต"},"geometry":{"type":"Point","coordinates":[100.53302,13.78708]}},{"type":"Feature","properties":{"title":"จุดตัดทางรถไฟ ถ.ประดิพัทธิ์","info":["ประเภท: จุดตัดเสมอระดับ","เขต: พญาไท"],"district":"ดุสิต"},"geometry":{"type":"Point","coordinates":[100.5352,13.79243]}},{"type":"Feature","properties":{"title":"จุดตัดทางรถไฟ ถ.เลียบคลองประปาพระราม 6","info":["ประเภท: จุดตัดที่มีทางลอดใต้ทางรถไฟ (Underpass)","เขต: พญาไท"],"district":"ดุสิต"},"geometry":{"type":"Point","coordinates":[100.53723,13.79748]}},{"type":"Feature","properties":{"title":"จุดตัดทางรถไฟ ถ.เข้าโรงรถจักรดีเซลบางซื่อ","info":["ประเภท: จุดตัดเสมอระดับ","เขต: จตุจักร"],"district":"บางซื่อ"},"geometry":{"type":"Point","coordinates":[100.54303,13.81173]}},{"type":"Feature","properties":{"title":"จุดตัดทางรถไฟ ถ.ทางพิเศษศรีรัช","info":["ประเภท: ยกเลิก","เขต: จตุจักร"],"district":"จตุจักร"},"geometry":{"type":"Point","coordinates":[100.54612,13.81969]}},{"type":"Feature","properties":{"title":"จุดตัดทางรถไฟ ถ.ทางพิเศษศรีรัช","info":["ประเภท: ทางลักผ่าน","เขต: จตุจักร"],"district":"จตุจักร"},"geometry":{"type":"Point","coordinates":[100.54787,13.82327]}},{"type":"Feature","properties":{"title":"จุดตัดทางรถไฟ ถ.ทางพิเศษศรีรัช","info":["ประเภท: จุดตัดที่เป็นสะพานข้าม (Overpass)","เขต: จตุจักร"],"district":"จตุจักร"},"geometry":{"type":"Point","coordinates":[100.54794,13.82341]}},{"type":"Feature","properties":{"title":"จุดตัดทางรถไฟ ถ.รัชดาภิเษก","info":["ประเภท: จุดตัดที่เป็นสะพานข้าม (Overpass)","เขต: จตุจักร"],"district":"จตุจักร"},"geometry":{"type":"Point","coordinates":[100.55152,13.83004]}},{"type":"Feature","properties":{"title":"จุดตัดทางรถไฟ ถ.รัชโยธิน","info":["ประเภท: จุดตัดที่เป็นสะพานข้าม (Overpass)","เขต: จตุจักร"],"district":"จตุจักร"},"geometry":{"type":"Point","coordinates":[100.55159,13.83017]}},{"type":"Feature","properties":{"title":"จุดตัดทางรถไฟ ถ.เทศบาลสงเคราะห์","info":["ประเภท: จุดตัดเสมอระดับ","เขต: จตุจักร"],"district":"จตุจักร"},"geometry":{"type":"Point","coordinates":[100.55618,13.83877]}},{"type":"Feature","properties":{"title":"จุดตัดทางรถไฟ ถ.งามวงศ์วาน ทางหลวงหมายเลข 302","info":["ประเภท: จุดตัดเสมอระดับ","เขต: จตุจักร"],"district":"จตุจักร"},"geometry":{"type":"Point","coordinates":[100.56095,13.8477]}},{"type":"Feature","properties":{"title":"จุดตัดทางรถไฟ ถ.ขึ้นทางด่วน(ดอนเมืองโทลเวย์)","info":["ประเภท: จุดตัดเสมอระดับ","เขต: จตุจักร"],"district":"จตุจักร"},"geometry":{"type":"Point","coordinates":[100.561,13.84781]}},{"type":"Feature","properties":{"title":"จุดตัดทางรถไฟ ถ.ที่ดินจัดสรรบริษัทชิดชน","info":["ประเภท: จุดตัดเสมอระดับ","เขต: หลักสี่"],"district":"หลักสี่"},"geometry":{"type":"Point","coordinates":[100.57109,13.86645]}},{"type":"Feature","properties":{"title":"จุดตัดทางรถไฟ ถ.ที่ดินจัดสรรบริษัทชิดชน","info":["ประเภท: จุดตัดเสมอระดับ","เขต: หลักสี่"],"district":"หลักสี่"},"geometry":{"type":"Point","coordinates":[100.57124,13.86673]}},{"type":"Feature","properties":{"title":"จุดตัดทางรถไฟ ถ.แจ้งวัฒนะ ทางหลวงหมายเลข 304","info":["ประเภท: จุดตัดเสมอระดับ","เขต: หลักสี่"],"district":"หลักสี่"},"geometry":{"type":"Point","coordinates":[100.58114,13.88451]}},{"type":"Feature","properties":{"title":"จุดตัดทางรถไฟ ถ.เข้าวัดหลักสี่","info":["ประเภท: จุดตัดเสมอระดับ","เขต: หลักสี่"],"district":"หลักสี่"},"geometry":{"type":"Point","coordinates":[100.58338,13.88855]}},{"type":"Feature","properties":{"title":"จุดตัดทางรถไฟ ถ.เข้าบริษัทบริการน้ำมันทหารอากาศ","info":["ประเภท: จุดตัดเสมอระดับ","เขต: ดอนเมือง"],"district":"ดอนเมือง"},"geometry":{"type":"Point","coordinates":[100.59296,13.90554]}},{"type":"Feature","properties":{"title":"จุดตัดทางรถไฟ ถ.เชิดวุฒิกาศ","info":["ประเภท: จุดตัดเสมอระดับ","เขต: ดอนเมือง"],"district":"ดอนเมือง"},"geometry":{"type":"Point","coordinates":[100.59885,13.916]}},{"type":"Feature","properties":{"title":"จุดตัดทางรถไฟ ถ.เชิดวุฒิกาศ","info":["ประเภท: จุดตัดเสมอระดับ","เขต: ดอนเมือง"],"district":"ดอนเมือง"},"geometry":{"type":"Point","coordinates":[100.60805,13.93287]}},{"type":"Feature","properties":{"title":"จุดตัดทางรถไฟ ถ.กำแพงเพชร","info":["ประเภท: จุดตัดที่เป็นสะพานข้าม (Overpass)","เขต: ดอนเมือง"],"district":"ดอนเมือง"},"geometry":{"type":"Point","coordinates":[100.60746,13.94716]}},{"type":"Feature","properties":{"title":"จุดตัดทางรถไฟ ถ.พระราม 6 (อุรุพงษ์) (กทม.)","info":["ประเภท: จุดตัดเสมอระดับ","เขต: ราชเทวี"],"district":"ราชเทวี"},"geometry":{"type":"Point","coordinates":[100.52489,13.75887]}},{"type":"Feature","properties":{"title":"จุดตัดทางรถไฟ ถ.พญาไท (กทม.)","info":["ประเภท: จุดตัดเสมอระดับ","เขต: ราชเทวี"],"district":"ราชเทวี"},"geometry":{"type":"Point","coordinates":[100.53377,13.7569]}},{"type":"Feature","properties":{"title":"จุดตัดทางรถไฟ ถ.ราชปารถ (กทม.)","info":["ประเภท: จุดตัดเสมอระดับ","เขต: ราชเทวี"],"district":"ราชเทวี"},"geometry":{"type":"Point","coordinates":[100.54218,13.755]}},{"type":"Feature","properties":{"title":"จุดตัดทางรถไฟ ถ.เข้าโรงงาน มส. ป.๑ (รฟท.)","info":["ประเภท: จุดตัดเสมอระดับ","เขต: ราชเทวี"],"district":"ราชเทวี"},"geometry":{"type":"Point","coordinates":[100.54512,13.75434]}},{"type":"Feature","properties":{"title":"จุดตัดทางรถไฟ ถ.นิคมมักกะสัน","info":["ประเภท: จุดตัดที่เป็นสะพานข้าม (Overpass)","เขต: ราชเทวี"],"district":"ราชเทวี"},"geometry":{"type":"Point","coordinates":[100.54648,13.75403]}},{"type":"Feature","properties":{"title":"จุดตัดทางรถไฟ ถ.เข้าโรงงาน มส. ประตู ๒ (รฟท.)","info":["ประเภท: จุดตัดเสมอระดับ","เขต: ราชเทวี"],"district":"ราชเทวี"},"geometry":{"type":"Point","coordinates":[100.54988,13.75327]}},{"type":"Feature","properties":{"title":"จุดตัดทางรถไฟ ถ.กำแพงเพชร","info":["ประเภท: จุดตัดเสมอระดับ","เขต: ราชเทวี"],"district":"ราชเทวี"},"geometry":{"type":"Point","coordinates":[100.55486,13.75215]}},{"type":"Feature","properties":{"title":"จุดตัดทางรถไฟ ถ.อโศก (กทม.)","info":["ประเภท: จุดตัดเสมอระดับ","เขต: ราชเทวี"],"district":"ราชเทวี"},"geometry":{"type":"Point","coordinates":[100.56367,13.75018]}},{"type":"Feature","properties":{"title":"จุดตัดทางรถไฟ ถ.เพชรอุทัย (กทม.)","info":["ประเภท: จุดตัดเสมอระดับ","เขต: ห้วยขวาง"],"district":"ห้วยขวาง"},"geometry":{"type":"Point","coordinates":[100.56859,13.74907]}},{"type":"Feature","properties":{"title":"จุดตัดทางรถไฟ ถ.เข้าตลาด","info":["ประเภท: จุดตัดเสมอระดับ","เขต: ห้วยขวาง"],"district":"ห้วยขวาง"},"geometry":{"type":"Point","coordinates":[100.57041,13.74866]}},{"type":"Feature","properties":{"title":"จุดตัดทางรถไฟ ถ.กำแพงเพชร 7","info":["ประเภท: จุดตัดเสมอระดับ","เขต: ห้วยขวาง"],"district":"ห้วยขวาง"},"geometry":{"type":"Point","coordinates":[100.57842,13.74686]}},{"type":"Feature","properties":{"title":"จุดตัดทางรถไฟ ถ.กำแพงเพชร 7 (ซอยศูนย์วิจัย)","info":["ประเภท: จุดตัดเสมอระดับ","เขต: ห้วยขวาง"],"district":"ห้วยขวาง"},"geometry":{"type":"Point","coordinates":[100.5849,13.7454]}},{"type":"Feature","properties":{"title":"จุดตัดทางรถไฟ ถ.เพชรพระราม","info":["ประเภท: จุดตัดเสมอระดับ","เขต: ห้วยขวาง"],"district":"ห้วยขวาง"},"geometry":{"type":"Point","coordinates":[100.59702,13.74325]}},{"type":"Feature","properties":{"title":"จุดตัดทางรถไฟ ถ.กำแพงเพชร 7 (เข้านาซ่า)","info":["ประเภท: จุดตัดเสมอระดับ","เขต: สวนหลวง"],"district":"สวนหลวง"},"geometry":{"type":"Point","coordinates":[100.59901,13.74303]}},{"type":"Feature","properties":{"title":"จุดตัดทางรถไฟ รามคำแหง","info":["ประเภท: จุดตัดเสมอระดับ","เขต: สวนหลวง"],"district":"สวนหลวง"},"geometry":{"type":"Point","coordinates":[100.60145,13.74276]}},{"type":"Feature","properties":{"title":"จุดตัดทางรถไฟ ถ.ทางด่วนรามอินทรา-อาจณรงค์","info":["ประเภท: จุดตัดที่เป็นสะพานข้าม (Overpass)","เขต: สวนหลวง"],"district":"สวนหลวง"},"geometry":{"type":"Point","coordinates":[100.60535,13.74233]}},{"type":"Feature","properties":{"title":"จุดตัดทางรถไฟ ถ.กำแพงเพชร 7","info":["ประเภท: จุดตัดเสมอระดับ","เขต: สวนหลวง"],"district":"สวนหลวง"},"geometry":{"type":"Point","coordinates":[100.60607,13.74225]}},{"type":"Feature","properties":{"title":"จุดตัดทางรถไฟ ถ.กำแพงเพชร 7","info":["ประเภท: จุดตัดเสมอระดับ","เขต: สวนหลวง"],"district":"สวนหลวง"},"geometry":{"type":"Point","coordinates":[100.62598,13.74002]}},{"type":"Feature","properties":{"title":"จุดตัดทางรถไฟ ถ.ศรันครินทร์ (พัฒนาการ)","info":["ประเภท: จุดตัดเสมอระดับ","เขต: สวนหลวง"],"district":"สวนหลวง"},"geometry":{"type":"Point","coordinates":[100.64173,13.73828]}},{"type":"Feature","properties":{"title":"จุดตัดทางรถไฟ ถ.กรุงเทพกรีฑา","info":["ประเภท: จุดตัดเสมอระดับ","เขต: สวนหลวง"],"district":"สวนหลวง"},"geometry":{"type":"Point","coordinates":[100.65304,13.737]}},{"type":"Feature","properties":{"title":"จุดตัดทางรถไฟ ถ.เข้ามหาวิทยาลัยแสตมฟอร์ด","info":["ประเภท: จุดตัดที่มีทางลอดใต้ทางรถไฟ (Underpass)","เขต: ประเวศ"],"district":"ประเวศ"},"geometry":{"type":"Point","coordinates":[100.66173,13.73604]}},{"type":"Feature","properties":{"title":"จุดตัดทางรถไฟ ถ.เข้าบ้านริมคลอง","info":["ประเภท: จุดตัดเสมอระดับ","เขต: ประเวศ"],"district":"ประเวศ"},"geometry":{"type":"Point","coordinates":[100.66543,13.73563]}},{"type":"Feature","properties":{"title":"จุดตัดทางรถไฟ ถ.เข้าบ้านริมคลอง","info":["ประเภท: จุดตัดเสมอระดับ","เขต: ประเวศ"],"district":"ประเวศ"},"geometry":{"type":"Point","coordinates":[100.67453,13.73462]}},{"type":"Feature","properties":{"title":"จุดตัดทางรถไฟ ถ.อ่อนนุช65","info":["ประเภท: จุดตัดที่มีทางลอดใต้ทางรถไฟ (Underpass)","เขต: ประเวศ"],"district":"ประเวศ"},"geometry":{"type":"Point","coordinates":[100.67733,13.73431]}},{"type":"Feature","properties":{"title":"จุดตัดทางรถไฟ ถ.เข้าบ้านริมคลอง","info":["ประเภท: จุดตัดเสมอระดับ","เขต: ประเวศ"],"district":"ประเวศ"},"geometry":{"type":"Point","coordinates":[100.68739,13.7332]}},{"type":"Feature","properties":{"title":"จุดตัดทางรถไฟ ถ.เข้าบ้านริมคลอง","info":["ประเภท: จุดตัดเสมอระดับ","เขต: ประเวศ"],"district":"ประเวศ"},"geometry":{"type":"Point","coordinates":[100.69493,13.73236]}},{"type":"Feature","properties":{"title":"จุดตัดทางรถไฟ ถ.ทางขนานมอเตอร์เวย์","info":["ประเภท: จุดตัดเสมอระดับ","เขต: ประเวศ"],"district":"ประเวศ"},"geometry":{"type":"Point","coordinates":[100.69883,13.73191]}},{"type":"Feature","properties":{"title":"จุดตัดทางรถไฟ ถ.กาญจนาภิเษก (ทางหลวงหมายเลขพิเศษ)","info":["ประเภท: จุดตัดที่เป็นสะพานข้าม (Overpass)","เขต: สะพานสูง"],"district":"ประเวศ"},"geometry":{"type":"Point","coordinates":[100.70269,13.73148]}},{"type":"Feature","properties":{"title":"จุดตัดทางรถไฟ ถ.เลียบคลอง","info":["ประเภท: จุดตัดเสมอระดับ","เขต: ประเวศ"],"district":"ประเวศ"},"geometry":{"type":"Point","coordinates":[100.70838,13.73085]}},{"type":"Feature","properties":{"title":"จุดตัดทางรถไฟ ถ.เข้าวัดลานบุญ","info":["ประเภท: จุดตัดเสมอระดับ","เขต: ลาดกระบัง"],"district":"ลาดกระบัง"},"geometry":{"type":"Point","coordinates":[100.71915,13.72964]}},{"type":"Feature","properties":{"title":"จุดตัดทางรถไฟ ถ.ลาดกระบัง3","info":["ประเภท: จุดตัดเสมอระดับ","เขต: ลาดกระบัง"],"district":"ลาดกระบัง"},"geometry":{"type":"Point","coordinates":[100.73802,13.72753]}},{"type":"Feature","properties":{"title":"จุดตัดทางรถไฟ ถ.ร่มเกล้า 1 (ทางเข้าสถานีลาดกระบัง)","info":["ประเภท: จุดตัดเสมอระดับ","เขต: ลาดกระบัง"],"district":"ลาดกระบัง"},"geometry":{"type":"Point","coordinates":[100.73636,13.72771]}},{"type":"Feature","properties":{"title":"จุดตัดทางรถไฟ ถ.ร่มเกล้า 2 (ทางเข้าสถานีลาดกระบัง)","info":["ประเภท: จุดตัดเสมอระดับ","เขต: ลาดกระบัง"],"district":"ลาดกระบัง"},"geometry":{"type":"Point","coordinates":[100.74655,13.72758]}},{"type":"Feature","properties":{"title":"จุดตัดทางรถไฟ ถ.ร่มเกล้า","info":["ประเภท: จุดตัดเสมอระดับ","เขต: ลาดกระบัง"],"district":"ลาดกระบัง"},"geometry":{"type":"Point","coordinates":[100.75348,13.72775]}},{"type":"Feature","properties":{"title":"จุดตัดทางรถไฟ ทางหลวง","info":["ประเภท: จุดตัดที่เป็นสะพานข้าม (Overpass)","เขต: ลาดกระบัง"],"district":"ลาดกระบัง"},"geometry":{"type":"Point","coordinates":[100.75996,13.72791]}},{"type":"Feature","properties":{"title":"จุดตัดทางรถไฟ ถ.เลียบคลอง4","info":["ประเภท: จุดตัดเสมอระดับ","เขต: ลาดกระบัง"],"district":"ลาดกระบัง"},"geometry":{"type":"Point","coordinates":[100.76905,13.72814]}},{"type":"Feature","properties":{"title":"จุดตัดทางรถไฟ ถ.ฉลองกรุง","info":["ประเภท: จุดตัดเสมอระดับ","เขต: ลาดกระบัง"],"district":"ลาดกระบัง"},"geometry":{"type":"Point","coordinates":[100.778,13.72837]}},{"type":"Feature","properties":{"title":"จุดตัดทางรถไฟ ถ.เชื่อมคลองมอญ","info":["ประเภท: จุดตัดเสมอระดับ","เขต: ลาดกระบัง"],"district":"ลาดกระบัง"},"geometry":{"type":"Point","coordinates":[100.81142,13.72653]}},{"type":"Feature","properties":{"title":"จุดตัดทางรถไฟ ทางหลวง","info":["ประเภท: จุดตัดที่เป็นสะพานข้าม (Overpass)","เขต: ลาดกระบัง"],"district":"ลาดกระบัง"},"geometry":{"type":"Point","coordinates":[100.81214,13.72644]}},{"type":"Feature","properties":{"title":"จุดตัดทางรถไฟ ถ.ขุมทอง-ลำต้อยติ่ง","info":["ประเภท: จุดตัดเสมอระดับ","เขต: ลาดกระบัง"],"district":"ลาดกระบัง"},"geometry":{"type":"Point","coordinates":[100.85559,13.72105]}},{"type":"Feature","properties":{"title":"จุดตัดทางรถไฟ ถ.นิคมมักกะสัน","info":["ประเภท: จุดตัดเสมอระดับ","เขต: ราชเทวี"],"district":"ราชเทวี"},"geometry":{"type":"Point","coordinates":[100.54755,13.75336]}},{"type":"Feature","properties":{"title":"จุดตัดทางรถไฟ ถ.เพชรบุรีตัดใหม่","info":["ประเภท: จุดตัดเสมอระดับ","เขต: ราชเทวี"],"district":"ราชเทวี"},"geometry":{"type":"Point","coordinates":[100.54992,13.74975]}},{"type":"Feature","properties":{"title":"จุดตัดทางรถไฟ ถ.สุขุมวิท-เพลินจิต","info":["ประเภท: จุดตัดเสมอระดับ","เขต: ปทุมวัน"],"district":"ปทุมวัน"},"geometry":{"type":"Point","coordinates":[100.5507,13.7427]}},{"type":"Feature","properties":{"title":"จุดตัดทางรถไฟ ถ.ดวงพิทักษ์","info":["ประเภท: จุดตัดเสมอระดับ","เขต: คลองเตย"],"district":"ปทุมวัน"},"geometry":{"type":"Point","coordinates":[100.55179,13.73276]}},{"type":"Feature","properties":{"title":"จุดตัดทางรถไฟ ถ.พระราม4","info":["ประเภท: จุดตัดเสมอระดับ","เขต: ปทุมวัน"],"district":"ปทุมวัน"},"geometry":{"type":"Point","coordinates":[100.5529,13.72277]}},{"type":"Feature","properties":{"title":"จุดตัดทางรถไฟ ถ.เชื้อเพลิง","info":["ประเภท: ทางลักผ่าน","เขต: ช่องนนทรี"],"district":"สาทร"},"geometry":{"type":"Point","coordinates":[100.55307,13.72127]}},{"type":"Feature","properties":{"title":"จุดตัดทางรถไฟ ถ.ศรีอักษร","info":["ประเภท: จุดตัดเสมอระดับ","เขต: สาทร"],"district":"สาทร"},"geometry":{"type":"Point","coordinates":[100.55323,13.71973]}},{"type":"Feature","properties":{"title":"จุดตัดทางรถไฟ ถ.พระราม 3","info":["ประเภท: จุดตัดเสมอระดับ","เขต: ช่องนนทรี"],"district":"สาทร"},"geometry":{"type":"Point","coordinates":[100.55337,13.71861]}},{"type":"Feature","properties":{"title":"จุดตัดทางรถไฟ ถ.พระราม3","info":["ประเภท: จุดตัดเสมอระดับ","เขต: คลองเตย"],"district":"ยานนาวา"},"geometry":{"type":"Point","coordinates":[100.55392,13.71326]}},{"type":"Feature","properties":{"title":"จุดตัดทางรถไฟ ถ.เข้าหมู่บ้าน","info":["ประเภท: ทางลักผ่าน","เขต: คลองเตย"],"district":"คลองเตย"},"geometry":{"type":"Point","coordinates":[100.55352,13.72005]}},{"type":"Feature","properties":{"title":"จุดตัดทางรถไฟ ถ.เข้าหมู่บ้าน","info":["ประเภท: ทางลักผ่าน","เขต: คลองเตย"],"district":"คลองเตย"},"geometry":{"type":"Point","coordinates":[100.5546,13.71827]}},{"type":"Feature","properties":{"title":"จุดตัดทางรถไฟ ถ.เข้าหมู่บ้าน","info":["ประเภท: ทางลักผ่าน","เขต: คลองเตย"],"district":"คลองเตย"},"geometry":{"type":"Point","coordinates":[100.55507,13.71777]}},{"type":"Feature","properties":{"title":"จุดตัดทางรถไฟ ถ.ดาวคะนอง-บางวัว","info":["ประเภท: จุดตัดเสมอระดับ","เขต: คลองเตย"],"district":"คลองเตย"},"geometry":{"type":"Point","coordinates":[100.55574,13.71715]}},{"type":"Feature","properties":{"title":"จุดตัดทางรถไฟ ถ.พระราม3","info":["ประเภท: จุดตัดเสมอระดับ","เขต: คลองเตย"],"district":"คลองเตย"},"geometry":{"type":"Point","coordinates":[100.55677,13.71635]}},{"type":"Feature","properties":{"title":"จุดตัดทางรถไฟ ถ.ณ ระนอง","info":["ประเภท: จุดตัดเสมอระดับ","เขต: คลองเตย"],"district":"คลองเตย"},"geometry":{"type":"Point","coordinates":[100.55856,13.71498]}},{"type":"Feature","properties":{"title":"จุดตัดทางรถไฟ ถ.ย่านท่าเรือ (ท่าเรือลานซุง)","info":["ประเภท: จุดตัดเสมอระดับ","เขต: คลองเตย"],"district":"คลองเตย"},"geometry":{"type":"Point","coordinates":[100.56076,13.71328]}},{"type":"Feature","properties":{"title":"จุดตัดทางรถไฟ ถ.พัสดุ กทพ. (ใต้ทางด่วน)","info":["ประเภท: จุดตัดเสมอระดับ","เขต: คลองเตย"],"district":"คลองเตย"},"geometry":{"type":"Point","coordinates":[100.56324,13.71159]}},{"type":"Feature","properties":{"title":"จุดตัดทางรถไฟ ถ.เกษมราษฎร์","info":["ประเภท: จุดตัดเสมอระดับ","เขต: คลองเตย"],"district":"คลองเตย"},"geometry":{"type":"Point","coordinates":[100.56371,13.71145]}},{"type":"Feature","properties":{"title":"จุดตัดทางรถไฟ ถ.ซอย ดำรงค์พิพัฒน์","info":["ประเภท: จุดตัดเสมอระดับ","เขต: คลองเตย"],"district":"คลองเตย"},"geometry":{"type":"Point","coordinates":[100.56993,13.71244]}},{"type":"Feature","properties":{"title":"จุดตัดทางรถไฟ ถ.บางนา - ดินแดง","info":["ประเภท: ทางลักผ่าน","เขต: คลองเตย"],"district":"คลองเตย"},"geometry":{"type":"Point","coordinates":[100.57228,13.71282]}},{"type":"Feature","properties":{"title":"จุดตัดทางรถไฟ ถ.ใต้ทางด่วน","info":["ประเภท: จุดตัดเสมอระดับ","เขต: คลองเตย"],"district":"คลองเตย"},"geometry":{"type":"Point","coordinates":[100.57295,13.71287]}},{"type":"Feature","properties":{"title":"จุดตัดทางรถไฟ ถ.ใต้ทางด่วน","info":["ประเภท: ทางลักผ่าน","เขต: คลองเตย"],"district":"คลองเตย"},"geometry":{"type":"Point","coordinates":[100.57371,13.71287]}},{"type":"Feature","properties":{"title":"จุดตัดทางรถไฟ ถ.การท่าเรือ (ล๊อก๔)","info":["ประเภท: จุดตัดเสมอระดับ","เขต: คลองเตย"],"district":"คลองเตย"},"geometry":{"type":"Point","coordinates":[100.5766,13.71178]}},{"type":"Feature","properties":{"title":"จุดตัดทางรถไฟ ถ.การท่าเรือ (ล๊อก๙)","info":["ประเภท: จุดตัดเสมอระดับ","เขต: คลองเตย"],"district":"คลองเตย"},"geometry":{"type":"Point","coordinates":[100.57921,13.71094]}},{"type":"Feature","properties":{"title":"จุดตัดทางรถไฟ ถ.อาจณรงค์","info":["ประเภท: จุดตัดเสมอระดับ","เขต: คลองเตย"],"district":"คลองเตย"},"geometry":{"type":"Point","coordinates":[100.58099,13.7102]}},{"type":"Feature","properties":{"title":"จุดตัดทางรถไฟ ถ.อาจณรงค์ (ด่านตรวจสินค้า)","info":["ประเภท: จุดตัดเสมอระดับ","เขต: คลองเตย"],"district":"คลองเตย"},"geometry":{"type":"Point","coordinates":[100.58164,13.7097]}},{"type":"Feature","properties":{"title":"จุดตัดทางรถไฟ ถ.ย่าน ปตท.","info":["ประเภท: จุดตัดเสมอระดับ","เขต: คลองเตย"],"district":"คลองเตย"},"geometry":{"type":"Point","coordinates":[100.58392,13.70088]}},{"type":"Feature","properties":{"title":"จุดตัดทางรถไฟ ถ.คลังพัสดุ ปตท","info":["ประเภท: จุดตัดเสมอระดับ","เขต: คลองเตย"],"district":"คลองเตย"},"geometry":{"type":"Point","coordinates":[100.58748,13.69875]}},{"type":"Feature","properties":{"title":"จุดตัดทางรถไฟ ถ.อาจณรงค์","info":["ประเภท: จุดตัดเสมอระดับ","เขต: คลองเตย"],"district":"พระโขนง"},"geometry":{"type":"Point","coordinates":[100.58965,13.69719]}},{"type":"Feature","properties":{"title":"จุดตัดทางรถไฟ ถ.สุขุมวิท62","info":["ประเภท: จุดตัดเสมอระดับ","เขต: พระโขนง"],"district":"พระโขนง"},"geometry":{"type":"Point","coordinates":[100.59033,13.69368]}},{"type":"Feature","properties":{"title":"จุดตัดทางรถไฟ ถ.หน้าโรงกลั่นที่1","info":["ประเภท: จุดตัดเสมอระดับ","เขต: พระโขนง"],"district":"พระโขนง"},"geometry":{"type":"Point","coordinates":[100.59061,13.69086]}},{"type":"Feature","properties":{"title":"จุดตัดทางรถไฟ ถ.หน้าโรงกลั่นที่2","info":["ประเภท: จุดตัดเสมอระดับ","เขต: พระโขนง"],"district":"พระโขนง"},"geometry":{"type":"Point","coordinates":[100.59105,13.6889]}},{"type":"Feature","properties":{"title":"จุดตัดทางรถไฟ ถ.โรงกลั่นบางจาก","info":["ประเภท: จุดตัดเสมอระดับ","เขต: พระโขนง"],"district":"พระโขนง"},"geometry":{"type":"Point","coordinates":[100.59128,13.68699]}},{"type":"Feature","properties":{"title":"จุดตัดทางรถไฟ ถ.โรงกลั่นบางจาก (พลังงานทหาร)","info":["ประเภท: จุดตัดเสมอระดับ","เขต: พระโขนง"],"district":"พระโขนง"},"geometry":{"type":"Point","coordinates":[100.59148,13.68546]}},{"type":"Feature","properties":{"title":"จุดตัดทางรถไฟ ถ.โรงกลั่นบางจาก (พลังงานทหาร)","info":["ประเภท: จุดตัดเสมอระดับ","เขต: พระโขนง"],"district":"พระโขนง"},"geometry":{"type":"Point","coordinates":[100.59283,13.68392]}},{"type":"Feature","properties":{"title":"จุดตัดทางรถไฟ ถ.ประชาชื่น","info":["ประเภท: จุดตัดเสมอระดับ","เขต: บางซื่อ"],"district":"บางซื่อ"},"geometry":{"type":"Point","coordinates":[100.53739,13.82166]}},{"type":"Feature","properties":{"title":"จุดตัดทางรถไฟ ถ.กรุงเทพฯ-นนทบุรี","info":["ประเภท: จุดตัดเสมอระดับ","เขต: บางซื่อ"],"district":"บางซื่อ"},"geometry":{"type":"Point","coordinates":[100.53282,13.82208]}},{"type":"Feature","properties":{"title":"จุดตัดทางรถไฟ ถ.เข้าซอยวงศ์สว่าง","info":["ประเภท: จุดตัดที่มีทางลอดใต้ทางรถไฟ (Underpass)","เขต: บางซื่อ"],"district":"บางซื่อ"},"geometry":{"type":"Point","coordinates":[100.52409,13.82108]}},{"type":"Feature","properties":{"title":"จุดตัดทางรถไฟ พิบูลย์สงคราม","info":["ประเภท: จุดตัดที่มีทางลอดใต้ทางรถไฟ (Underpass)","เขต: บางซื่อ"],"district":"บางซื่อ"},"geometry":{"type":"Point","coordinates":[100.51666,13.81455]}},{"type":"Feature","properties":{"title":"จุดตัดทางรถไฟ ถ.ศาลาธรรมสพน์-วัดใหม่ผดุงเขต","info":["ประเภท: ทางลักผ่าน","เขต: ทวีวัฒนา"],"district":"ทวีวัฒนา"},"geometry":{"type":"Point","coordinates":[100.37458,13.80074]}},{"type":"Feature","properties":{"title":"จุดตัดทางรถไฟ ถ.จรัญสนิทวงศ์","info":["ประเภท: จุดตัดที่มีทางลอดใต้ทางรถไฟ (Underpass)","เขต: บางพลัด"],"district":"บางพลัด"},"geometry":{"type":"Point","coordinates":[100.511,13.8094]}},{"type":"Feature","properties":{"title":"จุดตัดทางรถไฟ ถ.จรัญสนิทวงศ์","info":["ประเภท: จุดตัดที่มีทางลอดใต้ทางรถไฟ (Underpass)","เขต: บางพลัด"],"district":"บางพลัด"},"geometry":{"type":"Point","coordinates":[100.51028,13.80875]}},{"type":"Feature","properties":{"title":"จุดตัดทางรถไฟ ถ. ภานุรังษี","info":["ประเภท: จุดตัดเสมอระดับ","เขต: บางพลัด"],"district":"บางพลัด"},"geometry":{"type":"Point","coordinates":[100.49611,13.7988]}},{"type":"Feature","properties":{"title":"จุดตัดทางรถไฟ ถ.รุ่งประชา","info":["ประเภท: จุดตัดเสมอระดับ","เขต: บางพลัด"],"district":"บางพลัด"},"geometry":{"type":"Point","coordinates":[100.47347,13.79068]}},{"type":"Feature","properties":{"title":"จุดตัดทางรถไฟ ถ.ทางหลวงแผ่นดิน","info":["ประเภท: จุดตัดที่มีทางลอดใต้ทางรถไฟ (Underpass)","เขต: บางพลัด"],"district":"บางพลัด"},"geometry":{"type":"Point","coordinates":[100.46696,13.78909]}},{"type":"Feature","properties":{"title":"จุดตัดทางรถไฟ ถ.ทางหลวงชนบท นบ.","info":["ประเภท: จุดตัดที่มีทางลอดใต้ทางรถไฟ (Underpass)","เขต: บางพลัด"],"district":"บางพลัด"},"geometry":{"type":"Point","coordinates":[100.46687,13.78907]}},{"type":"Feature","properties":{"title":"จุดตัดทางรถไฟ ถ.ทางขึ้น-ลง ทางด่วนศรีรัตน์","info":["ประเภท: จุดตัดที่เป็นสะพานข้าม (Overpass)","เขต: ตลิ่งชัน"],"district":"ตลิ่งชัน"},"geometry":{"type":"Point","coordinates":[100.45516,13.78634]}},{"type":"Feature","properties":{"title":"จุดตัดทางรถไฟ ถ.ทางหลวงชนบท นบ.","info":["ประเภท: จุดตัดที่เป็นสะพานข้าม (Overpass)","เขต: ตลิ่งชัน"],"district":"ตลิ่งชัน"},"geometry":{"type":"Point","coordinates":[100.44892,13.78507]}},{"type":"Feature","properties":{"title":"จุดตัดทางรถไฟ ถ.อรุณอัมรินทร์","info":["ประเภท: จุดตัดเสมอระดับ","เขต: บางกอกน้อย"],"district":"บางกอกน้อย"},"geometry":{"type":"Point","coordinates":[100.48333,13.76051]}},{"type":"Feature","properties":{"title":"จุดตัดทางรถไฟ ถ.อรุณอัมรินทร์","info":["ประเภท: จุดตัดที่เป็นสะพานข้าม (Overpass)","เขต: บางกอกน้อย"],"district":"บางกอกน้อย"},"geometry":{"type":"Point","coordinates":[100.48262,13.76057]}},{"type":"Feature","properties":{"title":"จุดตัดทางรถไฟ ถ.จรัญสนิทวงศ์","info":["ประเภท: จุดตัดเสมอระดับ","เขต: บางกอกน้อย"],"district":"บางกอกน้อย"},"geometry":{"type":"Point","coordinates":[100.47294,13.76287]}},{"type":"Feature","properties":{"title":"จุดตัดทางรถไฟ ถ.ฉิมพลี","info":["ประเภท: จุดตัดเสมอระดับ","เขต: ตลิ่งชัน"],"district":"ตลิ่งชัน"},"geometry":{"type":"Point","coordinates":[100.45216,13.7795]}},{"type":"Feature","properties":{"title":"จุดตัดทางรถไฟ ถ.บรมราชชนนี","info":["ประเภท: จุดตัดที่เป็นสะพานข้าม (Overpass)","เขต: ตลิ่งชัน"],"district":"ตลิ่งชัน"},"geometry":{"type":"Point","coordinates":[100.44899,13.78203]}},{"type":"Feature","properties":{"title":"จุดตัดทางรถไฟ ถ.ลงทางพิเศษศรีรัช","info":["ประเภท: จุดตัดที่เป็นสะพานข้าม (Overpass)","เขต: ตลิ่งชัน"],"district":"ตลิ่งชัน"},"geometry":{"type":"Point","coordinates":[100.44683,13.78377]}},{"type":"Feature","properties":{"title":"จุดตัดทางรถไฟ ถ.เลียบทางรถไฟ","info":["ประเภท: จุดตัดเสมอระดับ","เขต: ตลิ่งชัน"],"district":"ตลิ่งชัน"},"geometry":{"type":"Point","coordinates":[100.44484,13.78537]}},{"type":"Feature","properties":{"title":"จุดตัดทางรถไฟ ถ.ทางหลวงชนบท นบ.","info":["ประเภท: จุดตัดที่เป็นสะพานข้าม (Overpass)","เขต: ตลิ่งชัน"],"district":"ตลิ่งชัน"},"geometry":{"type":"Point","coordinates":[100.44435,13.78576]}},{"type":"Feature","properties":{"title":"จุดตัดทางรถไฟ ถ.ทางหลวงชนบท นบ.","info":["ประเภท: จุดตัดที่เป็นสะพานข้าม (Overpass)","เขต: ตลิ่งชัน"],"district":"ตลิ่งชัน"},"geometry":{"type":"Point","coordinates":[100.44452,13.78562]}},{"type":"Feature","properties":{"title":"จุดตัดทางรถไฟ ถ.ที่กลับรถทางด่วนศรีรัตน์","info":["ประเภท: จุดตัดที่เป็นสะพานข้าม (Overpass)","เขต: ตลิ่งชัน"],"district":"ตลิ่งชัน"},"geometry":{"type":"Point","coordinates":[100.43141,13.79617]}},{"type":"Feature","properties":{"title":"จุดตัดทางรถไฟ ถ.สวนเสก","info":["ประเภท: จุดตัดเสมอระดับ","เขต: ตลิ่งชัน"],"district":"ตลิ่งชัน"},"geometry":{"type":"Point","coordinates":[100.43082,13.79664]}},{"type":"Feature","properties":{"title":"จุดตัดทางรถไฟ ถ.ใต้ทางด่วนกาญจนาภิเษก","info":["ประเภท: จุดตัดที่เป็นสะพานข้าม (Overpass)","เขต: ตลิ่งชัน"],"district":"ตลิ่งชัน"},"geometry":{"type":"Point","coordinates":[100.4112,13.7995]}},{"type":"Feature","properties":{"title":"จุดตัดทางรถไฟ ถ.ทางคู่ขนานถนนกาญจนาภิเษก","info":["ประเภท: จุดตัดที่เป็นสะพานข้าม (Overpass)","เขต: ทวีวัฒนา"],"district":"ทวีวัฒนา"},"geometry":{"type":"Point","coordinates":[100.41086,13.79952]}},{"type":"Feature","properties":{"title":"จุดตัดทางรถไฟ ทางคู่ขนานถนนกาญจนาภิเษก","info":["ประเภท: จุดตัดที่เป็นสะพานข้าม (Overpass)","เขต: ตลิ่งชัน"],"district":"ทวีวัฒนา"},"geometry":{"type":"Point","coordinates":[100.41037,13.79953]}},{"type":"Feature","properties":{"title":"จุดตัดทางรถไฟ ถ.สะพานกลับรถ","info":["ประเภท: จุดตัดที่เป็นสะพานข้าม (Overpass)","เขต: ทวีวัฒนา"],"district":"ทวีวัฒนา"},"geometry":{"type":"Point","coordinates":[100.41007,13.79953]}},{"type":"Feature","properties":{"title":"จุดตัดทางรถไฟ ถ.ทางขึ้น-ลง ทางด่วนศรีรัตน์","info":["ประเภท: จุดตัดที่เป็นสะพานข้าม (Overpass)","เขต: ทวีวัฒนา"],"district":"ทวีวัฒนา"},"geometry":{"type":"Point","coordinates":[100.40761,13.79959]}},{"type":"Feature","properties":{"title":"จุดตัดทางรถไฟ ถ.ทางเข้าหมู่บ้านสลัม 4 ภาค","info":["ประเภท: จุดตัดเสมอระดับ","เขต: ทวีวัฒนา"],"district":"ทวีวัฒนา"},"geometry":{"type":"Point","coordinates":[100.39866,13.79989]}},{"type":"Feature","properties":{"title":"จุดตัดทางรถไฟ ซ.ศาลาธรรมสพน์ 48","info":["ประเภท: จุดตัดเสมอระดับ","เขต: ทวีวัฒนา"],"district":"ทวีวัฒนา"},"geometry":{"type":"Point","coordinates":[100.35458,13.80145]}},{"type":"Feature","properties":{"title":"จุดตัดทางรถไฟ ซ.วัดปุรณาวาส","info":["ประเภท: จุดตัดเสมอระดับ","เขต: ทวีวัฒนา"],"district":"ทวีวัฒนา"},"geometry":{"type":"Point","coordinates":[100.33535,13.8021]}},{"type":"Feature","properties":{"title":"จุดตัดทางรถไฟ ถ.เทอดไท 19","info":["ประเภท: จุดตัดเสมอระดับ","เขต: ธนบุรี"],"district":"ธนบุรี"},"geometry":{"type":"Point","coordinates":[100.48334,13.72229]}},{"type":"Feature","properties":{"title":"จุดตัดทางรถไฟ ถ.เทอดไท 21","info":["ประเภท: จุดตัดเสมอระดับ","เขต: ธนบุรี"],"district":"ธนบุรี"},"geometry":{"type":"Point","coordinates":[100.48051,13.72148]}},{"type":"Feature","properties":{"title":"จุดตัดทางรถไฟ ถ.เทอดไท 23","info":["ประเภท: จุดตัดเสมอระดับ","เขต: ธนบุรี"],"district":"ธนบุรี"},"geometry":{"type":"Point","coordinates":[100.47868,13.72096]}},{"type":"Feature","properties":{"title":"จุดตัดทางรถไฟ ถ.รัชดาภิเษก 1","info":["ประเภท: จุดตัดเสมอระดับ","เขต: ธนบุรี"],"district":"ธนบุรี"},"geometry":{"type":"Point","coordinates":[100.47742,13.72056]}},{"type":"Feature","properties":{"title":"จุดตัดทางรถไฟ ถ.รัชดาภิเษก","info":["ประเภท: จุดตัดที่เป็นสะพานข้าม (Overpass)","เขต: ธนบุรี"],"district":"ธนบุรี"},"geometry":{"type":"Point","coordinates":[100.47728,13.72049]}},{"type":"Feature","properties":{"title":"จุดตัดทางรถไฟ ถ.รัชดาภิเษก 2","info":["ประเภท: จุดตัดเสมอระดับ","เขต: ธนบุรี"],"district":"ธนบุรี"},"geometry":{"type":"Point","coordinates":[100.47705,13.72036]}},{"type":"Feature","properties":{"title":"จุดตัดทางรถไฟ ถ.เทอดไท 33","info":["ประเภท: จุดตัดเสมอระดับ","เขต: ธนบุรี"],"district":"ธนบุรี"},"geometry":{"type":"Point","coordinates":[100.47557,13.71872]}},{"type":"Feature","properties":{"title":"จุดตัดทางรถไฟ ถ.วุฒากาศ","info":["ประเภท: ทางลักผ่าน","เขต: ธนบุรี"],"district":"ธนบุรี"},"geometry":{"type":"Point","coordinates":[100.47254,13.7123]}},{"type":"Feature","properties":{"title":"จุดตัดทางรถไฟ ถ.วุฒากาศ 43","info":["ประเภท: จุดตัดเสมอระดับ","เขต: จอมทอง"],"district":"จอมทอง"},"geometry":{"type":"Point","coordinates":[100.46991,13.70673]}},{"type":"Feature","properties":{"title":"จุดตัดทางรถไฟ ถ.เข้าโรงเรียนประจักษ์","info":["ประเภท: จุดตัดเสมอระดับ","เขต: จอมทอง"],"district":"จอมทอง"},"geometry":{"type":"Point","coordinates":[100.46957,13.706]}},{"type":"Feature","properties":{"title":"จุดตัดทางรถไฟ ถ.วุฒากาศ 47","info":["ประเภท: จุดตัดเสมอระดับ","เขต: จอมทอง"],"district":"จอมทอง"},"geometry":{"type":"Point","coordinates":[100.46919,13.70521]}},{"type":"Feature","properties":{"title":"จุดตัดทางรถไฟ ถ.วุฒากาศ","info":["ประเภท: จุดตัดเสมอระดับ","เขต: จอมทอง"],"district":"จอมทอง"},"geometry":{"type":"Point","coordinates":[100.46731,13.70282]}},{"type":"Feature","properties":{"title":"จุดตัดทางรถไฟ ถ.เอกชัย","info":["ประเภท: จุดตัดเสมอระดับ","เขต: จอมทอง"],"district":"จอมทอง"},"geometry":{"type":"Point","coordinates":[100.46227,13.69961]}},{"type":"Feature","properties":{"title":"จุดตัดทางรถไฟ ถ.เอกชัย 9","info":["ประเภท: จุดตัดเสมอระดับ","เขต: จอมทอง"],"district":"จอมทอง"},"geometry":{"type":"Point","coordinates":[100.45923,13.69442]}},{"type":"Feature","properties":{"title":"จุดตัดทางรถไฟ ถ.เอกชัย23","info":["ประเภท: จุดตัดเสมอระดับ","เขต: จอมทอง"],"district":"จอมทอง"},"geometry":{"type":"Point","coordinates":[100.45668,13.69054]}},{"type":"Feature","properties":{"title":"จุดตัดทางรถไฟ ถ.เอกชัย 43","info":["ประเภท: จุดตัดเสมอระดับ","เขต: จอมทอง"],"district":"จอมทอง"},"geometry":{"type":"Point","coordinates":[100.44686,13.68257]}},{"type":"Feature","properties":{"title":"จุดตัดทางรถไฟ ถ.เอกชัย 69","info":["ประเภท: จุดตัดเสมอระดับ","เขต: บางบอน"],"district":"บางขุนเทียน"},"geometry":{"type":"Point","coordinates":[100.43718,13.67393]}},{"type":"Feature","properties":{"title":"จุดตัดทางรถไฟ เอกชัย 83/1","info":["ประเภท: จุดตัดเสมอระดับ","เขต: บางขุนเทียน"],"district":"บางขุนเทียน"},"geometry":{"type":"Point","coordinates":[100.43162,13.66897]}},{"type":"Feature","properties":{"title":"จุดตัดทางรถไฟ ถ.บางขุนเทียน-ชายทะเล","info":["ประเภท: จุดตัดเสมอระดับ","เขต: บางบอน"],"district":"บางขุนเทียน"},"geometry":{"type":"Point","coordinates":[100.42846,13.66615]}},{"type":"Feature","properties":{"title":"จุดตัดทางรถไฟ ทางคู่ขนาน","info":["ประเภท: จุดตัดที่เป็นสะพานข้าม (Overpass)","เขต: บางขุนเทียน"],"district":"บางขุนเทียน"},"geometry":{"type":"Point","coordinates":[100.40775,13.64769]}},{"type":"Feature","properties":{"title":"จุดตัดทางรถไฟ กาญจนาภิเษก","info":["ประเภท: จุดตัดที่เป็นสะพานข้าม (Overpass)","เขต: บางขุนเทียน"],"district":"บางขุนเทียน"},"geometry":{"type":"Point","coordinates":[100.4074,13.64738]}},{"type":"Feature","properties":{"title":"จุดตัดทางรถไฟ เข้าหมู่บ้านมอทโก้","info":["ประเภท: ทางลักผ่าน","เขต: บางบอน"],"district":"บางขุนเทียน"},"geometry":{"type":"Point","coordinates":[100.4049,13.64513]}},{"type":"Feature","properties":{"title":"จุดตัดทางรถไฟ พระราม 2","info":["ประเภท: จุดตัดเสมอระดับ","เขต: บางขุนเทียน"],"district":"บางขุนเทียน"},"geometry":{"type":"Point","coordinates":[100.39792,13.63888]}}]}