{"type":"FeatureCollection","features":[{"type":"Feature","properties":{"title":"ถนนเอกชัย ตัดถนนกำนันแม้น (แยกวัดสิงห์)","info":["เขต: จอมทอง","สถานะ: ดำเนินการแล้วเสร็จ"],"district":"จอมทอง","done":true},"geometry":{"type":"Point","coordinates":[100.44546,13.685]}},{"type":"Feature","properties":{"title":"ถนนประชาอุทิศ 33 และประชาอุทิศ 37","info":["เขต: ราษฎร์บูรณะ","สถานะ: อยู่ระหว่างดำเนินการ"],"district":"ราษฎร์บูรณะ","done":false},"geometry":{"type":"Point","coordinates":[100.49942,13.65695]}},{"type":"Feature","properties":{"title":"ถนนบรมราชชนนี บริเวณหน้าร้านบุญถาวร และบรมราชชนนี 70/1","info":["เขต: ทวีวัฒนา","สถานะ: อยู่ระหว่างดำเนินการ"],"district":"ทวีวัฒนา","done":false},"geometry":{"type":"Point","coordinates":[100.37178,13.78695]}},{"type":"Feature","properties":{"title":"แยกซอยบางกระดี่ 35 แยก 1","info":["เขต: บางขุนเทียน","สถานะ: อยู่ระหว่างดำเนินการ"],"district":"บางขุนเทียน","done":false},"geometry":{"type":"Point","coordinates":[100.40569,13.61388]}},{"type":"Feature","properties":{"title":"สี่แยกรัชโยธิน (ถนนรัชดาภิเษก - ถนนพหลโยธิน)","info":["เขต: จตุจักร","สถานะ: รอดำเนินการ"],"district":"จตุจักร","done":false},"geometry":{"type":"Point","coordinates":[100.5681,13.82706]}},{"type":"Feature","properties":{"title":"ถนนเฉลิมพระเกียรติ ร.9 (หน้าสวนหลวง ร.9)","info":["เขต: ประเวศ","สถานะ: อยู่ระหว่างดำเนินการ"],"district":"ประเวศ","done":false},"geometry":{"type":"Point","coordinates":[100.65798,13.68815]}},{"type":"Feature","properties":{"title":"แยกห้วยขวาง (ถนนรัชดาภิเษก - ถนนประชาราษฎร์บำเพ็ญ)","info":["เขต: ดินแดง","สถานะ: ดำเนินการแล้วเสร็จ"],"district":"ดินแดง","done":true},"geometry":{"type":"Point","coordinates":[100.5735,13.77843]}},{"type":"Feature","properties":{"title":"แยกจอมทอง ถนนจอมทองตัดถนนวุฒากาศ","info":["เขต: จอมทอง","สถานะ: อยู่ระหว่างดำเนินการ"],"district":"จอมทอง","done":false},"geometry":{"type":"Point","coordinates":[100.46727,13.69908]}},{"type":"Feature","properties":{"title":"พระราม 3 ซอย 64 - ใกล้โรงเรียนนนทรีวิทยา","info":["เขต: ยานนาวา","สถานะ: อยู่ระหว่างดำเนินการ"],"district":"ยานนาวา","done":false},"geometry":{"type":"Point","coordinates":[100.5457,13.70089]}},{"type":"Feature","properties":{"title":"แยกถนนนวมินทร์-รามอินทรา ตัดถนนนวมินทร์","info":["เขต: บึงกุ่ม","สถานะ: ดำเนินการแล้วเสร็จ"],"district":"บึงกุ่ม","done":true},"geometry":{"type":"Point","coordinates":[100.65422,13.81922]}},{"type":"Feature","properties":{"title":"ถนนประชาอุทิศ บริเวณประชาอุทิศ ซอย 79","info":["เขต: ทุ่งครุ","สถานะ: อยู่ระหว่างดำเนินการ"],"district":"ทุ่งครุ","done":false},"geometry":{"type":"Point","coordinates":[100.5028,13.63416]}},{"type":"Feature","properties":{"title":"ซอยท่านหญิงพวงรัตน์ประไพ (สุขุมวิท 26)","info":["เขต: คลองเตย","สถานะ: อยู่ระหว่างดำเนินการ"],"district":"คลองเตย","done":false},"geometry":{"type":"Point","coordinates":[100.57132,13.72497]}},{"type":"Feature","properties":{"title":"ถนนกำนันแม้น (กำนันแม้น ซอย 2 - กำนันแม้น ซอย 24)","info":["เขต: จอมทอง","สถานะ: อยู่ระหว่างดำเนินการ"],"district":"จอมทอง","done":false},"geometry":{"type":"Point","coordinates":[100.44381,13.68736]}},{"type":"Feature","properties":{"title":"ถนนบางบอน 3 (บางบอน 3 ซอย 3 - บางบอน 3 ซอย 5)","info":["เขต: บางบอน","สถานะ: อยู่ระหว่างดำเนินการ"],"district":"บางบอน","done":false},"geometry":{"type":"Point","coordinates":[100.38496,13.66775]}},{"type":"Feature","properties":{"title":"ถนนสาธุประดิษฐ์ 57","info":["เขต: ยานนาวา","สถานะ: อยู่ระหว่างดำเนินการ"],"district":"ยานนาวา","done":false},"geometry":{"type":"Point","coordinates":[100.5304,13.68053]}},{"type":"Feature","properties":{"title":"แยกถนนเพชรเกษม ตัดถนนเพชรเกษม 69","info":["เขต: หนองแขม","สถานะ: ดำเนินการแล้วเสร็จ"],"district":"บางแค","done":true},"geometry":{"type":"Point","coordinates":[100.37383,13.70787]}},{"type":"Feature","properties":{"title":"ถนนคู้บอน ปากซอยคู้บอน 28","info":["เขต: คันนายาว","สถานะ: อยู่ระหว่างดำเนินการ"],"district":"คันนายาว","done":false},"geometry":{"type":"Point","coordinates":[100.67026,13.8523]}},{"type":"Feature","properties":{"title":"แยกพระโขนง (ถนนสุขุมวิท ตัดถนนพระรามที่ 4)","info":["เขต: คลองเตย","สถานะ: อยู่ระหว่างดำเนินการ"],"district":"คลองเตย","done":false},"geometry":{"type":"Point","coordinates":[100.59261,13.71427]}},{"type":"Feature","properties":{"title":"ถนนสรงประภา ตัดสรงประภาซอย 5","info":["เขต: ดอนเมือง","สถานะ: ดำเนินการแล้วเสร็จ"],"district":"ดอนเมือง","done":true},"geometry":{"type":"Point","coordinates":[100.59231,13.92543]}},{"type":"Feature","properties":{"title":"ถนนเพชรเกษมตัดถนนมาเจริญ (ซอยเพชรเกษม 81)","info":["เขต: หนองแขม","สถานะ: ดำเนินการแล้วเสร็จ"],"district":"หนองแขม","done":true},"geometry":{"type":"Point","coordinates":[100.34326,13.70543]}},{"type":"Feature","properties":{"title":"แยกบางพลัด และอุโมงค์บางพลัด","info":["เขต: บางพลัด","สถานะ: อยู่ระหว่างดำเนินการ"],"district":"บางพลัด","done":false},"geometry":{"type":"Point","coordinates":[100.49436,13.7845]}},{"type":"Feature","properties":{"title":"ถนนประชาอุทิศ ตัดถนนครุใน","info":["เขต: ทุ่งครุ","สถานะ: ดำเนินการแล้วเสร็จ"],"district":"ทุ่งครุ","done":true},"geometry":{"type":"Point","coordinates":[100.51033,13.62246]}},{"type":"Feature","properties":{"title":"ถนนสมเด็จพระเจ้าตากสิน (ตั้งแต่สมเด็จพระเจ้าตากสิน 40 - 44)","info":["เขต: ธนบุรี","สถานะ: อยู่ระหว่างดำเนินการ"],"district":"ธนบุรี","done":false},"geometry":{"type":"Point","coordinates":[100.48404,13.70029]}},{"type":"Feature","properties":{"title":"ถนนเอกชัย บริเวณเอกชัย 10 ถึงเอกชัย 16","info":["เขต: จอมทอง","สถานะ: อยู่ระหว่างดำเนินการ"],"district":"จอมทอง","done":false},"geometry":{"type":"Point","coordinates":[100.46002,13.69863]}},{"type":"Feature","properties":{"title":"ถนนสมเด็จพระเจ้าตากสิน (ตั้งแต่สมเด็จพระเจ้าตากสิน 11 - 21)","info":["เขต: ธนบุรี","สถานะ: อยู่ระหว่างดำเนินการ"],"district":"ธนบุรี","done":false},"geometry":{"type":"Point","coordinates":[100.48919,13.71472]}},{"type":"Feature","properties":{"title":"ถนนพรานนก ตัดถนนอิสรภาพ","info":["เขต: บางกอกน้อย","สถานะ: อยู่ระหว่างดำเนินการ"],"district":"บางกอกน้อย","done":false},"geometry":{"type":"Point","coordinates":[100.47798,13.75556]}},{"type":"Feature","properties":{"title":"ซอยมีสุวรรณ 3 แยก 10 (ซอยจุฬาพรประสิทธิ์/ถนนปรีดีพนมยงค์ 36)","info":["เขต: วัฒนา","สถานะ: อยู่ระหว่างดำเนินการ"],"district":"วัฒนา","done":false},"geometry":{"type":"Point","coordinates":[100.6003,13.71537]}},{"type":"Feature","properties":{"title":"ประชาอุทิศ (ตั้งแต่ประชาอุทิศ 39 - ประชาอุทิศ 47)","info":["เขต: ทุ่งครุ","สถานะ: อยู่ระหว่างดำเนินการ"],"district":"ทุ่งครุ","done":false},"geometry":{"type":"Point","coordinates":[100.49684,13.6514]}},{"type":"Feature","properties":{"title":"ถนนเอกชัย บริเวณเอกชัย 23 ถึงเอกชัย 35","info":["เขต: จอมทอง","สถานะ: อยู่ระหว่างดำเนินการ"],"district":"จอมทอง","done":false},"geometry":{"type":"Point","coordinates":[100.45468,13.69194]}},{"type":"Feature","properties":{"title":"ปากซอยคู้บอน 6","info":["เขต: คันนายาว","สถานะ: อยู่ระหว่างดำเนินการ"],"district":"คันนายาว","done":false},"geometry":{"type":"Point","coordinates":[100.66283,13.84255]}},{"type":"Feature","properties":{"title":"ถนนเพชรเกษม บริเวณเพชรเกษม ซอย 46 ถึงเพชรเกษม ซอย 48/1","info":["เขต: ภาษีเจริญ","สถานะ: รอดำเนินการ"],"district":"ภาษีเจริญ","done":false},"geometry":{"type":"Point","coordinates":[100.44414,13.71518]}},{"type":"Feature","properties":{"title":"แยกปทุมวัน (ถนนพระรามที่ 1 ตัดถนนพญาไท)","info":["เขต: ปทุมวัน","สถานะ: อยู่ระหว่างดำเนินการ"],"district":"ปทุมวัน","done":false},"geometry":{"type":"Point","coordinates":[100.53088,13.74623]}},{"type":"Feature","properties":{"title":"แยกกล้วยน้ำไท (ถนนพระราม 4 ตัดถนนกล้วยน้ำไท)","info":["เขต: คลองเตย","สถานะ: อยู่ระหว่างดำเนินการ"],"district":"คลองเตย","done":false},"geometry":{"type":"Point","coordinates":[100.58403,13.71298]}},{"type":"Feature","properties":{"title":"ถนนบางขุนเทียน-ชายทะเล (บริเวณซอยเทียนทะเล 7)","info":["เขต: บางขุนเทียน","สถานะ: อยู่ระหว่างดำเนินการ"],"district":"บางขุนเทียน","done":false},"geometry":{"type":"Point","coordinates":[100.43222,13.64147]}},{"type":"Feature","properties":{"title":"ถนนบางขุนเทียน-ชายทะเล (บริเวณซอยเทียนทะเล 11 - 15)","info":["เขต: บางขุนเทียน","สถานะ: ดำเนินการแล้วเสร็จ"],"district":"บางขุนเทียน","done":true},"geometry":{"type":"Point","coordinates":[100.43334,13.63497]}},{"type":"Feature","properties":{"title":"แยกรัชดา-สุทธิสาร","info":["เขต: ดินแดง","สถานะ: อยู่ระหว่างดำเนินการ"],"district":"ดินแดง","done":false},"geometry":{"type":"Point","coordinates":[100.57424,13.78975]}},{"type":"Feature","properties":{"title":"ถนนรัชดาภิเษก ช่วงใกล้ทางขึ้นลงทางด่วนฯ","info":["เขต: จตุจักร","สถานะ: อยู่ระหว่างดำเนินการ"],"district":"จตุจักร","done":false},"geometry":{"type":"Point","coordinates":[100.54118,13.8301]}},{"type":"Feature","properties":{"title":"สี่แยกบางพลัด","info":["เขต: บางพลัด","สถานะ: อยู่ระหว่างดำเนินการ"],"district":"บางพลัด","done":false},"geometry":{"type":"Point","coordinates":[100.49445,13.7846]}},{"type":"Feature","properties":{"title":"ถนนพระราม 4 ช่วงคลองเตย","info":["เขต: คลองเตย","สถานะ: อยู่ระหว่างดำเนินการ"],"district":"คลองเตย","done":false},"geometry":{"type":"Point","coordinates":[100.55776,13.72069]}},{"type":"Feature","properties":{"title":"แยกรามคำแหง (ถนนพระราม 9 - ถนนรามคำแหง)","info":["เขต: บางกะปิ","สถานะ: ดำเนินการแล้วเสร็จ"],"district":"บางกะปิ","done":true},"geometry":{"type":"Point","coordinates":[100.60556,13.74748]}},{"type":"Feature","properties":{"title":"ซอยโรงพยาบาลปิยะเวท","info":["เขต: ห้วยขวาง","สถานะ: ดำเนินการแล้วเสร็จ"],"district":"ห้วยขวาง","done":true},"geometry":{"type":"Point","coordinates":[100.57963,13.7544]}},{"type":"Feature","properties":{"title":"แยกศรีอุดม (ถนนศรีนครินทร์ - ถนนเฉลิมพระเกียรติ ร.9)","info":["เขต: ประเวศ","สถานะ: อยู่ระหว่างดำเนินการ"],"district":"ประเวศ","done":false},"geometry":{"type":"Point","coordinates":[100.64604,13.67783]}},{"type":"Feature","properties":{"title":"แยกอโศก-เพชรบุรี","info":["เขต: ราชเทวี","สถานะ: อยู่ระหว่างดำเนินการ"],"district":"ราชเทวี","done":false},"geometry":{"type":"Point","coordinates":[100.56336,13.74899]}},{"type":"Feature","properties":{"title":"แยกดินแดง (ถนนดินแดง - ถนนวิภาวดีรังสิต)","info":["เขต: พญาไท","สถานะ: ดำเนินการแล้วเสร็จ"],"district":"ดินแดง","done":true},"geometry":{"type":"Point","coordinates":[100.54809,13.76392]}},{"type":"Feature","properties":{"title":"แยกผังเมือง และบนสะพานข้ามแยก อสมท.","info":["เขต: ห้วยขวาง","สถานะ: อยู่ระหว่างดำเนินการ"],"district":"ห้วยขวาง","done":false},"geometry":{"type":"Point","coordinates":[100.57338,13.75555]}},{"type":"Feature","properties":{"title":"สี่แยกบ้านแขก (ถนนประชาธิปก - ถนนอิสรภาพ)","info":["เขต: ธนบุรี","สถานะ: อยู่ระหว่างดำเนินการ"],"district":"ธนบุรี","done":false},"geometry":{"type":"Point","coordinates":[100.49469,13.73093]}},{"type":"Feature","properties":{"title":"ถนนดินแดง ใกล้สามเหลี่ยมดินแดง","info":["เขต: พญาไท","สถานะ: อยู่ระหว่างดำเนินการ"],"district":"พญาไท","done":false},"geometry":{"type":"Point","coordinates":[100.54539,13.7634]}},{"type":"Feature","properties":{"title":"ถนนพระราม 9 บริเวณข้ามคลองชวดใหญ่","info":["เขต: ห้วยขวาง","สถานะ: อยู่ระหว่างดำเนินการ"],"district":"ห้วยขวาง","done":false},"geometry":{"type":"Point","coordinates":[100.58126,13.75474]}},{"type":"Feature","properties":{"title":"สะพานสูงบางซื่อ","info":["เขต: บางซื่อ","สถานะ: อยู่ระหว่างดำเนินการ"],"district":"บางซื่อ","done":false},"geometry":{"type":"Point","coordinates":[100.53587,13.80454]}},{"type":"Feature","properties":{"title":"ถนนสุขุมวิท ตัดถนนอ่อนนุช (สุขุมวิท 77)","info":["เขต: คลองเตย","สถานะ: อยู่ระหว่างดำเนินการ"],"district":"คลองเตย","done":false},"geometry":{"type":"Point","coordinates":[100.59943,13.7091]}},{"type":"Feature","properties":{"title":"แยกพระราม 9 (ถนนพระราม 9 - ถนนรัชดาภิเษก)","info":["เขต: ดินแดง","สถานะ: อยู่ระหว่างดำเนินการ"],"district":"ดินแดง","done":false},"geometry":{"type":"Point","coordinates":[100.56499,13.75614]}},{"type":"Feature","properties":{"title":"ถนนเพชรบุรีตัดใหม่ (โรงเรียนวัดใหม่ช่องลม - ปั้มน้ำมันเชลล์)","info":["เขต: ห้วยขวาง","สถานะ: อยู่ระหว่างดำเนินการ"],"district":"ห้วยขวาง","done":false},"geometry":{"type":"Point","coordinates":[100.57508,13.74689]}},{"type":"Feature","properties":{"title":"ถนนรัชดาภิษก ใกล้แยกรัชโยธิน (ซอยรัชดาฯ 44)","info":["เขต: จตุจักร","สถานะ: ดำเนินการแล้วเสร็จ"],"district":"จตุจักร","done":true},"geometry":{"type":"Point","coordinates":[100.57019,13.82597]}},{"type":"Feature","properties":{"title":"แยกมักกะสัน (ถนนราชปรารถ - ถนนศรีอยุธยา)","info":["เขต: ราชเทวี","สถานะ: ดำเนินการแล้วเสร็จ"],"district":"ราชเทวี","done":true},"geometry":{"type":"Point","coordinates":[100.5424,13.75612]}},{"type":"Feature","properties":{"title":"ถนนพัฒนาการ อุโมงค์ถนนพัฒนาการ","info":["เขต: สวนหลวง","สถานะ: อยู่ระหว่างดำเนินการ"],"district":"สวนหลวง","done":false},"geometry":{"type":"Point","coordinates":[100.61635,13.73647]}},{"type":"Feature","properties":{"title":"แยกพัฒนาการ (ถนนพัฒนาการ - ศรีนครินทร์)","info":["เขต: สวนหลวง","สถานะ: อยู่ระหว่างดำเนินการ"],"district":"สวนหลวง","done":false},"geometry":{"type":"Point","coordinates":[100.64114,13.73524]}},{"type":"Feature","properties":{"title":"ถนนประชาธิปก (ใกล้วงเวียนใหญ่)","info":["เขต: ธนบุรี","สถานะ: อยู่ระหว่างดำเนินการ"],"district":"ธนบุรี","done":false},"geometry":{"type":"Point","coordinates":[100.49302,13.72695]}},{"type":"Feature","properties":{"title":"แยกวงศ์สว่าง (ถนนวงศ์สว่าง ตัดถนนกรุงเทพ-นนทบุรี)","info":["เขต: บางซื่อ","สถานะ: ดำเนินการแล้วเสร็จ"],"district":"บางซื่อ","done":true},"geometry":{"type":"Point","coordinates":[100.52834,13.82847]}},{"type":"Feature","properties":{"title":"แยกมไหสวรรค์ (ถนนพระรามที่ 3 ตัดถนนสมเด็จพระเจ้าตากสิน)","info":["เขต: ธนบุรี","สถานะ: อยู่ระหว่างดำเนินการ"],"district":"ธนบุรี","done":false},"geometry":{"type":"Point","coordinates":[100.48554,13.70466]}},{"type":"Feature","properties":{"title":"ถนนเจริญนคร บริเวณซอย 39 - 47","info":["เขต: คลองสาน","สถานะ: อยู่ระหว่างดำเนินการ"],"district":"คลองสาน","done":false},"geometry":{"type":"Point","coordinates":[100.4995,13.71127]}},{"type":"Feature","properties":{"title":"สะพานสมเด็จพระเจ้าตากสิน","info":["เขต: คลองสาน","สถานะ: รอดำเนินการ"],"district":"สาทร","done":false},"geometry":{"type":"Point","coordinates":[100.51765,13.71808]}},{"type":"Feature","properties":{"title":"แยกท่าพระ (ถนนรัชดาภิเษก ตัดถนนจรัญสนิทวงศ์ ตัดถนนเพชรเกษม)","info":["เขต: บางกอกใหญ่","สถานะ: อยู่ระหว่างดำเนินการ"],"district":"บางกอกใหญ่","done":false},"geometry":{"type":"Point","coordinates":[100.47446,13.72924]}},{"type":"Feature","properties":{"title":"แยกถนนสมเด็จพระเจ้าตากสิน ตัดถนนราชพฤกษ์","info":["เขต: ธนบุรี","สถานะ: อยู่ระหว่างดำเนินการ"],"district":"ธนบุรี","done":false},"geometry":{"type":"Point","coordinates":[100.49122,13.72061]}},{"type":"Feature","properties":{"title":"แยกประชาธรรม (รามคำแหง 39) ถนนประดิษฐ์มนูธรรม","info":["เขต: วังทองหลาง","สถานะ: ดำเนินการแล้วเสร็จ"],"district":"วังทองหลาง","done":true},"geometry":{"type":"Point","coordinates":[100.60199,13.76705]}},{"type":"Feature","properties":{"title":"ถนนรัชดาภิเษก (บริเวณรัชดาภิเษก 32 หน้าศาลอาญา)","info":["เขต: จตุจักร","สถานะ: ดำเนินการแล้วเสร็จ"],"district":"จตุจักร","done":true},"geometry":{"type":"Point","coordinates":[100.57538,13.81597]}},{"type":"Feature","properties":{"title":"แยกอโศกมนตรี (ถนนสุขุมวิท ตัดถนนอโศกมนตรี)","info":["เขต: คลองเตย","สถานะ: อยู่ระหว่างดำเนินการ"],"district":"คลองเตย","done":false},"geometry":{"type":"Point","coordinates":[100.56129,13.73639]}},{"type":"Feature","properties":{"title":"สะพานข้ามแยกรัชดา-ลาดพร้าว","info":["เขต: จตุจักร","สถานะ: ดำเนินการแล้วเสร็จ"],"district":"จตุจักร","done":true},"geometry":{"type":"Point","coordinates":[100.57493,13.8054]}},{"type":"Feature","properties":{"title":"ถนนเพชรเกษม บริเวณเพชรเกษม ซอย 68 ถึงเพชรเกษม ซอย 74","info":["เขต: บางแค","สถานะ: อยู่ระหว่างดำเนินการ"],"district":"บางแค","done":false},"geometry":{"type":"Point","coordinates":[100.41536,13.71145]}},{"type":"Feature","properties":{"title":"แยกเกษมราษฎร์ (ถนนพระราม 4 ตัดถนนเกษมราษฎร์) ใกล้โลตัสพระราม 4","info":["เขต: คลองเตย","สถานะ: อยู่ระหว่างดำเนินการ"],"district":"คลองเตย","done":false},"geometry":{"type":"Point","coordinates":[100.56873,13.71827]}},{"type":"Feature","properties":{"title":"ถนนพุทธบูชา ตัดถนนประชาอุทิศ (ใกล้มจธ.)","info":["เขต: ทุ่งครุ","สถานะ: ดำเนินการแล้วเสร็จ"],"district":"ทุ่งครุ","done":true},"geometry":{"type":"Point","coordinates":[100.49565,13.64711]}},{"type":"Feature","properties":{"title":"ประชาราษฎร์สาย 1 หน้าซอยวัดบางโพโอมาวาส","info":["เขต: บางซื่อ","สถานะ: รอดำเนินการ"],"district":"บางซื่อ","done":false},"geometry":{"type":"Point","coordinates":[100.52175,13.80916]}},{"type":"Feature","properties":{"title":"ถนนสุคนธสวัสดิ์ (โค้งหักศอกบริเวณเสนานิเวศน์ ซอย 120)","info":["เขต: ลาดพร้าว","สถานะ: อยู่ระหว่างดำเนินการ"],"district":"ลาดพร้าว","done":false},"geometry":{"type":"Point","coordinates":[100.60871,13.82419]}},{"type":"Feature","properties":{"title":"แยกอนุสาวรีย์ประชาธิปไตย (ถนนราชดำเนินกลาง ตัดถนนดินสอ)","info":["เขต: พระนคร","สถานะ: อยู่ระหว่างดำเนินการ"],"district":"พระนคร","done":false},"geometry":{"type":"Point","coordinates":[100.50218,13.75654]}},{"type":"Feature","properties":{"title":"ถนนสุขสวัสดิ์ บริเวณซอย 27","info":["เขต: ราษฎร์บูรณะ","สถานะ: อยู่ระหว่างดำเนินการ"],"district":"ราษฎร์บูรณะ","done":false},"geometry":{"type":"Point","coordinates":[100.5023,13.6757]}},{"type":"Feature","properties":{"title":"ถนนจรัญสนิทวงศ์ บริเวณซอย 28","info":["เขต: บางกอกน้อย","สถานะ: อยู่ระหว่างดำเนินการ"],"district":"บางกอกน้อย","done":false},"geometry":{"type":"Point","coordinates":[100.46988,13.75081]}},{"type":"Feature","properties":{"title":"แยกถนนเชื่อมต่อพัฒนาการ ตัดถนนเฉลิมพระเกียรติ ร.9","info":["เขต: ประเวศ","สถานะ: อยู่ระหว่างดำเนินการ"],"district":"ประเวศ","done":false},"geometry":{"type":"Point","coordinates":[100.67548,13.69997]}},{"type":"Feature","properties":{"title":"แยกรัชวิภา (ถนนรัชดาภิเษก - ถนนวิภาวดีรังสิต)","info":["เขต: จตุจักร","สถานะ: รอดำเนินการ"],"district":"จตุจักร","done":false},"geometry":{"type":"Point","coordinates":[100.55729,13.83064]}},{"type":"Feature","properties":{"title":"ถนนหัวหมาก (ซอยรามคำแหง 24)","info":["เขต: บางกะปิ","สถานะ: อยู่ระหว่างดำเนินการ"],"district":"บางกะปิ","done":false},"geometry":{"type":"Point","coordinates":[100.62998,13.75473]}},{"type":"Feature","properties":{"title":"ถนนทองหล่อ บริเวณซอย 18 (โพธิบุตร)","info":["เขต: วัฒนา","สถานะ: อยู่ระหว่างดำเนินการ"],"district":"วัฒนา","done":false},"geometry":{"type":"Point","coordinates":[100.58305,13.73531]}},{"type":"Feature","properties":{"title":"ถนนพุทธบูชา ซอย 36 - ซอย 37/1","info":["เขต: ทุ่งครุ","สถานะ: อยู่ระหว่างดำเนินการ"],"district":"ทุ่งครุ","done":false},"geometry":{"type":"Point","coordinates":[100.47911,13.65078]}},{"type":"Feature","properties":{"title":"แยกประชาสงเคราะห์ (ถนนดินแดง ตัดถนนประชาสงเคราะห์)","info":["เขต: ดินแดง","สถานะ: ดำเนินการแล้วเสร็จ"],"district":"ดินแดง","done":true},"geometry":{"type":"Point","coordinates":[100.55489,13.7605]}},{"type":"Feature","properties":{"title":"ถนนบางขุนเทียน-ชายทะเล บริเวณข้ามคลองบางหญ้า (ระหว่างเทียนทะเล 26-28)","info":["เขต: บางขุนเทียน","สถานะ: ดำเนินการแล้วเสร็จ"],"district":"บางขุนเทียน","done":true},"geometry":{"type":"Point","coordinates":[100.43482,13.60528]}},{"type":"Feature","properties":{"title":"ถนนลาซาล (สุขุมวิท 105) ตัดถนนลาซาล 21 และถนนลาซาล 23","info":["เขต: บางนา","สถานะ: ดำเนินการแล้วเสร็จ"],"district":"บางนา","done":true},"geometry":{"type":"Point","coordinates":[100.61321,13.66385]}},{"type":"Feature","properties":{"title":"ถนนประชาธิปก หน้าโรงเรียนศึกษานารี (ถนนอรุณอัมรินทร์ ตัดถนนสมเด็จเจ้าพระยาตัดถนนประชาธิปก)","info":["เขต: ธนบุรี","สถานะ: อยู่ระหว่างดำเนินการ"],"district":"ธนบุรี","done":false},"geometry":{"type":"Point","coordinates":[100.49573,13.73427]}},{"type":"Feature","properties":{"title":"ถนนบางบอน 1 ซอย 9 ถึง ซอย 12","info":["เขต: บางบอน","สถานะ: ดำเนินการแล้วเสร็จ"],"district":"บางบอน","done":true},"geometry":{"type":"Point","coordinates":[100.42417,13.67932]}},{"type":"Feature","properties":{"title":"ถนนประชาอุทิศ ซอย 61 ตลาดทุ่งครุ","info":["เขต: ทุ่งครุ","สถานะ: อยู่ระหว่างดำเนินการ"],"district":"ทุ่งครุ","done":false},"geometry":{"type":"Point","coordinates":[100.49899,13.64459]}},{"type":"Feature","properties":{"title":"ถนนเอกชัย ซอย 50 – ซอย 64","info":["เขต: บางบอน","สถานะ: อยู่ระหว่างดำเนินการ"],"district":"บางบอน","done":false},"geometry":{"type":"Point","coordinates":[100.43689,13.68019]}},{"type":"Feature","properties":{"title":"แยกประชาอุทิศ (ถนนเทียมร่วมมิตรตัดถนนประชาอุทิศ)","info":["เขต: ห้วยขวาง","สถานะ: อยู่ระหว่างดำเนินการ"],"district":"ห้วยขวาง","done":false},"geometry":{"type":"Point","coordinates":[100.5865,13.76977]}},{"type":"Feature","properties":{"title":"ถนนเอกชัย ซอย 66/6 - 76","info":["เขต: บางบอน","สถานะ: ดำเนินการแล้วเสร็จ"],"district":"บางบอน","done":true},"geometry":{"type":"Point","coordinates":[100.41622,13.66885]}},{"type":"Feature","properties":{"title":"ถนนประชาอุทิศ ซอย 1 ถึงประชาอุทิศ ซอย 17","info":["เขต: ราษฎร์บูรณะ","สถานะ: อยู่ระหว่างดำเนินการ"],"district":"ราษฎร์บูรณะ","done":false},"geometry":{"type":"Point","coordinates":[100.50416,13.66627]}},{"type":"Feature","properties":{"title":"ถนนสะแกงาม ปากซอยสะแกงาม 32 - 52","info":["เขต: บางขุนเทียน","สถานะ: อยู่ระหว่างดำเนินการ"],"district":"บางขุนเทียน","done":false},"geometry":{"type":"Point","coordinates":[100.42535,13.63386]}},{"type":"Feature","properties":{"title":"ถนนอิสรภาพ บริเวณหน้ากองบัญชาการกองทัพเรือ","info":["เขต: บางกอกน้อย","สถานะ: อยู่ระหว่างดำเนินการ"],"district":"บางกอกน้อย","done":false},"geometry":{"type":"Point","coordinates":[100.47918,13.74853]}},{"type":"Feature","properties":{"title":"แยกรัชดา-ราชพฤกษ์","info":["เขต: ธนบุรี","สถานะ: อยู่ระหว่างดำเนินการ"],"district":"ธนบุรี","done":false},"geometry":{"type":"Point","coordinates":[100.47838,13.71528]}},{"type":"Feature","properties":{"title":"ถนนพหลโยธิน ตัดซอยพหลโยธิน 7 (ซอยอารีย์)","info":["เขต: พญาไท","สถานะ: รอดำเนินการ"],"district":"พญาไท","done":false},"geometry":{"type":"Point","coordinates":[100.54499,13.78087]}},{"type":"Feature","properties":{"title":"ซอยสุขสวัสดิ์ 26 ตัดซอยสุขสวัสดิ์ 30","info":["เขต: ราษฎร์บูรณะ","สถานะ: รอดำเนินการ"],"district":"ราษฎร์บูรณะ","done":false},"geometry":{"type":"Point","coordinates":[100.49305,13.67619]}},{"type":"Feature","properties":{"title":"ถนนประชาอุทิศ บริเวณประชาอุทิศ ซอย 72","info":["เขต: ทุ่งครุ","สถานะ: อยู่ระหว่างดำเนินการ"],"district":"ทุ่งครุ","done":false},"geometry":{"type":"Point","coordinates":[100.504,13.63038]}},{"type":"Feature","properties":{"title":"ถนนนวลจันทร์ บริเวณถนนนวลจันทร์ซอย 26 - 44","info":["เขต: บึงกุ่ม","สถานะ: ดำเนินการแล้วเสร็จ"],"district":"บึงกุ่ม","done":true},"geometry":{"type":"Point","coordinates":[100.64062,13.82647]}},{"type":"Feature","properties":{"title":"แยกถนนเจ้าคุณทหาร ตัดถนนฉลองกรุง","info":["เขต: ลาดกระบัง","สถานะ: อยู่ระหว่างดำเนินการ"],"district":"ลาดกระบัง","done":false},"geometry":{"type":"Point","coordinates":[100.79435,13.75051]}},{"type":"Feature","properties":{"title":"ประชาอุทิศ 90 (ถนนประชาอุทิศ)","info":["เขต: ทุ่งครุ","สถานะ: อยู่ระหว่างดำเนินการ"],"district":"ทุ่งครุ","done":false},"geometry":{"type":"Point","coordinates":[100.51066,13.61129]}},{"type":"Feature","properties":{"title":"ถนนเพชรเกษม 73/2 - เพชรเกษม 77","info":["เขต: หนองแขม","สถานะ: อยู่ระหว่างดำเนินการ"],"district":"หนองแขม","done":false},"geometry":{"type":"Point","coordinates":[100.36153,13.70694]}}]}