{"type":"FeatureCollection","features":[{"type":"Feature","properties":{"title":"ถนนอิสรภาพ บริเวณกองบัญชาการกองทัพเรือ","info":["เขต: บางกอกใหญ่","จำนวนอุบัติเหตุ: 194 ครั้ง"],"district":"บางกอกใหญ่"},"geometry":{"type":"Point","coordinates":[100.48047,13.74499]}},{"type":"Feature","properties":{"title":"แยกตลาดพลู รัชดา-ท่าพระ","info":["เขต: ธนบุรี","จำนวนอุบัติเหตุ: 191 ครั้ง"],"district":"ธนบุรี"},"geometry":{"type":"Point","coordinates":[100.47838,13.71528]}},{"type":"Feature","properties":{"title":"สี่แยกบางบอน 5 - เอกชัย 131","info":["เขต: บางบอน","จำนวนอุบัติเหตุ: 189 ครั้ง"],"district":"บางบอน"},"geometry":{"type":"Point","coordinates":[100.37195,13.63852]}},{"type":"Feature","properties":{"title":"ถนนพหลโยธิน ตัดซอยพหลโยธิน 7 (ซอยอารีย์)","info":["เขต: พญาไท","จำนวนอุบัติเหตุ: 186 ครั้ง"],"district":"พญาไท"},"geometry":{"type":"Point","coordinates":[100.54499,13.78087]}},{"type":"Feature","properties":{"title":"ซอยสุขสวัสดิ์ 26 ตัดซอยสุขสวัสดิ์ 30","info":["เขต: ราษฎร์บูรณะ","จำนวนอุบัติเหตุ: 185 ครั้ง"],"district":"ราษฎร์บูรณะ"},"geometry":{"type":"Point","coordinates":[100.49305,13.67619]}},{"type":"Feature","properties":{"title":"ถนนประชาอุทิศ บริเวณประชาอุทิศ ซอย 72 ถึงประชาอุทิศ ซอย 76","info":["เขต: ทุ่งครุ","จำนวนอุบัติเหตุ: 185 ครั้ง"],"district":"ทุ่งครุ"},"geometry":{"type":"Point","coordinates":[100.50456,13.62885]}},{"type":"Feature","properties":{"title":"ถนนนวลจันทร์ บริเวณถนนนวลจันทร์ซอย 26 - 44","info":["เขต: บึงกุ่ม","จำนวนอุบัติเหตุ: 179 ครั้ง"],"district":"บึงกุ่ม"},"geometry":{"type":"Point","coordinates":[100.64094,13.82574]}},{"type":"Feature","properties":{"title":"แยกถนนเจ้าคุณทหาร ตัดถนนฉลองกรุง","info":["เขต: ลาดกระบัง","จำนวนอุบัติเหตุ: 179 ครั้ง"],"district":"ลาดกระบัง"},"geometry":{"type":"Point","coordinates":[100.79435,13.75051]}},{"type":"Feature","properties":{"title":"ประชาอุทิศ 90 (ถนนประชาอุทิศ)","info":["เขต: ทุ่งครุ","จำนวนอุบัติเหตุ: 178 ครั้ง"],"district":"ทุ่งครุ"},"geometry":{"type":"Point","coordinates":[100.51066,13.61129]}},{"type":"Feature","properties":{"title":"ถนนเพชรเกษม 73/2 - เพชรเกษม 77","info":["เขต: หนองแขม","จำนวนอุบัติเหตุ: 177 ครั้ง"],"district":"หนองแขม"},"geometry":{"type":"Point","coordinates":[100.36416,13.70734]}},{"type":"Feature","properties":{"title":"ถนนเอกชัย ตัดถนนกำนันแม้น","info":["เขต: จอมทอง","จำนวนอุบัติเหตุ: 176 ครั้ง"],"district":"จอมทอง"},"geometry":{"type":"Point","coordinates":[100.44558,13.685]}},{"type":"Feature","properties":{"title":"ถนนประชาอุทิศ 33 และประชาอุทิศ 37","info":["เขต: ราษฎร์บูรณะ","จำนวนอุบัติเหตุ: 175 ครั้ง"],"district":"ราษฎร์บูรณะ"},"geometry":{"type":"Point","coordinates":[100.49942,13.65695]}},{"type":"Feature","properties":{"title":"ถนนบรมราชชนนี บริเวณหน้าร้านบุญถาวร และบรมราชชนนี 70/1","info":["เขต: เขตทวีวัฒนา","จำนวนอุบัติเหตุ: 175 ครั้ง"],"district":"ทวีวัฒนา"},"geometry":{"type":"Point","coordinates":[100.37178,13.78695]}},{"type":"Feature","properties":{"title":"ถนนพระราม 2 ตัดถนนสุขสวัสดิ์","info":["เขต: จอมทอง","จำนวนอุบัติเหตุ: 171 ครั้ง"],"district":"จอมทอง"},"geometry":{"type":"Point","coordinates":[100.4884,13.68456]}},{"type":"Feature","properties":{"title":"บางกระดี่ 35 แยก 1","info":["เขต: บางขุนเทียน","จำนวนอุบัติเหตุ: 171 ครั้ง"],"district":"บางขุนเทียน"},"geometry":{"type":"Point","coordinates":[100.40569,13.61388]}},{"type":"Feature","properties":{"title":"สีแยกรัชโยธิน (ถ.รัชดาภิเษก - ถ.พหลโยธิน)","info":["เขต: เขตจตุจักร","จำนวนอุบัติเหตุ: 170 ครั้ง"],"district":"จตุจักร"},"geometry":{"type":"Point","coordinates":[100.5681,13.82706]}},{"type":"Feature","properties":{"title":"ถนนราชพฤกษ์ ตัดถนนกัลปพฤกษ์","info":["เขต: จอมทอง","จำนวนอุบัติเหตุ: 167 ครั้ง"],"district":"จอมทอง"},"geometry":{"type":"Point","coordinates":[100.46,13.71277]}},{"type":"Feature","properties":{"title":"ถนนเฉลิมพระเกียรติ ร.9 ซอย 47","info":["เขต: ประเวศ","จำนวนอุบัติเหตุ: 165 ครั้ง"],"district":"ประเวศ"},"geometry":{"type":"Point","coordinates":[100.65909,13.68909]}},{"type":"Feature","properties":{"title":"ถนนบางบอน 3 ตัดถนนเอกชัย","info":["เขต: บางบอน","จำนวนอุบัติเหตุ: 161 ครั้ง"],"district":"บางบอน"},"geometry":{"type":"Point","coordinates":[100.3867,13.65032]}},{"type":"Feature","properties":{"title":"แยกห้วยขวาง (ถ.รัชดาภิเษก - ถ.ประชาราษฎร์บำเพ็ญ)","info":["เขต: เขตห้วยขวาง","จำนวนอุบัติเหตุ: 161 ครั้ง"],"district":"ดินแดง"},"geometry":{"type":"Point","coordinates":[100.57361,13.77845]}},{"type":"Feature","properties":{"title":"แยกจอมทอง (ถนนจอมทอง ตัดถนนวุฒากาศ ตัดถนนเอกชัย)","info":["เขต: จอมทอง","จำนวนอุบัติเหตุ: 157 ครั้ง"],"district":"จอมทอง"},"geometry":{"type":"Point","coordinates":[100.46727,13.69908]}},{"type":"Feature","properties":{"title":"พระราม 3 ซอย 66 (ถนนพระรามที่ 3)","info":["เขต: ยานนาวา","จำนวนอุบัติเหตุ: 151 ครั้ง"],"district":"ยานนาวา"},"geometry":{"type":"Point","coordinates":[100.54579,13.70181]}},{"type":"Feature","properties":{"title":"ถนนเอกชัยตัดถนนกาญจนาภิเษก ถึงซอยเอกชัย 88","info":["เขต: บางบอน","จำนวนอุบัติเหตุ: 150 ครั้ง"],"district":"บางบอน"},"geometry":{"type":"Point","coordinates":[100.40607,13.66321]}},{"type":"Feature","properties":{"title":"แยกถนนนวมินทร์-รามอินทรา ตัดถนนนวมินทร์","info":["เขต: บึงกุ่ม","จำนวนอุบัติเหตุ: 148 ครั้ง"],"district":"บึงกุ่ม"},"geometry":{"type":"Point","coordinates":[100.65422,13.81922]}},{"type":"Feature","properties":{"title":"ถนนประชาอุทิศ บริเวณประชาอุทิศ ซอย 79 ถึงประชาอุทิศ 89","info":["เขต: ทุ่งครุ","จำนวนอุบัติเหตุ: 147 ครั้ง"],"district":"ทุ่งครุ"},"geometry":{"type":"Point","coordinates":[100.5028,13.63416]}},{"type":"Feature","properties":{"title":"ซอยท่านหญิงพวงรัตน์ประไพ (สุขุมวิท 26)","info":["เขต: คลองเตย","จำนวนอุบัติเหตุ: 145 ครั้ง"],"district":"คลองเตย"},"geometry":{"type":"Point","coordinates":[100.57176,13.7243]}},{"type":"Feature","properties":{"title":"ถนนกำนันแม้น (กำนันแม้น ซอย 2 - กำนันแม้น ซอย 24)","info":["เขต: จอมทอง","จำนวนอุบัติเหตุ: 145 ครั้ง"],"district":"จอมทอง"},"geometry":{"type":"Point","coordinates":[100.4411,13.69042]}},{"type":"Feature","properties":{"title":"ถนนบางบอน 3 (บางบอน 3 ซอย 3 - บางบอน 3 ซอย 8)","info":["เขต: บางบอน","จำนวนอุบัติเหตุ: 144 ครั้ง"],"district":"บางบอน"},"geometry":{"type":"Point","coordinates":[100.38496,13.66775]}},{"type":"Feature","properties":{"title":"ถนนสะแกงาม ตัดถนนพระรามที่ 2","info":["เขต: บางขุนเทียน","จำนวนอุบัติเหตุ: 144 ครั้ง"],"district":"บางขุนเทียน"},"geometry":{"type":"Point","coordinates":[100.41333,13.64404]}},{"type":"Feature","properties":{"title":"ถนนสาธุประดิษฐ์ 57 แยก 3 (ซอยปรีชา)","info":["เขต: ยานนาวา","จำนวนอุบัติเหตุ: 144 ครั้ง"],"district":"ยานนาวา"},"geometry":{"type":"Point","coordinates":[100.53244,13.68032]}},{"type":"Feature","properties":{"title":"แยกถนนเพชรเกษม ตัดถนนเพชรเกษม 69","info":["เขต: บางแค","จำนวนอุบัติเหตุ: 143 ครั้ง"],"district":"บางแค"},"geometry":{"type":"Point","coordinates":[100.37383,13.70787]}},{"type":"Feature","properties":{"title":"แยกหลักสี่ (ถ.วิภาวดีรังสิต - ถ.แจ้งวัฒนะ)","info":["เขต: เขตหลักสี่","จำนวนอุบัติเหตุ: 142 ครั้ง"],"district":"หลักสี่"},"geometry":{"type":"Point","coordinates":[100.58154,13.88432]}},{"type":"Feature","properties":{"title":"แยกเกษตร (ถ.วิภาวดีรังสิต - ถ.งามวงศ์วาน)","info":["เขต: เขตจตุจักร","จำนวนอุบัติเหตุ: 141 ครั้ง"],"district":"จตุจักร"},"geometry":{"type":"Point","coordinates":[100.56108,13.84774]}},{"type":"Feature","properties":{"title":"บริเวณถนนรามอินทรา/ เลียบทางด่วนรามอินทรา","info":["เขต: บางเขน","จำนวนอุบัติเหตุ: 140 ครั้ง"],"district":"บางเขน"},"geometry":{"type":"Point","coordinates":[100.65438,13.85938]}},{"type":"Feature","properties":{"title":"แยกพระโขนง (ถนนสุขุมวิท ตัดถนนพระรามที่ 4)","info":["เขต: คลองเตย","จำนวนอุบัติเหตุ: 139 ครั้ง"],"district":"คลองเตย"},"geometry":{"type":"Point","coordinates":[100.59254,13.71428]}},{"type":"Feature","properties":{"title":"ถนนสรงประภา ตัด สรงประภา ซอย 5","info":["เขต: ดอนเมือง","จำนวนอุบัติเหตุ: 138 ครั้ง"],"district":"ดอนเมือง"},"geometry":{"type":"Point","coordinates":[100.59231,13.92543]}},{"type":"Feature","properties":{"title":"ถนนเพชรเกษม ตัดถนนมาเจริญ (ซอยเพชรเกษม 81)","info":["เขต: หนองแขม","จำนวนอุบัติเหตุ: 137 ครั้ง"],"district":"หนองแขม"},"geometry":{"type":"Point","coordinates":[100.34336,13.70525]}},{"type":"Feature","properties":{"title":"แยกบางพลัด และอุโมงค์บางพลัด","info":["เขต: บางพลัด","จำนวนอุบัติเหตุ: 137 ครั้ง"],"district":"บางพลัด"},"geometry":{"type":"Point","coordinates":[100.49436,13.78449]}},{"type":"Feature","properties":{"title":"ถนนกาญจนาภิเษก บริเวณแม็คโคร บางบอน","info":["เขต: บางบอน","จำนวนอุบัติเหตุ: 136 ครั้ง"],"district":"บางบอน"},"geometry":{"type":"Point","coordinates":[100.40624,13.67077]}},{"type":"Feature","properties":{"title":"ถนนประชาอุทิศ ตัดถนนครุใน","info":["เขต: ทุ่งครุ","จำนวนอุบัติเหตุ: 135 ครั้ง"],"district":"ทุ่งครุ"},"geometry":{"type":"Point","coordinates":[100.51033,13.62246]}},{"type":"Feature","properties":{"title":"ถนนสมเด็จพระเจ้าตากสิน (ตั้งแต่สมเด็จพระเจ้าตากสิน 40 - 44)","info":["เขต: ธนบุรี","จำนวนอุบัติเหตุ: 134 ครั้ง"],"district":"ธนบุรี"},"geometry":{"type":"Point","coordinates":[100.48404,13.70029]}},{"type":"Feature","properties":{"title":"ถนนเอกชัย บริเวณเอกชัย ซอย 10 ถึงเอกชัย ซอย 16","info":["เขต: จอมทอง","จำนวนอุบัติเหตุ: 132 ครั้ง"],"district":"จอมทอง"},"geometry":{"type":"Point","coordinates":[100.46002,13.69863]}},{"type":"Feature","properties":{"title":"ถนนสมเด็จพระเจ้าตากสิน (ตั้งแต่สมเด็จพระเจ้าตากสิน 11- 21)","info":["เขต: ธนบุรี","จำนวนอุบัติเหตุ: 132 ครั้ง"],"district":"ธนบุรี"},"geometry":{"type":"Point","coordinates":[100.48919,13.71472]}},{"type":"Feature","properties":{"title":"ถนนพรานนก ตัดถนนอิสรภาพ","info":["เขต: บางกอกน้อย","จำนวนอุบัติเหตุ: 130 ครั้ง"],"district":"บางกอกน้อย"},"geometry":{"type":"Point","coordinates":[100.47798,13.75556]}},{"type":"Feature","properties":{"title":"ซอยมีสุวรรณ 3 แยก 10 (ซอยจุฬาพรประสิทธิ์/ ถนนปรีดีพนมยงค์ 36)","info":["เขต: วัฒนา","จำนวนอุบัติเหตุ: 128 ครั้ง"],"district":"วัฒนา"},"geometry":{"type":"Point","coordinates":[100.60007,13.71726]}},{"type":"Feature","properties":{"title":"ประชาอุทิศ (ตั้งแต่ประชาอุทิศ39 - ประชาอุทิศ 47)","info":["เขต: ทุ่งครุ","จำนวนอุบัติเหตุ: 128 ครั้ง"],"district":"ทุ่งครุ"},"geometry":{"type":"Point","coordinates":[100.49678,13.65124]}},{"type":"Feature","properties":{"title":"ถนนศรีนครินทร์-ร่มเกล้า ตัดถนนกาญจนาภิเษก","info":["เขต: สะพานสูง","จำนวนอุบัติเหตุ: 126 ครั้ง"],"district":"สะพานสูง"},"geometry":{"type":"Point","coordinates":[100.70049,13.7533]}},{"type":"Feature","properties":{"title":"ถนนเอกชัย บริเวณเอกชัย 23 ถึงเอกชัย 35/1","info":["เขต: จอมทอง","จำนวนอุบัติเหตุ: 126 ครั้ง"],"district":"จอมทอง"},"geometry":{"type":"Point","coordinates":[100.45155,13.68888]}},{"type":"Feature","properties":{"title":"แยกพัฒนาการ (ถ.พัฒนาการ - ศรีนครินทร์)","info":["เขต: สวนหลวง","จำนวนอุบัติเหตุ: 480 ครั้ง"],"district":"สวนหลวง"},"geometry":{"type":"Point","coordinates":[100.64096,13.73554]}},{"type":"Feature","properties":{"title":"ถนนประชาธิปก (ใกล้วงเวียนใหญ่)","info":["เขต: คลองสาน","จำนวนอุบัติเหตุ: 464 ครั้ง"],"district":"ธนบุรี"},"geometry":{"type":"Point","coordinates":[100.4934,13.72723]}},{"type":"Feature","properties":{"title":"แยกวงศ์สว่าง (ถนนวงศ์สว่าง ตัดถนนกรุงเทพ-นนทบุรี)","info":["เขต: บางซื่อ","จำนวนอุบัติเหตุ: 418 ครั้ง"],"district":"บางซื่อ"},"geometry":{"type":"Point","coordinates":[100.52845,13.82828]}},{"type":"Feature","properties":{"title":"แยกบางหว้า (ถนนเพชรเกษม ตัดถนนราชพฤกษ์)","info":["เขต: ภาษีเจริญ","จำนวนอุบัติเหตุ: 401 ครั้ง"],"district":"ภาษีเจริญ"},"geometry":{"type":"Point","coordinates":[100.45787,13.72053]}},{"type":"Feature","properties":{"title":"แยกมไหสวรรค์ (ถนนพระรามที่ 3 ตัดถนนสมเด็จพระเจ้าตากสิน)","info":["เขต: ธนบุรี","จำนวนอุบัติเหตุ: 352 ครั้ง"],"district":"ธนบุรี"},"geometry":{"type":"Point","coordinates":[100.48557,13.70462]}},{"type":"Feature","properties":{"title":"ถนนเจริญนคร บริเวณซอย 47","info":["เขต: ธนบุรี","จำนวนอุบัติเหตุ: 345 ครั้ง"],"district":"คลองสาน"},"geometry":{"type":"Point","coordinates":[100.49902,13.71121]}},{"type":"Feature","properties":{"title":"สะพานสมเด็จพระเจ้าตากสิน","info":["เขต: คลองสาน","จำนวนอุบัติเหตุ: 260 ครั้ง"],"district":"คลองสาน"},"geometry":{"type":"Point","coordinates":[100.51153,13.71952]}},{"type":"Feature","properties":{"title":"ถนนราชพฤกษ์ ใกล้สถานี BTS วุฒากาศ","info":["เขต: ธนบุรี","จำนวนอุบัติเหตุ: 253 ครั้ง"],"district":"ธนบุรี"},"geometry":{"type":"Point","coordinates":[100.46891,13.71312]}},{"type":"Feature","properties":{"title":"แยกท่าพระ (ถนนรัชดาภิเษก ตัดถนนจรัญสนิทวงศ์ ตัดถนนเพชรเกษม)","info":["เขต: บางกอกใหญ่","จำนวนอุบัติเหตุ: 233 ครั้ง"],"district":"บางกอกใหญ่"},"geometry":{"type":"Point","coordinates":[100.47446,13.72924]}},{"type":"Feature","properties":{"title":"แยกถนนสมเด็จพระเจ้าตากสิน ตัดถนนราชพฤกษ์","info":["เขต: ธนบุรี","จำนวนอุบัติเหตุ: 224 ครั้ง"],"district":"ธนบุรี"},"geometry":{"type":"Point","coordinates":[100.49122,13.72061]}},{"type":"Feature","properties":{"title":"แยกประชาธรรม (รามคำแหง 39) ถนนประดิษฐ์มนูธรรม","info":["เขต: วังทองหลาง","จำนวนอุบัติเหตุ: 180 ครั้ง"],"district":"วังทองหลาง"},"geometry":{"type":"Point","coordinates":[100.60199,13.76705]}},{"type":"Feature","properties":{"title":"ถนนรัชดาภิเษก (บริเวณรัชดาภิเษก 32 หน้าศาลอาญา)","info":["เขต: จตุจักร","จำนวนอุบัติเหตุ: 179 ครั้ง"],"district":"จตุจักร"},"geometry":{"type":"Point","coordinates":[100.57545,13.81569]}},{"type":"Feature","properties":{"title":"ถนนประเสริฐมนูกิจ ตัดถนนประดิษฐ์มนูธรรม","info":["เขต: ลาดพร้าว","จำนวนอุบัติเหตุ: 170 ครั้ง"],"district":"ลาดพร้าว"},"geometry":{"type":"Point","coordinates":[100.62804,13.82574]}},{"type":"Feature","properties":{"title":"แยกอโศกมนตรี (ถนนสุขุมวิท ตัดถนนอโศกมนตรี)","info":["เขต: คลองเตย","จำนวนอุบัติเหตุ: 154 ครั้ง"],"district":"คลองเตย"},"geometry":{"type":"Point","coordinates":[100.56129,13.73639]}},{"type":"Feature","properties":{"title":"ถนนประเสริฐมนูกิจ ตัดถนนลาดปลาเค้า","info":["เขต: ลาดพร้าว","จำนวนอุบัติเหตุ: 137 ครั้ง"],"district":"ลาดพร้าว"},"geometry":{"type":"Point","coordinates":[100.59502,13.84178]}},{"type":"Feature","properties":{"title":"ถนนราชพฤกษ์ (ซอยสมเด็จพระเจ้าตากสิน8) ใกล้สถานีรถไฟฟ้าโพธิ์นิมิตร","info":["เขต: ธนบุรี","จำนวนอุบัติเหตุ: 123 ครั้ง"],"district":"ธนบุรี"},"geometry":{"type":"Point","coordinates":[100.48613,13.71909]}},{"type":"Feature","properties":{"title":"สะพานข้ามแยกรัชดา-ลาดพร้าว","info":["เขต: จตุจักร","จำนวนอุบัติเหตุ: 119 ครั้ง"],"district":"จตุจักร"},"geometry":{"type":"Point","coordinates":[100.57493,13.8054]}},{"type":"Feature","properties":{"title":"ถนนพระราม 2 (ทางหลวงแผ่นดินหมายเลข 35) (พระราม 2 ซอย 24 - พระราม 2 ซอย 28/1)","info":["เขต: จอมทอง","จำนวนอุบัติเหตุ: 117 ครั้ง"],"district":"จอมทอง"},"geometry":{"type":"Point","coordinates":[100.46507,13.67835]}},{"type":"Feature","properties":{"title":"ถนนเพชรเกษม บริเวณเพชรเกษม ซอย 68 ถึงเพชรเกษม ซอย 74","info":["เขต: บางแค","จำนวนอุบัติเหตุ: 1990 ครั้ง"],"district":"บางแค"},"geometry":{"type":"Point","coordinates":[100.41446,13.71137]}},{"type":"Feature","properties":{"title":"แยกเกษมราษฎร์ (ถนนพระราม 4 ตัดถนนเกษมราษฎร์) ใกล้โลตัสพระราม 4","info":["เขต: คลองเตย","จำนวนอุบัติเหตุ: 736 ครั้ง"],"district":"คลองเตย"},"geometry":{"type":"Point","coordinates":[100.56873,13.71827]}},{"type":"Feature","properties":{"title":"ถนนพุทธบูชา ตัดถนนประชาอุทิศ(ใกล้มจธ.)","info":["เขต: ทุ่งครุ","จำนวนอุบัติเหตุ: 512 ครั้ง"],"district":"ทุ่งครุ"},"geometry":{"type":"Point","coordinates":[100.49566,13.64722]}},{"type":"Feature","properties":{"title":"วัดบางโพโอมาวาส (ประชาราษฎร์สาย1 ซอย 19-21)","info":["เขต: บางซื่อ","จำนวนอุบัติเหตุ: 444 ครั้ง"],"district":"บางซื่อ"},"geometry":{"type":"Point","coordinates":[100.51967,13.80906]}},{"type":"Feature","properties":{"title":"ถนนสุคนธสวัสดิ์ (โค้งหักศอกบริเวณเสนานิเวศน์ ซอย 120)","info":["เขต: ลาดพร้าว","จำนวนอุบัติเหตุ: 435 ครั้ง"],"district":"ลาดพร้าว"},"geometry":{"type":"Point","coordinates":[100.60871,13.82419]}},{"type":"Feature","properties":{"title":"แยกอนุสาวรีย์ประชาธิปไตย (ถนนราชดำเนินกลาง ตัดถนนดินสอ)","info":["เขต: พระนคร","จำนวนอุบัติเหตุ: 391 ครั้ง"],"district":"พระนคร"},"geometry":{"type":"Point","coordinates":[100.5017,13.75599]}},{"type":"Feature","properties":{"title":"ถนนสุขสวัสดิ์ บริเวณซอย 27","info":["เขต: ราษฎร์บูรณะ","จำนวนอุบัติเหตุ: 389 ครั้ง"],"district":"ราษฎร์บูรณะ"},"geometry":{"type":"Point","coordinates":[100.5023,13.6757]}},{"type":"Feature","properties":{"title":"ถนนจรัญสนิทวงศ์ บริเวณซอย 28","info":["เขต: ภาษีเจริญ","จำนวนอุบัติเหตุ: 366 ครั้ง"],"district":"บางกอกน้อย"},"geometry":{"type":"Point","coordinates":[100.46988,13.75081]}},{"type":"Feature","properties":{"title":"ถนนเอกชัย ซอย 97 - 99","info":["เขต: บางบอน","จำนวนอุบัติเหตุ: 363 ครั้ง"],"district":"บางบอน"},"geometry":{"type":"Point","coordinates":[100.39848,13.65872]}},{"type":"Feature","properties":{"title":"สี่แยกเกษตร ถนนประเสริฐมนูกิจ","info":["เขต: เขตจตุจักร","จำนวนอุบัติเหตุ: 328 ครั้ง"],"district":"จตุจักร"},"geometry":{"type":"Point","coordinates":[100.57571,13.83985]}},{"type":"Feature","properties":{"title":"แยกถนนเชื่อมต่อพัฒนาการ ตัดถนนเฉลิมพระเกียรติ ร.9","info":["เขต: ประเวศ","จำนวนอุบัติเหตุ: 321 ครั้ง"],"district":"ประเวศ"},"geometry":{"type":"Point","coordinates":[100.67548,13.69997]}},{"type":"Feature","properties":{"title":"แยกรัชวิภา (ถ.รัชดาภิเษก - ถ.วิภาวดีรังสิต)","info":["เขต: เขตจตุจักร","จำนวนอุบัติเหตุ: 308 ครั้ง"],"district":"จตุจักร"},"geometry":{"type":"Point","coordinates":[100.55729,13.83064]}},{"type":"Feature","properties":{"title":"ถนนหัวหมาก (ซอยรามคำแหง 24)","info":["เขต: บางกะปิ","จำนวนอุบัติเหตุ: 300 ครั้ง"],"district":"บางกะปิ"},"geometry":{"type":"Point","coordinates":[100.62998,13.75447]}},{"type":"Feature","properties":{"title":"ถนนทองหล่อ บริเวณซอย 18 (โพธิบุตร)","info":["เขต: วัฒนา","จำนวนอุบัติเหตุ: 288 ครั้ง"],"district":"วัฒนา"},"geometry":{"type":"Point","coordinates":[100.58305,13.73531]}},{"type":"Feature","properties":{"title":"ถนนกัลปพฤกษ์ บริเวณข้ามคลองบางประทุน (พิกัดระหว่างแมคโครฟู้ดเซอร์วิสกัลปพฤกษ์ กับปั๊มปต","info":["เขต: จอมทอง","จำนวนอุบัติเหตุ: 282 ครั้ง"],"district":"จอมทอง"},"geometry":{"type":"Point","coordinates":[100.44461,13.70226]}},{"type":"Feature","properties":{"title":"สามแยกบางบอน (ถนนเอกชัย ตัดถนนบางขุนเทียน)","info":["เขต: บางบอน","จำนวนอุบัติเหตุ: 282 ครั้ง"],"district":"บางบอน"},"geometry":{"type":"Point","coordinates":[100.42559,13.67389]}},{"type":"Feature","properties":{"title":"ถนนสุขสวัสดิ์ (บริเวณทางขึ้นลงทางพิเศษเฉลิมมหานคร)","info":["เขต: ราษฎร์บูรณะ","จำนวนอุบัติเหตุ: 278 ครั้ง"],"district":"ราษฎร์บูรณะ"},"geometry":{"type":"Point","coordinates":[100.50885,13.67147]}},{"type":"Feature","properties":{"title":"ถนนพุทธบูชา ซ.36 - 37/1","info":["เขต: ทุ่งครุ","จำนวนอุบัติเหตุ: 271 ครั้ง"],"district":"ทุ่งครุ"},"geometry":{"type":"Point","coordinates":[100.47911,13.65078]}},{"type":"Feature","properties":{"title":"แยกประชาสงเคราะห์ (ถนนดินแดง ตัดถนนประชาสงเคราะห์)","info":["เขต: ดินแดง","จำนวนอุบัติเหตุ: 271 ครั้ง"],"district":"ดินแดง"},"geometry":{"type":"Point","coordinates":[100.55489,13.7605]}},{"type":"Feature","properties":{"title":"ถนนบางขุนเทียน-ชายทะเล บริเวณข้ามคลองบางหญ้า (ระหว่างเทียนทะเล 26-28)","info":["เขต: บางขุนเทียน","จำนวนอุบัติเหตุ: 267 ครั้ง"],"district":"บางขุนเทียน"},"geometry":{"type":"Point","coordinates":[100.43482,13.60528]}},{"type":"Feature","properties":{"title":"ถนนลาซาล (สุขุมวิท 105) ตัดถนนลาซาล 20 และถนนลาซาล 23","info":["เขต: บางนา","จำนวนอุบัติเหตุ: 265 ครั้ง"],"district":"บางนา"},"geometry":{"type":"Point","coordinates":[100.61321,13.66385]}},{"type":"Feature","properties":{"title":"แยกถนนประเสริฐมนูกิจ ตัดถนนนวมินทร์","info":["เขต: บึงกุ่ม","จำนวนอุบัติเหตุ: 252 ครั้ง"],"district":"บึงกุ่ม"},"geometry":{"type":"Point","coordinates":[100.65015,13.80982]}},{"type":"Feature","properties":{"title":"ถนนพระราม 2 ซอย 60/1 - 62","info":["เขต: บางขุนเทียน","จำนวนอุบัติเหตุ: 251 ครั้ง"],"district":"บางขุนเทียน"},"geometry":{"type":"Point","coordinates":[100.42065,13.64952]}},{"type":"Feature","properties":{"title":"ถนนประชาธิปก หน้าโรงเรียนศึกษานารี (ถนนอรุณอัมรินทร์ ตัดถนนสมเด็จเจ้าพระยา ตัดถนนประชาธิ","info":["เขต: ธนบุรี","จำนวนอุบัติเหตุ: 244 ครั้ง"],"district":"ธนบุรี"},"geometry":{"type":"Point","coordinates":[100.49599,13.735]}},{"type":"Feature","properties":{"title":"แยกถนนประเสริฐมนูกิจ ตัดถนนนวมินทร์-รามอินทรา","info":["เขต: บึงกุ่ม","จำนวนอุบัติเหตุ: 229 ครั้ง"],"district":"บึงกุ่ม"},"geometry":{"type":"Point","coordinates":[100.64237,13.81574]}},{"type":"Feature","properties":{"title":"ถนนบางบอน 1 ซอย 10 ถึง ซอย 12","info":["เขต: บางบอน","จำนวนอุบัติเหตุ: 224 ครั้ง"],"district":"บางบอน"},"geometry":{"type":"Point","coordinates":[100.42529,13.67794]}},{"type":"Feature","properties":{"title":"ถนนประชาอุทิศ ซอย 61 ตลาดทุ่งครุ ถึงประชาอุทิศ ซอย 67","info":["เขต: ทุ่งครุ","จำนวนอุบัติเหตุ: 223 ครั้ง"],"district":"ทุ่งครุ"},"geometry":{"type":"Point","coordinates":[100.49899,13.64459]}},{"type":"Feature","properties":{"title":"ถนนเอกชัย ซอย 50 - 64","info":["เขต: บางบอน","จำนวนอุบัติเหตุ: 221 ครั้ง"],"district":"บางบอน"},"geometry":{"type":"Point","coordinates":[100.43689,13.68019]}},{"type":"Feature","properties":{"title":"ถนนกาญจนาภิเษก ช่วงเพชรเกษม - กัลปพฤกษ์ (ใกล้โรงพยาบาลสัตว์มิราเคิล)","info":["เขต: บางแค","จำนวนอุบัติเหตุ: 219 ครั้ง"],"district":"บางแค"},"geometry":{"type":"Point","coordinates":[100.40759,13.69744]}},{"type":"Feature","properties":{"title":"แยกประชาอุทิศ​ (ถนนเทียมร่วมมิตร ตัดถนนประชาอุทิศ)","info":["เขต: ห้วยขวาง","จำนวนอุบัติเหตุ: 212 ครั้ง"],"district":"ห้วยขวาง"},"geometry":{"type":"Point","coordinates":[100.5865,13.76977]}},{"type":"Feature","properties":{"title":"ถนนเอกชัย ซอย 66/6 - 76","info":["เขต: บางบอน","จำนวนอุบัติเหตุ: 205 ครั้ง"],"district":"บางบอน"},"geometry":{"type":"Point","coordinates":[100.41622,13.66885]}},{"type":"Feature","properties":{"title":"ถนนประชาอุทิศ ซอย 1 ถึงประชาอุทิศ ซอย 17","info":["เขต: ราษฎร์บูรณะ","จำนวนอุบัติเหตุ: 204 ครั้ง"],"district":"ราษฎร์บูรณะ"},"geometry":{"type":"Point","coordinates":[100.5049,13.66887]}},{"type":"Feature","properties":{"title":"ถนนสะแกงาม ปากซอยสะแกงาม 32 - 52","info":["เขต: บางขุนเทียน","จำนวนอุบัติเหตุ: 200 ครั้ง"],"district":"บางขุนเทียน"},"geometry":{"type":"Point","coordinates":[100.42355,13.63403]}},{"type":"Feature","properties":{"title":"ถนนรามอินทรา จุดตัดกับวงแหวนรอบนอก (ถนนกาญจนาภิเษก)","info":["เขต: คันนายาว","จำนวนอุบัติเหตุ: 196 ครั้ง"],"district":"คันนายาว"},"geometry":{"type":"Point","coordinates":[100.67431,13.82707]}}]}